G0 X1.312 Y13.397 F3000
M4 S250
G1 X8.201 Y13.397 F1200
G1 X8.282 Y13.393 F1200
G1 X8.360 Y13.381 F1200
G1 X8.435 Y13.361 F1200
G1 X8.508 Y13.335 F1200
G1 X8.576 Y13.302 F1200
G1 X8.641 Y13.262 F1200
G1 X8.702 Y13.217 F1200
G1 X8.758 Y13.166 F1200
G1 X8.809 Y13.110 F1200
G1 X8.854 Y13.050 F1200
G1 X8.893 Y12.985 F1200
G1 X8.927 Y12.916 F1200
G1 X8.953 Y12.844 F1200
G1 X8.973 Y12.768 F1200
G1 X8.984 Y12.690 F1200
G1 X8.989 Y12.610 F1200
G1 X8.989 Y8.480 F1200
G1 X0.525 Y8.480 F1200
G1 X0.525 Y12.610 F1200
G1 X0.529 Y12.690 F1200
G1 X0.541 Y12.768 F1200
G1 X0.560 Y12.844 F1200
G1 X0.587 Y12.916 F1200
G1 X0.620 Y12.985 F1200
G1 X0.659 Y13.050 F1200
G1 X0.704 Y13.110 F1200
G1 X0.755 Y13.166 F1200
G1 X0.811 Y13.217 F1200
G1 X0.872 Y13.262 F1200
G1 X0.937 Y13.302 F1200
G1 X1.006 Y13.335 F1200
G1 X1.078 Y13.361 F1200
G1 X1.153 Y13.381 F1200
G1 X1.231 Y13.393 F1200
G1 X1.312 Y13.397 F1200
G1 X1.312 Y13.397 F1200
M5
G0 X14.475 Y10.708 F3000
M4 S250
G1 X14.465 Y10.490 F1200
G1 X14.432 Y10.273 F1200
G1 X14.379 Y10.061 F1200
G1 X14.304 Y9.855 F1200
G1 X14.210 Y9.658 F1200
G1 X14.097 Y9.470 F1200
G1 X13.966 Y9.294 F1200
G1 X13.818 Y9.132 F1200
G1 X13.654 Y8.986 F1200
G1 X13.477 Y8.855 F1200
G1 X13.288 Y8.743 F1200
G1 X13.089 Y8.649 F1200
G1 X12.882 Y8.576 F1200
G1 X12.668 Y8.523 F1200
G1 X12.450 Y8.491 F1200
G1 X12.230 Y8.480 F1200
G1 X12.010 Y8.491 F1200
G1 X11.792 Y8.523 F1200
G1 X11.578 Y8.576 F1200
G1 X11.370 Y8.649 F1200
G1 X11.171 Y8.743 F1200
G1 X10.982 Y8.855 F1200
G1 X10.805 Y8.986 F1200
G1 X10.642 Y9.132 F1200
G1 X10.494 Y9.294 F1200
G1 X10.362 Y9.470 F1200
G1 X10.249 Y9.658 F1200
G1 X10.155 Y9.855 F1200
G1 X10.081 Y10.061 F1200
G1 X10.027 Y10.273 F1200
G1 X9.995 Y10.490 F1200
G1 X9.984 Y10.708 F1200
G1 X9.995 Y10.926 F1200
G1 X10.027 Y11.143 F1200
G1 X10.081 Y11.355 F1200
G1 X10.155 Y11.561 F1200
G1 X10.249 Y11.758 F1200
G1 X10.362 Y11.946 F1200
G1 X10.494 Y12.121 F1200
G1 X10.642 Y12.283 F1200
G1 X10.805 Y12.430 F1200
G1 X10.982 Y12.561 F1200
G1 X11.171 Y12.673 F1200
G1 X11.370 Y12.766 F1200
G1 X11.578 Y12.840 F1200
G1 X11.792 Y12.893 F1200
G1 X12.010 Y12.925 F1200
G1 X12.230 Y12.936 F1200
G1 X12.450 Y12.925 F1200
G1 X12.668 Y12.893 F1200
G1 X12.882 Y12.840 F1200
G1 X13.089 Y12.766 F1200
G1 X13.288 Y12.673 F1200
G1 X13.477 Y12.561 F1200
G1 X13.654 Y12.430 F1200
G1 X13.818 Y12.283 F1200
G1 X13.966 Y12.121 F1200
G1 X14.097 Y11.946 F1200
G1 X14.210 Y11.758 F1200
G1 X14.304 Y11.561 F1200
G1 X14.379 Y11.355 F1200
G1 X14.432 Y11.143 F1200
G1 X14.465 Y10.926 F1200
G1 X14.475 Y10.708 F1200
M5
G0 X7.784 Y1.695 F3000
M4 S250
G1 X14.244 Y6.486 F1200
G1 X14.316 Y6.549 F1200
G1 X14.374 Y6.620 F1200
G1 X14.418 Y6.695 F1200
G1 X14.448 Y6.775 F1200
G1 X14.464 Y6.857 F1200
G1 X14.468 Y6.940 F1200
G1 X14.459 Y7.022 F1200
G1 X14.439 Y7.102 F1200
G1 X14.408 Y7.179 F1200
G1 X14.365 Y7.250 F1200
G1 X14.313 Y7.314 F1200
G1 X14.251 Y7.370 F1200
G1 X14.179 Y7.416 F1200
G1 X14.099 Y7.451 F1200
G1 X14.011 Y7.473 F1200
G1 X13.915 Y7.481 F1200
G1 X1.096 Y7.481 F1200
G1 X1.000 Y7.473 F1200
G1 X0.912 Y7.451 F1200
G1 X0.831 Y7.416 F1200
G1 X0.760 Y7.370 F1200
G1 X0.698 Y7.314 F1200
G1 X0.645 Y7.250 F1200
G1 X0.603 Y7.179 F1200
G1 X0.572 Y7.102 F1200
G1 X0.552 Y7.022 F1200
G1 X0.543 Y6.940 F1200
G1 X0.547 Y6.857 F1200
G1 X0.563 Y6.775 F1200
G1 X0.593 Y6.695 F1200
G1 X0.637 Y6.620 F1200
G1 X0.695 Y6.549 F1200
G1 X0.767 Y6.486 F1200
G1 X7.227 Y1.695 F1200
G1 X7.259 Y1.673 F1200
G1 X7.292 Y1.655 F1200
G1 X7.326 Y1.639 F1200
G1 X7.361 Y1.626 F1200
G1 X7.396 Y1.616 F1200
G1 X7.432 Y1.609 F1200
G1 X7.469 Y1.604 F1200
G1 X7.505 Y1.603 F1200
G1 X7.542 Y1.604 F1200
G1 X7.579 Y1.609 F1200
G1 X7.615 Y1.616 F1200
G1 X7.650 Y1.626 F1200
G1 X7.685 Y1.639 F1200
G1 X7.719 Y1.655 F1200
G1 X7.752 Y1.673 F1200
G1 X7.784 Y1.695 F1200
G1 X7.784 Y1.695 F1200
M5
G0 X7.149 Y1.753 F3000
M4 S250
G1 X7.862 Y1.753 F1200
M5
G0 X6.744 Y2.053 F3000
M4 S250
G1 X8.267 Y2.053 F1200
M5
G0 X6.340 Y2.353 F3000
M4 S250
G1 X8.671 Y2.353 F1200
M5
G0 X5.935 Y2.653 F3000
M4 S250
G1 X9.076 Y2.653 F1200
M5
G0 X5.531 Y2.953 F3000
M4 S250
G1 X9.480 Y2.953 F1200
M5
G0 X5.126 Y3.253 F3000
M4 S250
G1 X9.885 Y3.253 F1200
M5
G0 X4.722 Y3.553 F3000
M4 S250
G1 X10.289 Y3.553 F1200
M5
G0 X4.317 Y3.853 F3000
M4 S250
G1 X10.694 Y3.853 F1200
M5
G0 X3.913 Y4.153 F3000
M4 S250
G1 X11.098 Y4.153 F1200
M5
G0 X3.508 Y4.453 F3000
M4 S250
G1 X11.503 Y4.453 F1200
M5
G0 X3.104 Y4.753 F3000
M4 S250
G1 X11.907 Y4.753 F1200
M5
G0 X2.699 Y5.053 F3000
M4 S250
G1 X12.312 Y5.053 F1200
M5
G0 X2.295 Y5.353 F3000
M4 S250
G1 X12.716 Y5.353 F1200
M5
G0 X1.890 Y5.653 F3000
M4 S250
G1 X13.121 Y5.653 F1200
M5
G0 X1.485 Y5.953 F3000
M4 S250
G1 X13.525 Y5.953 F1200
M5
G0 X1.081 Y6.253 F3000
M4 S250
G1 X13.930 Y6.253 F1200
M5
G0 X0.691 Y6.553 F3000
M4 S250
G1 X14.320 Y6.553 F1200
M5
G0 X0.548 Y6.853 F3000
M4 S250
G1 X14.463 Y6.853 F1200
M5
G0 X0.593 Y7.153 F3000
M4 S250
G1 X14.418 Y7.153 F1200
M5
G0 X0.919 Y7.453 F3000
M4 S250
G1 X14.092 Y7.453 F1200
M5
G0 X0.525 Y8.653 F3000
M4 S250
G1 X8.989 Y8.653 F1200
M5
G0 X11.363 Y8.653 F3000
M4 S250
G1 X13.097 Y8.653 F1200
M5
G0 X0.525 Y8.953 F3000
M4 S250
G1 X8.989 Y8.953 F1200
M5
G0 X10.849 Y8.953 F3000
M4 S250
G1 X13.610 Y8.953 F1200
M5
G0 X0.525 Y9.253 F3000
M4 S250
G1 X8.989 Y9.253 F1200
M5
G0 X10.532 Y9.253 F3000
M4 S250
G1 X13.928 Y9.253 F1200
M5
G0 X0.525 Y9.553 F3000
M4 S250
G1 X8.989 Y9.553 F1200
M5
G0 X10.312 Y9.553 F3000
M4 S250
G1 X14.147 Y9.553 F1200
M5
G0 X0.525 Y9.853 F3000
M4 S250
G1 X8.989 Y9.853 F1200
M5
G0 X10.156 Y9.853 F3000
M4 S250
G1 X14.303 Y9.853 F1200
M5
G0 X0.525 Y10.153 F3000
M4 S250
G1 X8.989 Y10.153 F1200
M5
G0 X10.058 Y10.153 F3000
M4 S250
G1 X14.402 Y10.153 F1200
M5
G0 X0.525 Y10.453 F3000
M4 S250
G1 X8.989 Y10.453 F1200
M5
G0 X10.000 Y10.453 F3000
M4 S250
G1 X14.459 Y10.453 F1200
M5
G0 X0.525 Y10.753 F3000
M4 S250
G1 X8.989 Y10.753 F1200
M5
G0 X9.986 Y10.753 F3000
M4 S250
G1 X14.473 Y10.753 F1200
M5
G0 X0.525 Y11.053 F3000
M4 S250
G1 X8.989 Y11.053 F1200
M5
G0 X10.014 Y11.053 F3000
M4 S250
G1 X14.446 Y11.053 F1200
M5
G0 X0.525 Y11.353 F3000
M4 S250
G1 X8.989 Y11.353 F1200
M5
G0 X10.080 Y11.353 F3000
M4 S250
G1 X14.379 Y11.353 F1200
M5
G0 X0.525 Y11.653 F3000
M4 S250
G1 X8.989 Y11.653 F1200
M5
G0 X10.199 Y11.653 F3000
M4 S250
G1 X14.260 Y11.653 F1200
M5
G0 X0.525 Y11.953 F3000
M4 S250
G1 X8.989 Y11.953 F1200
M5
G0 X10.368 Y11.953 F3000
M4 S250
G1 X14.091 Y11.953 F1200
M5
G0 X0.525 Y12.253 F3000
M4 S250
G1 X8.989 Y12.253 F1200
M5
G0 X10.614 Y12.253 F3000
M4 S250
G1 X13.845 Y12.253 F1200
M5
G0 X0.525 Y12.553 F3000
M4 S250
G1 X8.989 Y12.553 F1200
M5
G0 X10.972 Y12.553 F3000
M4 S250
G1 X13.487 Y12.553 F1200
M5
G0 X0.564 Y12.853 F3000
M4 S250
G1 X8.950 Y12.853 F1200
M5
G0 X11.630 Y12.853 F3000
M4 S250
G1 X12.829 Y12.853 F1200
M5
G0 X0.743 Y13.153 F3000
M4 S250
G1 X8.770 Y13.153 F1200
M5
