; Suite de CORTE -- MDF Trupan 3.0mm -- lote L02
; Generado por laser_toolkit -- no editar a mano, regenerar desde el YAML de configuracion
G21 ; unidades en milimetros
G90 ; posicionamiento absoluto
M5 ; laser apagado por seguridad al iniciar
G0 X1.312 Y13.397 F3000
M4 S850
G1 X8.201 Y13.397 F80
G1 X8.282 Y13.393 F80
G1 X8.360 Y13.381 F80
G1 X8.435 Y13.361 F80
G1 X8.508 Y13.335 F80
G1 X8.576 Y13.302 F80
G1 X8.641 Y13.262 F80
G1 X8.702 Y13.217 F80
G1 X8.758 Y13.166 F80
G1 X8.809 Y13.110 F80
G1 X8.854 Y13.050 F80
G1 X8.893 Y12.985 F80
G1 X8.927 Y12.916 F80
G1 X8.953 Y12.844 F80
G1 X8.973 Y12.768 F80
G1 X8.984 Y12.690 F80
G1 X8.989 Y12.610 F80
G1 X8.989 Y8.480 F80
G1 X0.525 Y8.480 F80
G1 X0.525 Y12.610 F80
G1 X0.529 Y12.690 F80
G1 X0.541 Y12.768 F80
G1 X0.560 Y12.844 F80
G1 X0.587 Y12.916 F80
G1 X0.620 Y12.985 F80
G1 X0.659 Y13.050 F80
G1 X0.704 Y13.110 F80
G1 X0.755 Y13.166 F80
G1 X0.811 Y13.217 F80
G1 X0.872 Y13.262 F80
G1 X0.937 Y13.302 F80
G1 X1.006 Y13.335 F80
G1 X1.078 Y13.361 F80
G1 X1.153 Y13.381 F80
G1 X1.231 Y13.393 F80
G1 X1.312 Y13.397 F80
G1 X1.312 Y13.397 F80
M5
G0 X14.475 Y10.708 F3000
M4 S850
G1 X14.465 Y10.490 F80
G1 X14.432 Y10.273 F80
G1 X14.379 Y10.061 F80
G1 X14.304 Y9.855 F80
G1 X14.210 Y9.658 F80
G1 X14.097 Y9.470 F80
G1 X13.966 Y9.294 F80
G1 X13.818 Y9.132 F80
G1 X13.654 Y8.986 F80
G1 X13.477 Y8.855 F80
G1 X13.288 Y8.743 F80
G1 X13.089 Y8.649 F80
G1 X12.882 Y8.576 F80
G1 X12.668 Y8.523 F80
G1 X12.450 Y8.491 F80
G1 X12.230 Y8.480 F80
G1 X12.010 Y8.491 F80
G1 X11.792 Y8.523 F80
G1 X11.578 Y8.576 F80
G1 X11.370 Y8.649 F80
G1 X11.171 Y8.743 F80
G1 X10.982 Y8.855 F80
G1 X10.805 Y8.986 F80
G1 X10.642 Y9.132 F80
G1 X10.494 Y9.294 F80
G1 X10.362 Y9.470 F80
G1 X10.249 Y9.658 F80
G1 X10.155 Y9.855 F80
G1 X10.081 Y10.061 F80
G1 X10.027 Y10.273 F80
G1 X9.995 Y10.490 F80
G1 X9.984 Y10.708 F80
G1 X9.995 Y10.926 F80
G1 X10.027 Y11.143 F80
G1 X10.081 Y11.355 F80
G1 X10.155 Y11.561 F80
G1 X10.249 Y11.758 F80
G1 X10.362 Y11.946 F80
G1 X10.494 Y12.121 F80
G1 X10.642 Y12.283 F80
G1 X10.805 Y12.430 F80
G1 X10.982 Y12.561 F80
G1 X11.171 Y12.673 F80
G1 X11.370 Y12.766 F80
G1 X11.578 Y12.840 F80
G1 X11.792 Y12.893 F80
G1 X12.010 Y12.925 F80
G1 X12.230 Y12.936 F80
G1 X12.450 Y12.925 F80
G1 X12.668 Y12.893 F80
G1 X12.882 Y12.840 F80
G1 X13.089 Y12.766 F80
G1 X13.288 Y12.673 F80
G1 X13.477 Y12.561 F80
G1 X13.654 Y12.430 F80
G1 X13.818 Y12.283 F80
G1 X13.966 Y12.121 F80
G1 X14.097 Y11.946 F80
G1 X14.210 Y11.758 F80
G1 X14.304 Y11.561 F80
G1 X14.379 Y11.355 F80
G1 X14.432 Y11.143 F80
G1 X14.465 Y10.926 F80
G1 X14.475 Y10.708 F80
M5
G0 X7.784 Y1.695 F3000
M4 S850
G1 X14.244 Y6.486 F80
G1 X14.316 Y6.549 F80
G1 X14.374 Y6.620 F80
G1 X14.418 Y6.695 F80
G1 X14.448 Y6.775 F80
G1 X14.464 Y6.857 F80
G1 X14.468 Y6.940 F80
G1 X14.459 Y7.022 F80
G1 X14.439 Y7.102 F80
G1 X14.408 Y7.179 F80
G1 X14.365 Y7.250 F80
G1 X14.313 Y7.314 F80
G1 X14.251 Y7.370 F80
G1 X14.179 Y7.416 F80
G1 X14.099 Y7.451 F80
G1 X14.011 Y7.473 F80
G1 X13.915 Y7.481 F80
G1 X1.096 Y7.481 F80
G1 X1.000 Y7.473 F80
G1 X0.912 Y7.451 F80
G1 X0.831 Y7.416 F80
G1 X0.760 Y7.370 F80
G1 X0.698 Y7.314 F80
G1 X0.645 Y7.250 F80
G1 X0.603 Y7.179 F80
G1 X0.572 Y7.102 F80
G1 X0.552 Y7.022 F80
G1 X0.543 Y6.940 F80
G1 X0.547 Y6.857 F80
G1 X0.563 Y6.775 F80
G1 X0.593 Y6.695 F80
G1 X0.637 Y6.620 F80
G1 X0.695 Y6.549 F80
G1 X0.767 Y6.486 F80
G1 X7.227 Y1.695 F80
G1 X7.259 Y1.673 F80
G1 X7.292 Y1.655 F80
G1 X7.326 Y1.639 F80
G1 X7.361 Y1.626 F80
G1 X7.396 Y1.616 F80
G1 X7.432 Y1.609 F80
G1 X7.469 Y1.604 F80
G1 X7.505 Y1.603 F80
G1 X7.542 Y1.604 F80
G1 X7.579 Y1.609 F80
G1 X7.615 Y1.616 F80
G1 X7.650 Y1.626 F80
G1 X7.685 Y1.639 F80
G1 X7.719 Y1.655 F80
G1 X7.752 Y1.673 F80
G1 X7.784 Y1.695 F80
G1 X7.784 Y1.695 F80
M5
; pasada 2/3: aplicar z_step_mm de la configuracion (ajuste manual de Z o G-code M-code segun el firmware)
G0 X1.312 Y13.397 F3000
M4 S850
G1 X8.201 Y13.397 F80
G1 X8.282 Y13.393 F80
G1 X8.360 Y13.381 F80
G1 X8.435 Y13.361 F80
G1 X8.508 Y13.335 F80
G1 X8.576 Y13.302 F80
G1 X8.641 Y13.262 F80
G1 X8.702 Y13.217 F80
G1 X8.758 Y13.166 F80
G1 X8.809 Y13.110 F80
G1 X8.854 Y13.050 F80
G1 X8.893 Y12.985 F80
G1 X8.927 Y12.916 F80
G1 X8.953 Y12.844 F80
G1 X8.973 Y12.768 F80
G1 X8.984 Y12.690 F80
G1 X8.989 Y12.610 F80
G1 X8.989 Y8.480 F80
G1 X0.525 Y8.480 F80
G1 X0.525 Y12.610 F80
G1 X0.529 Y12.690 F80
G1 X0.541 Y12.768 F80
G1 X0.560 Y12.844 F80
G1 X0.587 Y12.916 F80
G1 X0.620 Y12.985 F80
G1 X0.659 Y13.050 F80
G1 X0.704 Y13.110 F80
G1 X0.755 Y13.166 F80
G1 X0.811 Y13.217 F80
G1 X0.872 Y13.262 F80
G1 X0.937 Y13.302 F80
G1 X1.006 Y13.335 F80
G1 X1.078 Y13.361 F80
G1 X1.153 Y13.381 F80
G1 X1.231 Y13.393 F80
G1 X1.312 Y13.397 F80
G1 X1.312 Y13.397 F80
M5
G0 X14.475 Y10.708 F3000
M4 S850
G1 X14.465 Y10.490 F80
G1 X14.432 Y10.273 F80
G1 X14.379 Y10.061 F80
G1 X14.304 Y9.855 F80
G1 X14.210 Y9.658 F80
G1 X14.097 Y9.470 F80
G1 X13.966 Y9.294 F80
G1 X13.818 Y9.132 F80
G1 X13.654 Y8.986 F80
G1 X13.477 Y8.855 F80
G1 X13.288 Y8.743 F80
G1 X13.089 Y8.649 F80
G1 X12.882 Y8.576 F80
G1 X12.668 Y8.523 F80
G1 X12.450 Y8.491 F80
G1 X12.230 Y8.480 F80
G1 X12.010 Y8.491 F80
G1 X11.792 Y8.523 F80
G1 X11.578 Y8.576 F80
G1 X11.370 Y8.649 F80
G1 X11.171 Y8.743 F80
G1 X10.982 Y8.855 F80
G1 X10.805 Y8.986 F80
G1 X10.642 Y9.132 F80
G1 X10.494 Y9.294 F80
G1 X10.362 Y9.470 F80
G1 X10.249 Y9.658 F80
G1 X10.155 Y9.855 F80
G1 X10.081 Y10.061 F80
G1 X10.027 Y10.273 F80
G1 X9.995 Y10.490 F80
G1 X9.984 Y10.708 F80
G1 X9.995 Y10.926 F80
G1 X10.027 Y11.143 F80
G1 X10.081 Y11.355 F80
G1 X10.155 Y11.561 F80
G1 X10.249 Y11.758 F80
G1 X10.362 Y11.946 F80
G1 X10.494 Y12.121 F80
G1 X10.642 Y12.283 F80
G1 X10.805 Y12.430 F80
G1 X10.982 Y12.561 F80
G1 X11.171 Y12.673 F80
G1 X11.370 Y12.766 F80
G1 X11.578 Y12.840 F80
G1 X11.792 Y12.893 F80
G1 X12.010 Y12.925 F80
G1 X12.230 Y12.936 F80
G1 X12.450 Y12.925 F80
G1 X12.668 Y12.893 F80
G1 X12.882 Y12.840 F80
G1 X13.089 Y12.766 F80
G1 X13.288 Y12.673 F80
G1 X13.477 Y12.561 F80
G1 X13.654 Y12.430 F80
G1 X13.818 Y12.283 F80
G1 X13.966 Y12.121 F80
G1 X14.097 Y11.946 F80
G1 X14.210 Y11.758 F80
G1 X14.304 Y11.561 F80
G1 X14.379 Y11.355 F80
G1 X14.432 Y11.143 F80
G1 X14.465 Y10.926 F80
G1 X14.475 Y10.708 F80
M5
G0 X7.784 Y1.695 F3000
M4 S850
G1 X14.244 Y6.486 F80
G1 X14.316 Y6.549 F80
G1 X14.374 Y6.620 F80
G1 X14.418 Y6.695 F80
G1 X14.448 Y6.775 F80
G1 X14.464 Y6.857 F80
G1 X14.468 Y6.940 F80
G1 X14.459 Y7.022 F80
G1 X14.439 Y7.102 F80
G1 X14.408 Y7.179 F80
G1 X14.365 Y7.250 F80
G1 X14.313 Y7.314 F80
G1 X14.251 Y7.370 F80
G1 X14.179 Y7.416 F80
G1 X14.099 Y7.451 F80
G1 X14.011 Y7.473 F80
G1 X13.915 Y7.481 F80
G1 X1.096 Y7.481 F80
G1 X1.000 Y7.473 F80
G1 X0.912 Y7.451 F80
G1 X0.831 Y7.416 F80
G1 X0.760 Y7.370 F80
G1 X0.698 Y7.314 F80
G1 X0.645 Y7.250 F80
G1 X0.603 Y7.179 F80
G1 X0.572 Y7.102 F80
G1 X0.552 Y7.022 F80
G1 X0.543 Y6.940 F80
G1 X0.547 Y6.857 F80
G1 X0.563 Y6.775 F80
G1 X0.593 Y6.695 F80
G1 X0.637 Y6.620 F80
G1 X0.695 Y6.549 F80
G1 X0.767 Y6.486 F80
G1 X7.227 Y1.695 F80
G1 X7.259 Y1.673 F80
G1 X7.292 Y1.655 F80
G1 X7.326 Y1.639 F80
G1 X7.361 Y1.626 F80
G1 X7.396 Y1.616 F80
G1 X7.432 Y1.609 F80
G1 X7.469 Y1.604 F80
G1 X7.505 Y1.603 F80
G1 X7.542 Y1.604 F80
G1 X7.579 Y1.609 F80
G1 X7.615 Y1.616 F80
G1 X7.650 Y1.626 F80
G1 X7.685 Y1.639 F80
G1 X7.719 Y1.655 F80
G1 X7.752 Y1.673 F80
G1 X7.784 Y1.695 F80
G1 X7.784 Y1.695 F80
M5
; pasada 3/3: aplicar z_step_mm de la configuracion (ajuste manual de Z o G-code M-code segun el firmware)
G0 X1.312 Y13.397 F3000
M4 S850
G1 X8.201 Y13.397 F80
G1 X8.282 Y13.393 F80
G1 X8.360 Y13.381 F80
G1 X8.435 Y13.361 F80
G1 X8.508 Y13.335 F80
G1 X8.576 Y13.302 F80
G1 X8.641 Y13.262 F80
G1 X8.702 Y13.217 F80
G1 X8.758 Y13.166 F80
G1 X8.809 Y13.110 F80
G1 X8.854 Y13.050 F80
G1 X8.893 Y12.985 F80
G1 X8.927 Y12.916 F80
G1 X8.953 Y12.844 F80
G1 X8.973 Y12.768 F80
G1 X8.984 Y12.690 F80
G1 X8.989 Y12.610 F80
G1 X8.989 Y8.480 F80
G1 X0.525 Y8.480 F80
G1 X0.525 Y12.610 F80
G1 X0.529 Y12.690 F80
G1 X0.541 Y12.768 F80
G1 X0.560 Y12.844 F80
G1 X0.587 Y12.916 F80
G1 X0.620 Y12.985 F80
G1 X0.659 Y13.050 F80
G1 X0.704 Y13.110 F80
G1 X0.755 Y13.166 F80
G1 X0.811 Y13.217 F80
G1 X0.872 Y13.262 F80
G1 X0.937 Y13.302 F80
G1 X1.006 Y13.335 F80
G1 X1.078 Y13.361 F80
G1 X1.153 Y13.381 F80
G1 X1.231 Y13.393 F80
G1 X1.312 Y13.397 F80
G1 X1.312 Y13.397 F80
M5
G0 X14.475 Y10.708 F3000
M4 S850
G1 X14.465 Y10.490 F80
G1 X14.432 Y10.273 F80
G1 X14.379 Y10.061 F80
G1 X14.304 Y9.855 F80
G1 X14.210 Y9.658 F80
G1 X14.097 Y9.470 F80
G1 X13.966 Y9.294 F80
G1 X13.818 Y9.132 F80
G1 X13.654 Y8.986 F80
G1 X13.477 Y8.855 F80
G1 X13.288 Y8.743 F80
G1 X13.089 Y8.649 F80
G1 X12.882 Y8.576 F80
G1 X12.668 Y8.523 F80
G1 X12.450 Y8.491 F80
G1 X12.230 Y8.480 F80
G1 X12.010 Y8.491 F80
G1 X11.792 Y8.523 F80
G1 X11.578 Y8.576 F80
G1 X11.370 Y8.649 F80
G1 X11.171 Y8.743 F80
G1 X10.982 Y8.855 F80
G1 X10.805 Y8.986 F80
G1 X10.642 Y9.132 F80
G1 X10.494 Y9.294 F80
G1 X10.362 Y9.470 F80
G1 X10.249 Y9.658 F80
G1 X10.155 Y9.855 F80
G1 X10.081 Y10.061 F80
G1 X10.027 Y10.273 F80
G1 X9.995 Y10.490 F80
G1 X9.984 Y10.708 F80
G1 X9.995 Y10.926 F80
G1 X10.027 Y11.143 F80
G1 X10.081 Y11.355 F80
G1 X10.155 Y11.561 F80
G1 X10.249 Y11.758 F80
G1 X10.362 Y11.946 F80
G1 X10.494 Y12.121 F80
G1 X10.642 Y12.283 F80
G1 X10.805 Y12.430 F80
G1 X10.982 Y12.561 F80
G1 X11.171 Y12.673 F80
G1 X11.370 Y12.766 F80
G1 X11.578 Y12.840 F80
G1 X11.792 Y12.893 F80
G1 X12.010 Y12.925 F80
G1 X12.230 Y12.936 F80
G1 X12.450 Y12.925 F80
G1 X12.668 Y12.893 F80
G1 X12.882 Y12.840 F80
G1 X13.089 Y12.766 F80
G1 X13.288 Y12.673 F80
G1 X13.477 Y12.561 F80
G1 X13.654 Y12.430 F80
G1 X13.818 Y12.283 F80
G1 X13.966 Y12.121 F80
G1 X14.097 Y11.946 F80
G1 X14.210 Y11.758 F80
G1 X14.304 Y11.561 F80
G1 X14.379 Y11.355 F80
G1 X14.432 Y11.143 F80
G1 X14.465 Y10.926 F80
G1 X14.475 Y10.708 F80
M5
G0 X7.784 Y1.695 F3000
M4 S850
G1 X14.244 Y6.486 F80
G1 X14.316 Y6.549 F80
G1 X14.374 Y6.620 F80
G1 X14.418 Y6.695 F80
G1 X14.448 Y6.775 F80
G1 X14.464 Y6.857 F80
G1 X14.468 Y6.940 F80
G1 X14.459 Y7.022 F80
G1 X14.439 Y7.102 F80
G1 X14.408 Y7.179 F80
G1 X14.365 Y7.250 F80
G1 X14.313 Y7.314 F80
G1 X14.251 Y7.370 F80
G1 X14.179 Y7.416 F80
G1 X14.099 Y7.451 F80
G1 X14.011 Y7.473 F80
G1 X13.915 Y7.481 F80
G1 X1.096 Y7.481 F80
G1 X1.000 Y7.473 F80
G1 X0.912 Y7.451 F80
G1 X0.831 Y7.416 F80
G1 X0.760 Y7.370 F80
G1 X0.698 Y7.314 F80
G1 X0.645 Y7.250 F80
G1 X0.603 Y7.179 F80
G1 X0.572 Y7.102 F80
G1 X0.552 Y7.022 F80
G1 X0.543 Y6.940 F80
G1 X0.547 Y6.857 F80
G1 X0.563 Y6.775 F80
G1 X0.593 Y6.695 F80
G1 X0.637 Y6.620 F80
G1 X0.695 Y6.549 F80
G1 X0.767 Y6.486 F80
G1 X7.227 Y1.695 F80
G1 X7.259 Y1.673 F80
G1 X7.292 Y1.655 F80
G1 X7.326 Y1.639 F80
G1 X7.361 Y1.626 F80
G1 X7.396 Y1.616 F80
G1 X7.432 Y1.609 F80
G1 X7.469 Y1.604 F80
G1 X7.505 Y1.603 F80
G1 X7.542 Y1.604 F80
G1 X7.579 Y1.609 F80
G1 X7.615 Y1.616 F80
G1 X7.650 Y1.626 F80
G1 X7.685 Y1.639 F80
G1 X7.719 Y1.655 F80
G1 X7.752 Y1.673 F80
G1 X7.784 Y1.695 F80
G1 X7.784 Y1.695 F80
M5
G0 X0.000 Y20.000 F3000
M4 S200
G1 X1.200 Y20.000 F1500
M5
G0 X0.000 Y20.000 F3000
M4 S200
G1 X0.000 Y19.000 F1500
M5
G0 X0.000 Y19.000 F3000
M4 S200
G1 X0.000 Y18.000 F1500
M5
G0 X0.000 Y18.000 F3000
M4 S200
G1 X1.200 Y18.000 F1500
M5
G0 X1.600 Y19.000 F3000
M4 S200
G1 X2.800 Y19.000 F1500
M5
G0 X3.200 Y20.000 F3000
M4 S200
G1 X4.400 Y20.000 F1500
M5
G0 X4.400 Y20.000 F3000
M4 S200
G1 X4.400 Y19.000 F1500
M5
G0 X4.400 Y19.000 F3000
M4 S200
G1 X4.400 Y18.000 F1500
M5
G0 X3.200 Y18.000 F3000
M4 S200
G1 X4.400 Y18.000 F1500
M5
G0 X3.200 Y19.000 F3000
M4 S200
G1 X3.200 Y18.000 F1500
M5
G0 X3.200 Y20.000 F3000
M4 S200
G1 X3.200 Y19.000 F1500
M5
G0 X4.800 Y20.000 F3000
M4 S200
G1 X6.000 Y20.000 F1500
M5
G0 X6.000 Y20.000 F3000
M4 S200
G1 X6.000 Y19.000 F1500
M5
G0 X6.000 Y19.000 F3000
M4 S200
G1 X6.000 Y18.000 F1500
M5
G0 X4.800 Y18.000 F3000
M4 S200
G1 X6.000 Y18.000 F1500
M5
G0 X4.800 Y19.000 F3000
M4 S200
G1 X4.800 Y18.000 F1500
M5
G0 X4.800 Y20.000 F3000
M4 S200
G1 X4.800 Y19.000 F1500
M5
G0 X7.600 Y20.000 F3000
M4 S200
G1 X7.600 Y19.000 F1500
M5
G0 X7.600 Y19.000 F3000
M4 S200
G1 X7.600 Y18.000 F1500
M5
G0 X19.812 Y13.397 F3000
M4 S850
G1 X26.701 Y13.397 F100
G1 X26.782 Y13.393 F100
G1 X26.860 Y13.381 F100
G1 X26.935 Y13.361 F100
G1 X27.008 Y13.335 F100
G1 X27.076 Y13.302 F100
G1 X27.141 Y13.262 F100
G1 X27.202 Y13.217 F100
G1 X27.258 Y13.166 F100
G1 X27.309 Y13.110 F100
G1 X27.354 Y13.050 F100
G1 X27.393 Y12.985 F100
G1 X27.427 Y12.916 F100
G1 X27.453 Y12.844 F100
G1 X27.473 Y12.768 F100
G1 X27.484 Y12.690 F100
G1 X27.489 Y12.610 F100
G1 X27.489 Y8.480 F100
G1 X19.025 Y8.480 F100
G1 X19.025 Y12.610 F100
G1 X19.029 Y12.690 F100
G1 X19.041 Y12.768 F100
G1 X19.060 Y12.844 F100
G1 X19.087 Y12.916 F100
G1 X19.120 Y12.985 F100
G1 X19.159 Y13.050 F100
G1 X19.204 Y13.110 F100
G1 X19.255 Y13.166 F100
G1 X19.311 Y13.217 F100
G1 X19.372 Y13.262 F100
G1 X19.437 Y13.302 F100
G1 X19.506 Y13.335 F100
G1 X19.578 Y13.361 F100
G1 X19.653 Y13.381 F100
G1 X19.731 Y13.393 F100
G1 X19.812 Y13.397 F100
G1 X19.812 Y13.397 F100
M5
G0 X32.975 Y10.708 F3000
M4 S850
G1 X32.965 Y10.490 F100
G1 X32.932 Y10.273 F100
G1 X32.879 Y10.061 F100
G1 X32.804 Y9.855 F100
G1 X32.710 Y9.658 F100
G1 X32.597 Y9.470 F100
G1 X32.466 Y9.294 F100
G1 X32.318 Y9.132 F100
G1 X32.154 Y8.986 F100
G1 X31.977 Y8.855 F100
G1 X31.788 Y8.743 F100
G1 X31.589 Y8.649 F100
G1 X31.382 Y8.576 F100
G1 X31.168 Y8.523 F100
G1 X30.950 Y8.491 F100
G1 X30.730 Y8.480 F100
G1 X30.510 Y8.491 F100
G1 X30.292 Y8.523 F100
G1 X30.078 Y8.576 F100
G1 X29.870 Y8.649 F100
G1 X29.671 Y8.743 F100
G1 X29.482 Y8.855 F100
G1 X29.305 Y8.986 F100
G1 X29.142 Y9.132 F100
G1 X28.994 Y9.294 F100
G1 X28.862 Y9.470 F100
G1 X28.749 Y9.658 F100
G1 X28.655 Y9.855 F100
G1 X28.581 Y10.061 F100
G1 X28.527 Y10.273 F100
G1 X28.495 Y10.490 F100
G1 X28.484 Y10.708 F100
G1 X28.495 Y10.926 F100
G1 X28.527 Y11.143 F100
G1 X28.581 Y11.355 F100
G1 X28.655 Y11.561 F100
G1 X28.749 Y11.758 F100
G1 X28.862 Y11.946 F100
G1 X28.994 Y12.121 F100
G1 X29.142 Y12.283 F100
G1 X29.305 Y12.430 F100
G1 X29.482 Y12.561 F100
G1 X29.671 Y12.673 F100
G1 X29.870 Y12.766 F100
G1 X30.078 Y12.840 F100
G1 X30.292 Y12.893 F100
G1 X30.510 Y12.925 F100
G1 X30.730 Y12.936 F100
G1 X30.950 Y12.925 F100
G1 X31.168 Y12.893 F100
G1 X31.382 Y12.840 F100
G1 X31.589 Y12.766 F100
G1 X31.788 Y12.673 F100
G1 X31.977 Y12.561 F100
G1 X32.154 Y12.430 F100
G1 X32.318 Y12.283 F100
G1 X32.466 Y12.121 F100
G1 X32.597 Y11.946 F100
G1 X32.710 Y11.758 F100
G1 X32.804 Y11.561 F100
G1 X32.879 Y11.355 F100
G1 X32.932 Y11.143 F100
G1 X32.965 Y10.926 F100
G1 X32.975 Y10.708 F100
M5
G0 X26.284 Y1.695 F3000
M4 S850
G1 X32.744 Y6.486 F100
G1 X32.816 Y6.549 F100
G1 X32.874 Y6.620 F100
G1 X32.918 Y6.695 F100
G1 X32.948 Y6.775 F100
G1 X32.964 Y6.857 F100
G1 X32.968 Y6.940 F100
G1 X32.959 Y7.022 F100
G1 X32.939 Y7.102 F100
G1 X32.908 Y7.179 F100
G1 X32.865 Y7.250 F100
G1 X32.813 Y7.314 F100
G1 X32.751 Y7.370 F100
G1 X32.679 Y7.416 F100
G1 X32.599 Y7.451 F100
G1 X32.511 Y7.473 F100
G1 X32.415 Y7.481 F100
G1 X19.596 Y7.481 F100
G1 X19.500 Y7.473 F100
G1 X19.412 Y7.451 F100
G1 X19.331 Y7.416 F100
G1 X19.260 Y7.370 F100
G1 X19.198 Y7.314 F100
G1 X19.145 Y7.250 F100
G1 X19.103 Y7.179 F100
G1 X19.072 Y7.102 F100
G1 X19.052 Y7.022 F100
G1 X19.043 Y6.940 F100
G1 X19.047 Y6.857 F100
G1 X19.063 Y6.775 F100
G1 X19.093 Y6.695 F100
G1 X19.137 Y6.620 F100
G1 X19.195 Y6.549 F100
G1 X19.267 Y6.486 F100
G1 X25.727 Y1.695 F100
G1 X25.759 Y1.673 F100
G1 X25.792 Y1.655 F100
G1 X25.826 Y1.639 F100
G1 X25.861 Y1.626 F100
G1 X25.896 Y1.616 F100
G1 X25.932 Y1.609 F100
G1 X25.969 Y1.604 F100
G1 X26.005 Y1.603 F100
G1 X26.042 Y1.604 F100
G1 X26.079 Y1.609 F100
G1 X26.115 Y1.616 F100
G1 X26.150 Y1.626 F100
G1 X26.185 Y1.639 F100
G1 X26.219 Y1.655 F100
G1 X26.252 Y1.673 F100
G1 X26.284 Y1.695 F100
G1 X26.284 Y1.695 F100
M5
; pasada 2/3: aplicar z_step_mm de la configuracion (ajuste manual de Z o G-code M-code segun el firmware)
G0 X19.812 Y13.397 F3000
M4 S850
G1 X26.701 Y13.397 F100
G1 X26.782 Y13.393 F100
G1 X26.860 Y13.381 F100
G1 X26.935 Y13.361 F100
G1 X27.008 Y13.335 F100
G1 X27.076 Y13.302 F100
G1 X27.141 Y13.262 F100
G1 X27.202 Y13.217 F100
G1 X27.258 Y13.166 F100
G1 X27.309 Y13.110 F100
G1 X27.354 Y13.050 F100
G1 X27.393 Y12.985 F100
G1 X27.427 Y12.916 F100
G1 X27.453 Y12.844 F100
G1 X27.473 Y12.768 F100
G1 X27.484 Y12.690 F100
G1 X27.489 Y12.610 F100
G1 X27.489 Y8.480 F100
G1 X19.025 Y8.480 F100
G1 X19.025 Y12.610 F100
G1 X19.029 Y12.690 F100
G1 X19.041 Y12.768 F100
G1 X19.060 Y12.844 F100
G1 X19.087 Y12.916 F100
G1 X19.120 Y12.985 F100
G1 X19.159 Y13.050 F100
G1 X19.204 Y13.110 F100
G1 X19.255 Y13.166 F100
G1 X19.311 Y13.217 F100
G1 X19.372 Y13.262 F100
G1 X19.437 Y13.302 F100
G1 X19.506 Y13.335 F100
G1 X19.578 Y13.361 F100
G1 X19.653 Y13.381 F100
G1 X19.731 Y13.393 F100
G1 X19.812 Y13.397 F100
G1 X19.812 Y13.397 F100
M5
G0 X32.975 Y10.708 F3000
M4 S850
G1 X32.965 Y10.490 F100
G1 X32.932 Y10.273 F100
G1 X32.879 Y10.061 F100
G1 X32.804 Y9.855 F100
G1 X32.710 Y9.658 F100
G1 X32.597 Y9.470 F100
G1 X32.466 Y9.294 F100
G1 X32.318 Y9.132 F100
G1 X32.154 Y8.986 F100
G1 X31.977 Y8.855 F100
G1 X31.788 Y8.743 F100
G1 X31.589 Y8.649 F100
G1 X31.382 Y8.576 F100
G1 X31.168 Y8.523 F100
G1 X30.950 Y8.491 F100
G1 X30.730 Y8.480 F100
G1 X30.510 Y8.491 F100
G1 X30.292 Y8.523 F100
G1 X30.078 Y8.576 F100
G1 X29.870 Y8.649 F100
G1 X29.671 Y8.743 F100
G1 X29.482 Y8.855 F100
G1 X29.305 Y8.986 F100
G1 X29.142 Y9.132 F100
G1 X28.994 Y9.294 F100
G1 X28.862 Y9.470 F100
G1 X28.749 Y9.658 F100
G1 X28.655 Y9.855 F100
G1 X28.581 Y10.061 F100
G1 X28.527 Y10.273 F100
G1 X28.495 Y10.490 F100
G1 X28.484 Y10.708 F100
G1 X28.495 Y10.926 F100
G1 X28.527 Y11.143 F100
G1 X28.581 Y11.355 F100
G1 X28.655 Y11.561 F100
G1 X28.749 Y11.758 F100
G1 X28.862 Y11.946 F100
G1 X28.994 Y12.121 F100
G1 X29.142 Y12.283 F100
G1 X29.305 Y12.430 F100
G1 X29.482 Y12.561 F100
G1 X29.671 Y12.673 F100
G1 X29.870 Y12.766 F100
G1 X30.078 Y12.840 F100
G1 X30.292 Y12.893 F100
G1 X30.510 Y12.925 F100
G1 X30.730 Y12.936 F100
G1 X30.950 Y12.925 F100
G1 X31.168 Y12.893 F100
G1 X31.382 Y12.840 F100
G1 X31.589 Y12.766 F100
G1 X31.788 Y12.673 F100
G1 X31.977 Y12.561 F100
G1 X32.154 Y12.430 F100
G1 X32.318 Y12.283 F100
G1 X32.466 Y12.121 F100
G1 X32.597 Y11.946 F100
G1 X32.710 Y11.758 F100
G1 X32.804 Y11.561 F100
G1 X32.879 Y11.355 F100
G1 X32.932 Y11.143 F100
G1 X32.965 Y10.926 F100
G1 X32.975 Y10.708 F100
M5
G0 X26.284 Y1.695 F3000
M4 S850
G1 X32.744 Y6.486 F100
G1 X32.816 Y6.549 F100
G1 X32.874 Y6.620 F100
G1 X32.918 Y6.695 F100
G1 X32.948 Y6.775 F100
G1 X32.964 Y6.857 F100
G1 X32.968 Y6.940 F100
G1 X32.959 Y7.022 F100
G1 X32.939 Y7.102 F100
G1 X32.908 Y7.179 F100
G1 X32.865 Y7.250 F100
G1 X32.813 Y7.314 F100
G1 X32.751 Y7.370 F100
G1 X32.679 Y7.416 F100
G1 X32.599 Y7.451 F100
G1 X32.511 Y7.473 F100
G1 X32.415 Y7.481 F100
G1 X19.596 Y7.481 F100
G1 X19.500 Y7.473 F100
G1 X19.412 Y7.451 F100
G1 X19.331 Y7.416 F100
G1 X19.260 Y7.370 F100
G1 X19.198 Y7.314 F100
G1 X19.145 Y7.250 F100
G1 X19.103 Y7.179 F100
G1 X19.072 Y7.102 F100
G1 X19.052 Y7.022 F100
G1 X19.043 Y6.940 F100
G1 X19.047 Y6.857 F100
G1 X19.063 Y6.775 F100
G1 X19.093 Y6.695 F100
G1 X19.137 Y6.620 F100
G1 X19.195 Y6.549 F100
G1 X19.267 Y6.486 F100
G1 X25.727 Y1.695 F100
G1 X25.759 Y1.673 F100
G1 X25.792 Y1.655 F100
G1 X25.826 Y1.639 F100
G1 X25.861 Y1.626 F100
G1 X25.896 Y1.616 F100
G1 X25.932 Y1.609 F100
G1 X25.969 Y1.604 F100
G1 X26.005 Y1.603 F100
G1 X26.042 Y1.604 F100
G1 X26.079 Y1.609 F100
G1 X26.115 Y1.616 F100
G1 X26.150 Y1.626 F100
G1 X26.185 Y1.639 F100
G1 X26.219 Y1.655 F100
G1 X26.252 Y1.673 F100
G1 X26.284 Y1.695 F100
G1 X26.284 Y1.695 F100
M5
; pasada 3/3: aplicar z_step_mm de la configuracion (ajuste manual de Z o G-code M-code segun el firmware)
G0 X19.812 Y13.397 F3000
M4 S850
G1 X26.701 Y13.397 F100
G1 X26.782 Y13.393 F100
G1 X26.860 Y13.381 F100
G1 X26.935 Y13.361 F100
G1 X27.008 Y13.335 F100
G1 X27.076 Y13.302 F100
G1 X27.141 Y13.262 F100
G1 X27.202 Y13.217 F100
G1 X27.258 Y13.166 F100
G1 X27.309 Y13.110 F100
G1 X27.354 Y13.050 F100
G1 X27.393 Y12.985 F100
G1 X27.427 Y12.916 F100
G1 X27.453 Y12.844 F100
G1 X27.473 Y12.768 F100
G1 X27.484 Y12.690 F100
G1 X27.489 Y12.610 F100
G1 X27.489 Y8.480 F100
G1 X19.025 Y8.480 F100
G1 X19.025 Y12.610 F100
G1 X19.029 Y12.690 F100
G1 X19.041 Y12.768 F100
G1 X19.060 Y12.844 F100
G1 X19.087 Y12.916 F100
G1 X19.120 Y12.985 F100
G1 X19.159 Y13.050 F100
G1 X19.204 Y13.110 F100
G1 X19.255 Y13.166 F100
G1 X19.311 Y13.217 F100
G1 X19.372 Y13.262 F100
G1 X19.437 Y13.302 F100
G1 X19.506 Y13.335 F100
G1 X19.578 Y13.361 F100
G1 X19.653 Y13.381 F100
G1 X19.731 Y13.393 F100
G1 X19.812 Y13.397 F100
G1 X19.812 Y13.397 F100
M5
G0 X32.975 Y10.708 F3000
M4 S850
G1 X32.965 Y10.490 F100
G1 X32.932 Y10.273 F100
G1 X32.879 Y10.061 F100
G1 X32.804 Y9.855 F100
G1 X32.710 Y9.658 F100
G1 X32.597 Y9.470 F100
G1 X32.466 Y9.294 F100
G1 X32.318 Y9.132 F100
G1 X32.154 Y8.986 F100
G1 X31.977 Y8.855 F100
G1 X31.788 Y8.743 F100
G1 X31.589 Y8.649 F100
G1 X31.382 Y8.576 F100
G1 X31.168 Y8.523 F100
G1 X30.950 Y8.491 F100
G1 X30.730 Y8.480 F100
G1 X30.510 Y8.491 F100
G1 X30.292 Y8.523 F100
G1 X30.078 Y8.576 F100
G1 X29.870 Y8.649 F100
G1 X29.671 Y8.743 F100
G1 X29.482 Y8.855 F100
G1 X29.305 Y8.986 F100
G1 X29.142 Y9.132 F100
G1 X28.994 Y9.294 F100
G1 X28.862 Y9.470 F100
G1 X28.749 Y9.658 F100
G1 X28.655 Y9.855 F100
G1 X28.581 Y10.061 F100
G1 X28.527 Y10.273 F100
G1 X28.495 Y10.490 F100
G1 X28.484 Y10.708 F100
G1 X28.495 Y10.926 F100
G1 X28.527 Y11.143 F100
G1 X28.581 Y11.355 F100
G1 X28.655 Y11.561 F100
G1 X28.749 Y11.758 F100
G1 X28.862 Y11.946 F100
G1 X28.994 Y12.121 F100
G1 X29.142 Y12.283 F100
G1 X29.305 Y12.430 F100
G1 X29.482 Y12.561 F100
G1 X29.671 Y12.673 F100
G1 X29.870 Y12.766 F100
G1 X30.078 Y12.840 F100
G1 X30.292 Y12.893 F100
G1 X30.510 Y12.925 F100
G1 X30.730 Y12.936 F100
G1 X30.950 Y12.925 F100
G1 X31.168 Y12.893 F100
G1 X31.382 Y12.840 F100
G1 X31.589 Y12.766 F100
G1 X31.788 Y12.673 F100
G1 X31.977 Y12.561 F100
G1 X32.154 Y12.430 F100
G1 X32.318 Y12.283 F100
G1 X32.466 Y12.121 F100
G1 X32.597 Y11.946 F100
G1 X32.710 Y11.758 F100
G1 X32.804 Y11.561 F100
G1 X32.879 Y11.355 F100
G1 X32.932 Y11.143 F100
G1 X32.965 Y10.926 F100
G1 X32.975 Y10.708 F100
M5
G0 X26.284 Y1.695 F3000
M4 S850
G1 X32.744 Y6.486 F100
G1 X32.816 Y6.549 F100
G1 X32.874 Y6.620 F100
G1 X32.918 Y6.695 F100
G1 X32.948 Y6.775 F100
G1 X32.964 Y6.857 F100
G1 X32.968 Y6.940 F100
G1 X32.959 Y7.022 F100
G1 X32.939 Y7.102 F100
G1 X32.908 Y7.179 F100
G1 X32.865 Y7.250 F100
G1 X32.813 Y7.314 F100
G1 X32.751 Y7.370 F100
G1 X32.679 Y7.416 F100
G1 X32.599 Y7.451 F100
G1 X32.511 Y7.473 F100
G1 X32.415 Y7.481 F100
G1 X19.596 Y7.481 F100
G1 X19.500 Y7.473 F100
G1 X19.412 Y7.451 F100
G1 X19.331 Y7.416 F100
G1 X19.260 Y7.370 F100
G1 X19.198 Y7.314 F100
G1 X19.145 Y7.250 F100
G1 X19.103 Y7.179 F100
G1 X19.072 Y7.102 F100
G1 X19.052 Y7.022 F100
G1 X19.043 Y6.940 F100
G1 X19.047 Y6.857 F100
G1 X19.063 Y6.775 F100
G1 X19.093 Y6.695 F100
G1 X19.137 Y6.620 F100
G1 X19.195 Y6.549 F100
G1 X19.267 Y6.486 F100
G1 X25.727 Y1.695 F100
G1 X25.759 Y1.673 F100
G1 X25.792 Y1.655 F100
G1 X25.826 Y1.639 F100
G1 X25.861 Y1.626 F100
G1 X25.896 Y1.616 F100
G1 X25.932 Y1.609 F100
G1 X25.969 Y1.604 F100
G1 X26.005 Y1.603 F100
G1 X26.042 Y1.604 F100
G1 X26.079 Y1.609 F100
G1 X26.115 Y1.616 F100
G1 X26.150 Y1.626 F100
G1 X26.185 Y1.639 F100
G1 X26.219 Y1.655 F100
G1 X26.252 Y1.673 F100
G1 X26.284 Y1.695 F100
G1 X26.284 Y1.695 F100
M5
G0 X18.500 Y20.000 F3000
M4 S200
G1 X19.700 Y20.000 F1500
M5
G0 X18.500 Y20.000 F3000
M4 S200
G1 X18.500 Y19.000 F1500
M5
G0 X18.500 Y19.000 F3000
M4 S200
G1 X18.500 Y18.000 F1500
M5
G0 X18.500 Y18.000 F3000
M4 S200
G1 X19.700 Y18.000 F1500
M5
G0 X20.100 Y19.000 F3000
M4 S200
G1 X21.300 Y19.000 F1500
M5
G0 X21.700 Y20.000 F3000
M4 S200
G1 X22.900 Y20.000 F1500
M5
G0 X22.900 Y20.000 F3000
M4 S200
G1 X22.900 Y19.000 F1500
M5
G0 X22.900 Y19.000 F3000
M4 S200
G1 X22.900 Y18.000 F1500
M5
G0 X21.700 Y18.000 F3000
M4 S200
G1 X22.900 Y18.000 F1500
M5
G0 X21.700 Y19.000 F3000
M4 S200
G1 X21.700 Y18.000 F1500
M5
G0 X21.700 Y20.000 F3000
M4 S200
G1 X21.700 Y19.000 F1500
M5
G0 X23.300 Y20.000 F3000
M4 S200
G1 X24.500 Y20.000 F1500
M5
G0 X24.500 Y20.000 F3000
M4 S200
G1 X24.500 Y19.000 F1500
M5
G0 X24.500 Y19.000 F3000
M4 S200
G1 X24.500 Y18.000 F1500
M5
G0 X23.300 Y18.000 F3000
M4 S200
G1 X24.500 Y18.000 F1500
M5
G0 X23.300 Y19.000 F3000
M4 S200
G1 X23.300 Y18.000 F1500
M5
G0 X23.300 Y20.000 F3000
M4 S200
G1 X23.300 Y19.000 F1500
M5
G0 X24.900 Y20.000 F3000
M4 S200
G1 X26.100 Y20.000 F1500
M5
G0 X26.100 Y20.000 F3000
M4 S200
G1 X26.100 Y19.000 F1500
M5
G0 X24.900 Y19.000 F3000
M4 S200
G1 X26.100 Y19.000 F1500
M5
G0 X24.900 Y19.000 F3000
M4 S200
G1 X24.900 Y18.000 F1500
M5
G0 X24.900 Y18.000 F3000
M4 S200
G1 X26.100 Y18.000 F1500
M5
G0 X19.812 Y31.897 F3000
M4 S1000
G1 X26.701 Y31.897 F100
G1 X26.782 Y31.893 F100
G1 X26.860 Y31.881 F100
G1 X26.935 Y31.861 F100
G1 X27.008 Y31.835 F100
G1 X27.076 Y31.802 F100
G1 X27.141 Y31.762 F100
G1 X27.202 Y31.717 F100
G1 X27.258 Y31.666 F100
G1 X27.309 Y31.610 F100
G1 X27.354 Y31.550 F100
G1 X27.393 Y31.485 F100
G1 X27.427 Y31.416 F100
G1 X27.453 Y31.344 F100
G1 X27.473 Y31.268 F100
G1 X27.484 Y31.190 F100
G1 X27.489 Y31.110 F100
G1 X27.489 Y26.980 F100
G1 X19.025 Y26.980 F100
G1 X19.025 Y31.110 F100
G1 X19.029 Y31.190 F100
G1 X19.041 Y31.268 F100
G1 X19.060 Y31.344 F100
G1 X19.087 Y31.416 F100
G1 X19.120 Y31.485 F100
G1 X19.159 Y31.550 F100
G1 X19.204 Y31.610 F100
G1 X19.255 Y31.666 F100
G1 X19.311 Y31.717 F100
G1 X19.372 Y31.762 F100
G1 X19.437 Y31.802 F100
G1 X19.506 Y31.835 F100
G1 X19.578 Y31.861 F100
G1 X19.653 Y31.881 F100
G1 X19.731 Y31.893 F100
G1 X19.812 Y31.897 F100
G1 X19.812 Y31.897 F100
M5
G0 X32.975 Y29.208 F3000
M4 S1000
G1 X32.965 Y28.990 F100
G1 X32.932 Y28.773 F100
G1 X32.879 Y28.561 F100
G1 X32.804 Y28.355 F100
G1 X32.710 Y28.158 F100
G1 X32.597 Y27.970 F100
G1 X32.466 Y27.794 F100
G1 X32.318 Y27.632 F100
G1 X32.154 Y27.486 F100
G1 X31.977 Y27.355 F100
G1 X31.788 Y27.243 F100
G1 X31.589 Y27.149 F100
G1 X31.382 Y27.076 F100
G1 X31.168 Y27.023 F100
G1 X30.950 Y26.991 F100
G1 X30.730 Y26.980 F100
G1 X30.510 Y26.991 F100
G1 X30.292 Y27.023 F100
G1 X30.078 Y27.076 F100
G1 X29.870 Y27.149 F100
G1 X29.671 Y27.243 F100
G1 X29.482 Y27.355 F100
G1 X29.305 Y27.486 F100
G1 X29.142 Y27.632 F100
G1 X28.994 Y27.794 F100
G1 X28.862 Y27.970 F100
G1 X28.749 Y28.158 F100
G1 X28.655 Y28.355 F100
G1 X28.581 Y28.561 F100
G1 X28.527 Y28.773 F100
G1 X28.495 Y28.990 F100
G1 X28.484 Y29.208 F100
G1 X28.495 Y29.426 F100
G1 X28.527 Y29.643 F100
G1 X28.581 Y29.855 F100
G1 X28.655 Y30.061 F100
G1 X28.749 Y30.258 F100
G1 X28.862 Y30.446 F100
G1 X28.994 Y30.621 F100
G1 X29.142 Y30.783 F100
G1 X29.305 Y30.930 F100
G1 X29.482 Y31.061 F100
G1 X29.671 Y31.173 F100
G1 X29.870 Y31.266 F100
G1 X30.078 Y31.340 F100
G1 X30.292 Y31.393 F100
G1 X30.510 Y31.425 F100
G1 X30.730 Y31.436 F100
G1 X30.950 Y31.425 F100
G1 X31.168 Y31.393 F100
G1 X31.382 Y31.340 F100
G1 X31.589 Y31.266 F100
G1 X31.788 Y31.173 F100
G1 X31.977 Y31.061 F100
G1 X32.154 Y30.930 F100
G1 X32.318 Y30.783 F100
G1 X32.466 Y30.621 F100
G1 X32.597 Y30.446 F100
G1 X32.710 Y30.258 F100
G1 X32.804 Y30.061 F100
G1 X32.879 Y29.855 F100
G1 X32.932 Y29.643 F100
G1 X32.965 Y29.426 F100
G1 X32.975 Y29.208 F100
M5
G0 X26.284 Y20.195 F3000
M4 S1000
G1 X32.744 Y24.986 F100
G1 X32.816 Y25.049 F100
G1 X32.874 Y25.120 F100
G1 X32.918 Y25.195 F100
G1 X32.948 Y25.275 F100
G1 X32.964 Y25.357 F100
G1 X32.968 Y25.440 F100
G1 X32.959 Y25.522 F100
G1 X32.939 Y25.602 F100
G1 X32.908 Y25.679 F100
G1 X32.865 Y25.750 F100
G1 X32.813 Y25.814 F100
G1 X32.751 Y25.870 F100
G1 X32.679 Y25.916 F100
G1 X32.599 Y25.951 F100
G1 X32.511 Y25.973 F100
G1 X32.415 Y25.981 F100
G1 X19.596 Y25.981 F100
G1 X19.500 Y25.973 F100
G1 X19.412 Y25.951 F100
G1 X19.331 Y25.916 F100
G1 X19.260 Y25.870 F100
G1 X19.198 Y25.814 F100
G1 X19.145 Y25.750 F100
G1 X19.103 Y25.679 F100
G1 X19.072 Y25.602 F100
G1 X19.052 Y25.522 F100
G1 X19.043 Y25.440 F100
G1 X19.047 Y25.357 F100
G1 X19.063 Y25.275 F100
G1 X19.093 Y25.195 F100
G1 X19.137 Y25.120 F100
G1 X19.195 Y25.049 F100
G1 X19.267 Y24.986 F100
G1 X25.727 Y20.195 F100
G1 X25.759 Y20.173 F100
G1 X25.792 Y20.155 F100
G1 X25.826 Y20.139 F100
G1 X25.861 Y20.126 F100
G1 X25.896 Y20.116 F100
G1 X25.932 Y20.109 F100
G1 X25.969 Y20.104 F100
G1 X26.005 Y20.103 F100
G1 X26.042 Y20.104 F100
G1 X26.079 Y20.109 F100
G1 X26.115 Y20.116 F100
G1 X26.150 Y20.126 F100
G1 X26.185 Y20.139 F100
G1 X26.219 Y20.155 F100
G1 X26.252 Y20.173 F100
G1 X26.284 Y20.195 F100
G1 X26.284 Y20.195 F100
M5
; pasada 2/3: aplicar z_step_mm de la configuracion (ajuste manual de Z o G-code M-code segun el firmware)
G0 X19.812 Y31.897 F3000
M4 S1000
G1 X26.701 Y31.897 F100
G1 X26.782 Y31.893 F100
G1 X26.860 Y31.881 F100
G1 X26.935 Y31.861 F100
G1 X27.008 Y31.835 F100
G1 X27.076 Y31.802 F100
G1 X27.141 Y31.762 F100
G1 X27.202 Y31.717 F100
G1 X27.258 Y31.666 F100
G1 X27.309 Y31.610 F100
G1 X27.354 Y31.550 F100
G1 X27.393 Y31.485 F100
G1 X27.427 Y31.416 F100
G1 X27.453 Y31.344 F100
G1 X27.473 Y31.268 F100
G1 X27.484 Y31.190 F100
G1 X27.489 Y31.110 F100
G1 X27.489 Y26.980 F100
G1 X19.025 Y26.980 F100
G1 X19.025 Y31.110 F100
G1 X19.029 Y31.190 F100
G1 X19.041 Y31.268 F100
G1 X19.060 Y31.344 F100
G1 X19.087 Y31.416 F100
G1 X19.120 Y31.485 F100
G1 X19.159 Y31.550 F100
G1 X19.204 Y31.610 F100
G1 X19.255 Y31.666 F100
G1 X19.311 Y31.717 F100
G1 X19.372 Y31.762 F100
G1 X19.437 Y31.802 F100
G1 X19.506 Y31.835 F100
G1 X19.578 Y31.861 F100
G1 X19.653 Y31.881 F100
G1 X19.731 Y31.893 F100
G1 X19.812 Y31.897 F100
G1 X19.812 Y31.897 F100
M5
G0 X32.975 Y29.208 F3000
M4 S1000
G1 X32.965 Y28.990 F100
G1 X32.932 Y28.773 F100
G1 X32.879 Y28.561 F100
G1 X32.804 Y28.355 F100
G1 X32.710 Y28.158 F100
G1 X32.597 Y27.970 F100
G1 X32.466 Y27.794 F100
G1 X32.318 Y27.632 F100
G1 X32.154 Y27.486 F100
G1 X31.977 Y27.355 F100
G1 X31.788 Y27.243 F100
G1 X31.589 Y27.149 F100
G1 X31.382 Y27.076 F100
G1 X31.168 Y27.023 F100
G1 X30.950 Y26.991 F100
G1 X30.730 Y26.980 F100
G1 X30.510 Y26.991 F100
G1 X30.292 Y27.023 F100
G1 X30.078 Y27.076 F100
G1 X29.870 Y27.149 F100
G1 X29.671 Y27.243 F100
G1 X29.482 Y27.355 F100
G1 X29.305 Y27.486 F100
G1 X29.142 Y27.632 F100
G1 X28.994 Y27.794 F100
G1 X28.862 Y27.970 F100
G1 X28.749 Y28.158 F100
G1 X28.655 Y28.355 F100
G1 X28.581 Y28.561 F100
G1 X28.527 Y28.773 F100
G1 X28.495 Y28.990 F100
G1 X28.484 Y29.208 F100
G1 X28.495 Y29.426 F100
G1 X28.527 Y29.643 F100
G1 X28.581 Y29.855 F100
G1 X28.655 Y30.061 F100
G1 X28.749 Y30.258 F100
G1 X28.862 Y30.446 F100
G1 X28.994 Y30.621 F100
G1 X29.142 Y30.783 F100
G1 X29.305 Y30.930 F100
G1 X29.482 Y31.061 F100
G1 X29.671 Y31.173 F100
G1 X29.870 Y31.266 F100
G1 X30.078 Y31.340 F100
G1 X30.292 Y31.393 F100
G1 X30.510 Y31.425 F100
G1 X30.730 Y31.436 F100
G1 X30.950 Y31.425 F100
G1 X31.168 Y31.393 F100
G1 X31.382 Y31.340 F100
G1 X31.589 Y31.266 F100
G1 X31.788 Y31.173 F100
G1 X31.977 Y31.061 F100
G1 X32.154 Y30.930 F100
G1 X32.318 Y30.783 F100
G1 X32.466 Y30.621 F100
G1 X32.597 Y30.446 F100
G1 X32.710 Y30.258 F100
G1 X32.804 Y30.061 F100
G1 X32.879 Y29.855 F100
G1 X32.932 Y29.643 F100
G1 X32.965 Y29.426 F100
G1 X32.975 Y29.208 F100
M5
G0 X26.284 Y20.195 F3000
M4 S1000
G1 X32.744 Y24.986 F100
G1 X32.816 Y25.049 F100
G1 X32.874 Y25.120 F100
G1 X32.918 Y25.195 F100
G1 X32.948 Y25.275 F100
G1 X32.964 Y25.357 F100
G1 X32.968 Y25.440 F100
G1 X32.959 Y25.522 F100
G1 X32.939 Y25.602 F100
G1 X32.908 Y25.679 F100
G1 X32.865 Y25.750 F100
G1 X32.813 Y25.814 F100
G1 X32.751 Y25.870 F100
G1 X32.679 Y25.916 F100
G1 X32.599 Y25.951 F100
G1 X32.511 Y25.973 F100
G1 X32.415 Y25.981 F100
G1 X19.596 Y25.981 F100
G1 X19.500 Y25.973 F100
G1 X19.412 Y25.951 F100
G1 X19.331 Y25.916 F100
G1 X19.260 Y25.870 F100
G1 X19.198 Y25.814 F100
G1 X19.145 Y25.750 F100
G1 X19.103 Y25.679 F100
G1 X19.072 Y25.602 F100
G1 X19.052 Y25.522 F100
G1 X19.043 Y25.440 F100
G1 X19.047 Y25.357 F100
G1 X19.063 Y25.275 F100
G1 X19.093 Y25.195 F100
G1 X19.137 Y25.120 F100
G1 X19.195 Y25.049 F100
G1 X19.267 Y24.986 F100
G1 X25.727 Y20.195 F100
G1 X25.759 Y20.173 F100
G1 X25.792 Y20.155 F100
G1 X25.826 Y20.139 F100
G1 X25.861 Y20.126 F100
G1 X25.896 Y20.116 F100
G1 X25.932 Y20.109 F100
G1 X25.969 Y20.104 F100
G1 X26.005 Y20.103 F100
G1 X26.042 Y20.104 F100
G1 X26.079 Y20.109 F100
G1 X26.115 Y20.116 F100
G1 X26.150 Y20.126 F100
G1 X26.185 Y20.139 F100
G1 X26.219 Y20.155 F100
G1 X26.252 Y20.173 F100
G1 X26.284 Y20.195 F100
G1 X26.284 Y20.195 F100
M5
; pasada 3/3: aplicar z_step_mm de la configuracion (ajuste manual de Z o G-code M-code segun el firmware)
G0 X19.812 Y31.897 F3000
M4 S1000
G1 X26.701 Y31.897 F100
G1 X26.782 Y31.893 F100
G1 X26.860 Y31.881 F100
G1 X26.935 Y31.861 F100
G1 X27.008 Y31.835 F100
G1 X27.076 Y31.802 F100
G1 X27.141 Y31.762 F100
G1 X27.202 Y31.717 F100
G1 X27.258 Y31.666 F100
G1 X27.309 Y31.610 F100
G1 X27.354 Y31.550 F100
G1 X27.393 Y31.485 F100
G1 X27.427 Y31.416 F100
G1 X27.453 Y31.344 F100
G1 X27.473 Y31.268 F100
G1 X27.484 Y31.190 F100
G1 X27.489 Y31.110 F100
G1 X27.489 Y26.980 F100
G1 X19.025 Y26.980 F100
G1 X19.025 Y31.110 F100
G1 X19.029 Y31.190 F100
G1 X19.041 Y31.268 F100
G1 X19.060 Y31.344 F100
G1 X19.087 Y31.416 F100
G1 X19.120 Y31.485 F100
G1 X19.159 Y31.550 F100
G1 X19.204 Y31.610 F100
G1 X19.255 Y31.666 F100
G1 X19.311 Y31.717 F100
G1 X19.372 Y31.762 F100
G1 X19.437 Y31.802 F100
G1 X19.506 Y31.835 F100
G1 X19.578 Y31.861 F100
G1 X19.653 Y31.881 F100
G1 X19.731 Y31.893 F100
G1 X19.812 Y31.897 F100
G1 X19.812 Y31.897 F100
M5
G0 X32.975 Y29.208 F3000
M4 S1000
G1 X32.965 Y28.990 F100
G1 X32.932 Y28.773 F100
G1 X32.879 Y28.561 F100
G1 X32.804 Y28.355 F100
G1 X32.710 Y28.158 F100
G1 X32.597 Y27.970 F100
G1 X32.466 Y27.794 F100
G1 X32.318 Y27.632 F100
G1 X32.154 Y27.486 F100
G1 X31.977 Y27.355 F100
G1 X31.788 Y27.243 F100
G1 X31.589 Y27.149 F100
G1 X31.382 Y27.076 F100
G1 X31.168 Y27.023 F100
G1 X30.950 Y26.991 F100
G1 X30.730 Y26.980 F100
G1 X30.510 Y26.991 F100
G1 X30.292 Y27.023 F100
G1 X30.078 Y27.076 F100
G1 X29.870 Y27.149 F100
G1 X29.671 Y27.243 F100
G1 X29.482 Y27.355 F100
G1 X29.305 Y27.486 F100
G1 X29.142 Y27.632 F100
G1 X28.994 Y27.794 F100
G1 X28.862 Y27.970 F100
G1 X28.749 Y28.158 F100
G1 X28.655 Y28.355 F100
G1 X28.581 Y28.561 F100
G1 X28.527 Y28.773 F100
G1 X28.495 Y28.990 F100
G1 X28.484 Y29.208 F100
G1 X28.495 Y29.426 F100
G1 X28.527 Y29.643 F100
G1 X28.581 Y29.855 F100
G1 X28.655 Y30.061 F100
G1 X28.749 Y30.258 F100
G1 X28.862 Y30.446 F100
G1 X28.994 Y30.621 F100
G1 X29.142 Y30.783 F100
G1 X29.305 Y30.930 F100
G1 X29.482 Y31.061 F100
G1 X29.671 Y31.173 F100
G1 X29.870 Y31.266 F100
G1 X30.078 Y31.340 F100
G1 X30.292 Y31.393 F100
G1 X30.510 Y31.425 F100
G1 X30.730 Y31.436 F100
G1 X30.950 Y31.425 F100
G1 X31.168 Y31.393 F100
G1 X31.382 Y31.340 F100
G1 X31.589 Y31.266 F100
G1 X31.788 Y31.173 F100
G1 X31.977 Y31.061 F100
G1 X32.154 Y30.930 F100
G1 X32.318 Y30.783 F100
G1 X32.466 Y30.621 F100
G1 X32.597 Y30.446 F100
G1 X32.710 Y30.258 F100
G1 X32.804 Y30.061 F100
G1 X32.879 Y29.855 F100
G1 X32.932 Y29.643 F100
G1 X32.965 Y29.426 F100
G1 X32.975 Y29.208 F100
M5
G0 X26.284 Y20.195 F3000
M4 S1000
G1 X32.744 Y24.986 F100
G1 X32.816 Y25.049 F100
G1 X32.874 Y25.120 F100
G1 X32.918 Y25.195 F100
G1 X32.948 Y25.275 F100
G1 X32.964 Y25.357 F100
G1 X32.968 Y25.440 F100
G1 X32.959 Y25.522 F100
G1 X32.939 Y25.602 F100
G1 X32.908 Y25.679 F100
G1 X32.865 Y25.750 F100
G1 X32.813 Y25.814 F100
G1 X32.751 Y25.870 F100
G1 X32.679 Y25.916 F100
G1 X32.599 Y25.951 F100
G1 X32.511 Y25.973 F100
G1 X32.415 Y25.981 F100
G1 X19.596 Y25.981 F100
G1 X19.500 Y25.973 F100
G1 X19.412 Y25.951 F100
G1 X19.331 Y25.916 F100
G1 X19.260 Y25.870 F100
G1 X19.198 Y25.814 F100
G1 X19.145 Y25.750 F100
G1 X19.103 Y25.679 F100
G1 X19.072 Y25.602 F100
G1 X19.052 Y25.522 F100
G1 X19.043 Y25.440 F100
G1 X19.047 Y25.357 F100
G1 X19.063 Y25.275 F100
G1 X19.093 Y25.195 F100
G1 X19.137 Y25.120 F100
G1 X19.195 Y25.049 F100
G1 X19.267 Y24.986 F100
G1 X25.727 Y20.195 F100
G1 X25.759 Y20.173 F100
G1 X25.792 Y20.155 F100
G1 X25.826 Y20.139 F100
G1 X25.861 Y20.126 F100
G1 X25.896 Y20.116 F100
G1 X25.932 Y20.109 F100
G1 X25.969 Y20.104 F100
G1 X26.005 Y20.103 F100
G1 X26.042 Y20.104 F100
G1 X26.079 Y20.109 F100
G1 X26.115 Y20.116 F100
G1 X26.150 Y20.126 F100
G1 X26.185 Y20.139 F100
G1 X26.219 Y20.155 F100
G1 X26.252 Y20.173 F100
G1 X26.284 Y20.195 F100
G1 X26.284 Y20.195 F100
M5
G0 X18.500 Y38.500 F3000
M4 S200
G1 X19.700 Y38.500 F1500
M5
G0 X18.500 Y38.500 F3000
M4 S200
G1 X18.500 Y37.500 F1500
M5
G0 X18.500 Y37.500 F3000
M4 S200
G1 X18.500 Y36.500 F1500
M5
G0 X18.500 Y36.500 F3000
M4 S200
G1 X19.700 Y36.500 F1500
M5
G0 X20.100 Y37.500 F3000
M4 S200
G1 X21.300 Y37.500 F1500
M5
G0 X21.700 Y38.500 F3000
M4 S200
G1 X22.900 Y38.500 F1500
M5
G0 X22.900 Y38.500 F3000
M4 S200
G1 X22.900 Y37.500 F1500
M5
G0 X22.900 Y37.500 F3000
M4 S200
G1 X22.900 Y36.500 F1500
M5
G0 X21.700 Y36.500 F3000
M4 S200
G1 X22.900 Y36.500 F1500
M5
G0 X21.700 Y37.500 F3000
M4 S200
G1 X21.700 Y36.500 F1500
M5
G0 X21.700 Y38.500 F3000
M4 S200
G1 X21.700 Y37.500 F1500
M5
G0 X23.300 Y38.500 F3000
M4 S200
G1 X24.500 Y38.500 F1500
M5
G0 X24.500 Y38.500 F3000
M4 S200
G1 X24.500 Y37.500 F1500
M5
G0 X24.500 Y37.500 F3000
M4 S200
G1 X24.500 Y36.500 F1500
M5
G0 X23.300 Y36.500 F3000
M4 S200
G1 X24.500 Y36.500 F1500
M5
G0 X23.300 Y37.500 F3000
M4 S200
G1 X23.300 Y36.500 F1500
M5
G0 X23.300 Y38.500 F3000
M4 S200
G1 X23.300 Y37.500 F1500
M5
G0 X24.900 Y38.500 F3000
M4 S200
G1 X26.100 Y38.500 F1500
M5
G0 X26.100 Y38.500 F3000
M4 S200
G1 X26.100 Y37.500 F1500
M5
G0 X24.900 Y37.500 F3000
M4 S200
G1 X26.100 Y37.500 F1500
M5
G0 X26.100 Y37.500 F3000
M4 S200
G1 X26.100 Y36.500 F1500
M5
G0 X24.900 Y36.500 F3000
M4 S200
G1 X26.100 Y36.500 F1500
M5
G0 X1.312 Y31.897 F3000
M4 S1000
G1 X8.201 Y31.897 F80
G1 X8.282 Y31.893 F80
G1 X8.360 Y31.881 F80
G1 X8.435 Y31.861 F80
G1 X8.508 Y31.835 F80
G1 X8.576 Y31.802 F80
G1 X8.641 Y31.762 F80
G1 X8.702 Y31.717 F80
G1 X8.758 Y31.666 F80
G1 X8.809 Y31.610 F80
G1 X8.854 Y31.550 F80
G1 X8.893 Y31.485 F80
G1 X8.927 Y31.416 F80
G1 X8.953 Y31.344 F80
G1 X8.973 Y31.268 F80
G1 X8.984 Y31.190 F80
G1 X8.989 Y31.110 F80
G1 X8.989 Y26.980 F80
G1 X0.525 Y26.980 F80
G1 X0.525 Y31.110 F80
G1 X0.529 Y31.190 F80
G1 X0.541 Y31.268 F80
G1 X0.560 Y31.344 F80
G1 X0.587 Y31.416 F80
G1 X0.620 Y31.485 F80
G1 X0.659 Y31.550 F80
G1 X0.704 Y31.610 F80
G1 X0.755 Y31.666 F80
G1 X0.811 Y31.717 F80
G1 X0.872 Y31.762 F80
G1 X0.937 Y31.802 F80
G1 X1.006 Y31.835 F80
G1 X1.078 Y31.861 F80
G1 X1.153 Y31.881 F80
G1 X1.231 Y31.893 F80
G1 X1.312 Y31.897 F80
G1 X1.312 Y31.897 F80
M5
G0 X14.475 Y29.208 F3000
M4 S1000
G1 X14.465 Y28.990 F80
G1 X14.432 Y28.773 F80
G1 X14.379 Y28.561 F80
G1 X14.304 Y28.355 F80
G1 X14.210 Y28.158 F80
G1 X14.097 Y27.970 F80
G1 X13.966 Y27.794 F80
G1 X13.818 Y27.632 F80
G1 X13.654 Y27.486 F80
G1 X13.477 Y27.355 F80
G1 X13.288 Y27.243 F80
G1 X13.089 Y27.149 F80
G1 X12.882 Y27.076 F80
G1 X12.668 Y27.023 F80
G1 X12.450 Y26.991 F80
G1 X12.230 Y26.980 F80
G1 X12.010 Y26.991 F80
G1 X11.792 Y27.023 F80
G1 X11.578 Y27.076 F80
G1 X11.370 Y27.149 F80
G1 X11.171 Y27.243 F80
G1 X10.982 Y27.355 F80
G1 X10.805 Y27.486 F80
G1 X10.642 Y27.632 F80
G1 X10.494 Y27.794 F80
G1 X10.362 Y27.970 F80
G1 X10.249 Y28.158 F80
G1 X10.155 Y28.355 F80
G1 X10.081 Y28.561 F80
G1 X10.027 Y28.773 F80
G1 X9.995 Y28.990 F80
G1 X9.984 Y29.208 F80
G1 X9.995 Y29.426 F80
G1 X10.027 Y29.643 F80
G1 X10.081 Y29.855 F80
G1 X10.155 Y30.061 F80
G1 X10.249 Y30.258 F80
G1 X10.362 Y30.446 F80
G1 X10.494 Y30.621 F80
G1 X10.642 Y30.783 F80
G1 X10.805 Y30.930 F80
G1 X10.982 Y31.061 F80
G1 X11.171 Y31.173 F80
G1 X11.370 Y31.266 F80
G1 X11.578 Y31.340 F80
G1 X11.792 Y31.393 F80
G1 X12.010 Y31.425 F80
G1 X12.230 Y31.436 F80
G1 X12.450 Y31.425 F80
G1 X12.668 Y31.393 F80
G1 X12.882 Y31.340 F80
G1 X13.089 Y31.266 F80
G1 X13.288 Y31.173 F80
G1 X13.477 Y31.061 F80
G1 X13.654 Y30.930 F80
G1 X13.818 Y30.783 F80
G1 X13.966 Y30.621 F80
G1 X14.097 Y30.446 F80
G1 X14.210 Y30.258 F80
G1 X14.304 Y30.061 F80
G1 X14.379 Y29.855 F80
G1 X14.432 Y29.643 F80
G1 X14.465 Y29.426 F80
G1 X14.475 Y29.208 F80
M5
G0 X7.784 Y20.195 F3000
M4 S1000
G1 X14.244 Y24.986 F80
G1 X14.316 Y25.049 F80
G1 X14.374 Y25.120 F80
G1 X14.418 Y25.195 F80
G1 X14.448 Y25.275 F80
G1 X14.464 Y25.357 F80
G1 X14.468 Y25.440 F80
G1 X14.459 Y25.522 F80
G1 X14.439 Y25.602 F80
G1 X14.408 Y25.679 F80
G1 X14.365 Y25.750 F80
G1 X14.313 Y25.814 F80
G1 X14.251 Y25.870 F80
G1 X14.179 Y25.916 F80
G1 X14.099 Y25.951 F80
G1 X14.011 Y25.973 F80
G1 X13.915 Y25.981 F80
G1 X1.096 Y25.981 F80
G1 X1.000 Y25.973 F80
G1 X0.912 Y25.951 F80
G1 X0.831 Y25.916 F80
G1 X0.760 Y25.870 F80
G1 X0.698 Y25.814 F80
G1 X0.645 Y25.750 F80
G1 X0.603 Y25.679 F80
G1 X0.572 Y25.602 F80
G1 X0.552 Y25.522 F80
G1 X0.543 Y25.440 F80
G1 X0.547 Y25.357 F80
G1 X0.563 Y25.275 F80
G1 X0.593 Y25.195 F80
G1 X0.637 Y25.120 F80
G1 X0.695 Y25.049 F80
G1 X0.767 Y24.986 F80
G1 X7.227 Y20.195 F80
G1 X7.259 Y20.173 F80
G1 X7.292 Y20.155 F80
G1 X7.326 Y20.139 F80
G1 X7.361 Y20.126 F80
G1 X7.396 Y20.116 F80
G1 X7.432 Y20.109 F80
G1 X7.469 Y20.104 F80
G1 X7.505 Y20.103 F80
G1 X7.542 Y20.104 F80
G1 X7.579 Y20.109 F80
G1 X7.615 Y20.116 F80
G1 X7.650 Y20.126 F80
G1 X7.685 Y20.139 F80
G1 X7.719 Y20.155 F80
G1 X7.752 Y20.173 F80
G1 X7.784 Y20.195 F80
G1 X7.784 Y20.195 F80
M5
; pasada 2/3: aplicar z_step_mm de la configuracion (ajuste manual de Z o G-code M-code segun el firmware)
G0 X1.312 Y31.897 F3000
M4 S1000
G1 X8.201 Y31.897 F80
G1 X8.282 Y31.893 F80
G1 X8.360 Y31.881 F80
G1 X8.435 Y31.861 F80
G1 X8.508 Y31.835 F80
G1 X8.576 Y31.802 F80
G1 X8.641 Y31.762 F80
G1 X8.702 Y31.717 F80
G1 X8.758 Y31.666 F80
G1 X8.809 Y31.610 F80
G1 X8.854 Y31.550 F80
G1 X8.893 Y31.485 F80
G1 X8.927 Y31.416 F80
G1 X8.953 Y31.344 F80
G1 X8.973 Y31.268 F80
G1 X8.984 Y31.190 F80
G1 X8.989 Y31.110 F80
G1 X8.989 Y26.980 F80
G1 X0.525 Y26.980 F80
G1 X0.525 Y31.110 F80
G1 X0.529 Y31.190 F80
G1 X0.541 Y31.268 F80
G1 X0.560 Y31.344 F80
G1 X0.587 Y31.416 F80
G1 X0.620 Y31.485 F80
G1 X0.659 Y31.550 F80
G1 X0.704 Y31.610 F80
G1 X0.755 Y31.666 F80
G1 X0.811 Y31.717 F80
G1 X0.872 Y31.762 F80
G1 X0.937 Y31.802 F80
G1 X1.006 Y31.835 F80
G1 X1.078 Y31.861 F80
G1 X1.153 Y31.881 F80
G1 X1.231 Y31.893 F80
G1 X1.312 Y31.897 F80
G1 X1.312 Y31.897 F80
M5
G0 X14.475 Y29.208 F3000
M4 S1000
G1 X14.465 Y28.990 F80
G1 X14.432 Y28.773 F80
G1 X14.379 Y28.561 F80
G1 X14.304 Y28.355 F80
G1 X14.210 Y28.158 F80
G1 X14.097 Y27.970 F80
G1 X13.966 Y27.794 F80
G1 X13.818 Y27.632 F80
G1 X13.654 Y27.486 F80
G1 X13.477 Y27.355 F80
G1 X13.288 Y27.243 F80
G1 X13.089 Y27.149 F80
G1 X12.882 Y27.076 F80
G1 X12.668 Y27.023 F80
G1 X12.450 Y26.991 F80
G1 X12.230 Y26.980 F80
G1 X12.010 Y26.991 F80
G1 X11.792 Y27.023 F80
G1 X11.578 Y27.076 F80
G1 X11.370 Y27.149 F80
G1 X11.171 Y27.243 F80
G1 X10.982 Y27.355 F80
G1 X10.805 Y27.486 F80
G1 X10.642 Y27.632 F80
G1 X10.494 Y27.794 F80
G1 X10.362 Y27.970 F80
G1 X10.249 Y28.158 F80
G1 X10.155 Y28.355 F80
G1 X10.081 Y28.561 F80
G1 X10.027 Y28.773 F80
G1 X9.995 Y28.990 F80
G1 X9.984 Y29.208 F80
G1 X9.995 Y29.426 F80
G1 X10.027 Y29.643 F80
G1 X10.081 Y29.855 F80
G1 X10.155 Y30.061 F80
G1 X10.249 Y30.258 F80
G1 X10.362 Y30.446 F80
G1 X10.494 Y30.621 F80
G1 X10.642 Y30.783 F80
G1 X10.805 Y30.930 F80
G1 X10.982 Y31.061 F80
G1 X11.171 Y31.173 F80
G1 X11.370 Y31.266 F80
G1 X11.578 Y31.340 F80
G1 X11.792 Y31.393 F80
G1 X12.010 Y31.425 F80
G1 X12.230 Y31.436 F80
G1 X12.450 Y31.425 F80
G1 X12.668 Y31.393 F80
G1 X12.882 Y31.340 F80
G1 X13.089 Y31.266 F80
G1 X13.288 Y31.173 F80
G1 X13.477 Y31.061 F80
G1 X13.654 Y30.930 F80
G1 X13.818 Y30.783 F80
G1 X13.966 Y30.621 F80
G1 X14.097 Y30.446 F80
G1 X14.210 Y30.258 F80
G1 X14.304 Y30.061 F80
G1 X14.379 Y29.855 F80
G1 X14.432 Y29.643 F80
G1 X14.465 Y29.426 F80
G1 X14.475 Y29.208 F80
M5
G0 X7.784 Y20.195 F3000
M4 S1000
G1 X14.244 Y24.986 F80
G1 X14.316 Y25.049 F80
G1 X14.374 Y25.120 F80
G1 X14.418 Y25.195 F80
G1 X14.448 Y25.275 F80
G1 X14.464 Y25.357 F80
G1 X14.468 Y25.440 F80
G1 X14.459 Y25.522 F80
G1 X14.439 Y25.602 F80
G1 X14.408 Y25.679 F80
G1 X14.365 Y25.750 F80
G1 X14.313 Y25.814 F80
G1 X14.251 Y25.870 F80
G1 X14.179 Y25.916 F80
G1 X14.099 Y25.951 F80
G1 X14.011 Y25.973 F80
G1 X13.915 Y25.981 F80
G1 X1.096 Y25.981 F80
G1 X1.000 Y25.973 F80
G1 X0.912 Y25.951 F80
G1 X0.831 Y25.916 F80
G1 X0.760 Y25.870 F80
G1 X0.698 Y25.814 F80
G1 X0.645 Y25.750 F80
G1 X0.603 Y25.679 F80
G1 X0.572 Y25.602 F80
G1 X0.552 Y25.522 F80
G1 X0.543 Y25.440 F80
G1 X0.547 Y25.357 F80
G1 X0.563 Y25.275 F80
G1 X0.593 Y25.195 F80
G1 X0.637 Y25.120 F80
G1 X0.695 Y25.049 F80
G1 X0.767 Y24.986 F80
G1 X7.227 Y20.195 F80
G1 X7.259 Y20.173 F80
G1 X7.292 Y20.155 F80
G1 X7.326 Y20.139 F80
G1 X7.361 Y20.126 F80
G1 X7.396 Y20.116 F80
G1 X7.432 Y20.109 F80
G1 X7.469 Y20.104 F80
G1 X7.505 Y20.103 F80
G1 X7.542 Y20.104 F80
G1 X7.579 Y20.109 F80
G1 X7.615 Y20.116 F80
G1 X7.650 Y20.126 F80
G1 X7.685 Y20.139 F80
G1 X7.719 Y20.155 F80
G1 X7.752 Y20.173 F80
G1 X7.784 Y20.195 F80
G1 X7.784 Y20.195 F80
M5
; pasada 3/3: aplicar z_step_mm de la configuracion (ajuste manual de Z o G-code M-code segun el firmware)
G0 X1.312 Y31.897 F3000
M4 S1000
G1 X8.201 Y31.897 F80
G1 X8.282 Y31.893 F80
G1 X8.360 Y31.881 F80
G1 X8.435 Y31.861 F80
G1 X8.508 Y31.835 F80
G1 X8.576 Y31.802 F80
G1 X8.641 Y31.762 F80
G1 X8.702 Y31.717 F80
G1 X8.758 Y31.666 F80
G1 X8.809 Y31.610 F80
G1 X8.854 Y31.550 F80
G1 X8.893 Y31.485 F80
G1 X8.927 Y31.416 F80
G1 X8.953 Y31.344 F80
G1 X8.973 Y31.268 F80
G1 X8.984 Y31.190 F80
G1 X8.989 Y31.110 F80
G1 X8.989 Y26.980 F80
G1 X0.525 Y26.980 F80
G1 X0.525 Y31.110 F80
G1 X0.529 Y31.190 F80
G1 X0.541 Y31.268 F80
G1 X0.560 Y31.344 F80
G1 X0.587 Y31.416 F80
G1 X0.620 Y31.485 F80
G1 X0.659 Y31.550 F80
G1 X0.704 Y31.610 F80
G1 X0.755 Y31.666 F80
G1 X0.811 Y31.717 F80
G1 X0.872 Y31.762 F80
G1 X0.937 Y31.802 F80
G1 X1.006 Y31.835 F80
G1 X1.078 Y31.861 F80
G1 X1.153 Y31.881 F80
G1 X1.231 Y31.893 F80
G1 X1.312 Y31.897 F80
G1 X1.312 Y31.897 F80
M5
G0 X14.475 Y29.208 F3000
M4 S1000
G1 X14.465 Y28.990 F80
G1 X14.432 Y28.773 F80
G1 X14.379 Y28.561 F80
G1 X14.304 Y28.355 F80
G1 X14.210 Y28.158 F80
G1 X14.097 Y27.970 F80
G1 X13.966 Y27.794 F80
G1 X13.818 Y27.632 F80
G1 X13.654 Y27.486 F80
G1 X13.477 Y27.355 F80
G1 X13.288 Y27.243 F80
G1 X13.089 Y27.149 F80
G1 X12.882 Y27.076 F80
G1 X12.668 Y27.023 F80
G1 X12.450 Y26.991 F80
G1 X12.230 Y26.980 F80
G1 X12.010 Y26.991 F80
G1 X11.792 Y27.023 F80
G1 X11.578 Y27.076 F80
G1 X11.370 Y27.149 F80
G1 X11.171 Y27.243 F80
G1 X10.982 Y27.355 F80
G1 X10.805 Y27.486 F80
G1 X10.642 Y27.632 F80
G1 X10.494 Y27.794 F80
G1 X10.362 Y27.970 F80
G1 X10.249 Y28.158 F80
G1 X10.155 Y28.355 F80
G1 X10.081 Y28.561 F80
G1 X10.027 Y28.773 F80
G1 X9.995 Y28.990 F80
G1 X9.984 Y29.208 F80
G1 X9.995 Y29.426 F80
G1 X10.027 Y29.643 F80
G1 X10.081 Y29.855 F80
G1 X10.155 Y30.061 F80
G1 X10.249 Y30.258 F80
G1 X10.362 Y30.446 F80
G1 X10.494 Y30.621 F80
G1 X10.642 Y30.783 F80
G1 X10.805 Y30.930 F80
G1 X10.982 Y31.061 F80
G1 X11.171 Y31.173 F80
G1 X11.370 Y31.266 F80
G1 X11.578 Y31.340 F80
G1 X11.792 Y31.393 F80
G1 X12.010 Y31.425 F80
G1 X12.230 Y31.436 F80
G1 X12.450 Y31.425 F80
G1 X12.668 Y31.393 F80
G1 X12.882 Y31.340 F80
G1 X13.089 Y31.266 F80
G1 X13.288 Y31.173 F80
G1 X13.477 Y31.061 F80
G1 X13.654 Y30.930 F80
G1 X13.818 Y30.783 F80
G1 X13.966 Y30.621 F80
G1 X14.097 Y30.446 F80
G1 X14.210 Y30.258 F80
G1 X14.304 Y30.061 F80
G1 X14.379 Y29.855 F80
G1 X14.432 Y29.643 F80
G1 X14.465 Y29.426 F80
G1 X14.475 Y29.208 F80
M5
G0 X7.784 Y20.195 F3000
M4 S1000
G1 X14.244 Y24.986 F80
G1 X14.316 Y25.049 F80
G1 X14.374 Y25.120 F80
G1 X14.418 Y25.195 F80
G1 X14.448 Y25.275 F80
G1 X14.464 Y25.357 F80
G1 X14.468 Y25.440 F80
G1 X14.459 Y25.522 F80
G1 X14.439 Y25.602 F80
G1 X14.408 Y25.679 F80
G1 X14.365 Y25.750 F80
G1 X14.313 Y25.814 F80
G1 X14.251 Y25.870 F80
G1 X14.179 Y25.916 F80
G1 X14.099 Y25.951 F80
G1 X14.011 Y25.973 F80
G1 X13.915 Y25.981 F80
G1 X1.096 Y25.981 F80
G1 X1.000 Y25.973 F80
G1 X0.912 Y25.951 F80
G1 X0.831 Y25.916 F80
G1 X0.760 Y25.870 F80
G1 X0.698 Y25.814 F80
G1 X0.645 Y25.750 F80
G1 X0.603 Y25.679 F80
G1 X0.572 Y25.602 F80
G1 X0.552 Y25.522 F80
G1 X0.543 Y25.440 F80
G1 X0.547 Y25.357 F80
G1 X0.563 Y25.275 F80
G1 X0.593 Y25.195 F80
G1 X0.637 Y25.120 F80
G1 X0.695 Y25.049 F80
G1 X0.767 Y24.986 F80
G1 X7.227 Y20.195 F80
G1 X7.259 Y20.173 F80
G1 X7.292 Y20.155 F80
G1 X7.326 Y20.139 F80
G1 X7.361 Y20.126 F80
G1 X7.396 Y20.116 F80
G1 X7.432 Y20.109 F80
G1 X7.469 Y20.104 F80
G1 X7.505 Y20.103 F80
G1 X7.542 Y20.104 F80
G1 X7.579 Y20.109 F80
G1 X7.615 Y20.116 F80
G1 X7.650 Y20.126 F80
G1 X7.685 Y20.139 F80
G1 X7.719 Y20.155 F80
G1 X7.752 Y20.173 F80
G1 X7.784 Y20.195 F80
G1 X7.784 Y20.195 F80
M5
G0 X0.000 Y38.500 F3000
M4 S200
G1 X1.200 Y38.500 F1500
M5
G0 X0.000 Y38.500 F3000
M4 S200
G1 X0.000 Y37.500 F1500
M5
G0 X0.000 Y37.500 F3000
M4 S200
G1 X0.000 Y36.500 F1500
M5
G0 X0.000 Y36.500 F3000
M4 S200
G1 X1.200 Y36.500 F1500
M5
G0 X1.600 Y37.500 F3000
M4 S200
G1 X2.800 Y37.500 F1500
M5
G0 X3.200 Y38.500 F3000
M4 S200
G1 X4.400 Y38.500 F1500
M5
G0 X4.400 Y38.500 F3000
M4 S200
G1 X4.400 Y37.500 F1500
M5
G0 X4.400 Y37.500 F3000
M4 S200
G1 X4.400 Y36.500 F1500
M5
G0 X3.200 Y36.500 F3000
M4 S200
G1 X4.400 Y36.500 F1500
M5
G0 X3.200 Y37.500 F3000
M4 S200
G1 X3.200 Y36.500 F1500
M5
G0 X3.200 Y38.500 F3000
M4 S200
G1 X3.200 Y37.500 F1500
M5
G0 X4.800 Y38.500 F3000
M4 S200
G1 X6.000 Y38.500 F1500
M5
G0 X6.000 Y38.500 F3000
M4 S200
G1 X6.000 Y37.500 F1500
M5
G0 X6.000 Y37.500 F3000
M4 S200
G1 X6.000 Y36.500 F1500
M5
G0 X4.800 Y36.500 F3000
M4 S200
G1 X6.000 Y36.500 F1500
M5
G0 X4.800 Y37.500 F3000
M4 S200
G1 X4.800 Y36.500 F1500
M5
G0 X4.800 Y38.500 F3000
M4 S200
G1 X4.800 Y37.500 F1500
M5
G0 X6.400 Y38.500 F3000
M4 S200
G1 X6.400 Y37.500 F1500
M5
G0 X6.400 Y37.500 F3000
M4 S200
G1 X7.600 Y37.500 F1500
M5
G0 X7.600 Y38.500 F3000
M4 S200
G1 X7.600 Y37.500 F1500
M5
G0 X7.600 Y37.500 F3000
M4 S200
G1 X7.600 Y36.500 F1500
M5
M5 ; laser apagado
G0 X0 Y0 ; volver al origen
