; Suite de GRABADO -- MDF Trupan 3.0mm -- lote L06
; Generado por laser_toolkit -- no editar a mano, regenerar desde el YAML de configuracion
G21 ; unidades en milimetros
G90 ; posicionamiento absoluto
M5 ; laser apagado por seguridad al iniciar
G0 X0.000 Y0.000 F3000
M4 S0
G1 X5.000 Y0.000 F2000 S0
G1 X9.500 Y0.000 F2000 S800
G1 X14.500 Y0.000 F2000 S0
G0 X14.500 Y0.080 F3000
G1 X9.500 Y0.080 F2000 S0
G1 X5.000 Y0.080 F2000 S800
G1 X0.000 Y0.080 F2000 S0
G0 X0.000 Y0.160 F3000
G1 X5.000 Y0.160 F2000 S0
G1 X9.500 Y0.160 F2000 S800
G1 X14.500 Y0.160 F2000 S0
G0 X14.500 Y0.240 F3000
G1 X9.500 Y0.240 F2000 S0
G1 X5.000 Y0.240 F2000 S800
G1 X0.000 Y0.240 F2000 S0
G0 X0.000 Y0.320 F3000
G1 X5.000 Y0.320 F2000 S0
G1 X9.500 Y0.320 F2000 S800
G1 X14.500 Y0.320 F2000 S0
G0 X14.500 Y0.400 F3000
G1 X9.500 Y0.400 F2000 S0
G1 X5.000 Y0.400 F2000 S800
G1 X0.000 Y0.400 F2000 S0
G0 X0.000 Y0.480 F3000
G1 X5.000 Y0.480 F2000 S0
G1 X9.500 Y0.480 F2000 S800
G1 X14.500 Y0.480 F2000 S0
G0 X14.500 Y0.560 F3000
G1 X9.500 Y0.560 F2000 S0
G1 X5.000 Y0.560 F2000 S800
G1 X0.000 Y0.560 F2000 S0
G0 X0.000 Y0.640 F3000
G1 X5.000 Y0.640 F2000 S0
G1 X9.500 Y0.640 F2000 S800
G1 X14.500 Y0.640 F2000 S0
G0 X14.500 Y0.720 F3000
G1 X9.500 Y0.720 F2000 S0
G1 X5.000 Y0.720 F2000 S800
G1 X0.000 Y0.720 F2000 S0
G0 X0.000 Y0.800 F3000
G1 X5.000 Y0.800 F2000 S0
G1 X9.500 Y0.800 F2000 S800
G1 X14.500 Y0.800 F2000 S0
G0 X14.500 Y0.880 F3000
G1 X9.500 Y0.880 F2000 S0
G1 X5.000 Y0.880 F2000 S800
G1 X0.000 Y0.880 F2000 S0
G0 X0.000 Y0.960 F3000
G1 X5.000 Y0.960 F2000 S0
G1 X9.500 Y0.960 F2000 S800
G1 X14.500 Y0.960 F2000 S0
G0 X14.500 Y1.040 F3000
G1 X9.500 Y1.040 F2000 S0
G1 X5.000 Y1.040 F2000 S800
G1 X0.000 Y1.040 F2000 S0
G0 X0.000 Y1.120 F3000
G1 X5.000 Y1.120 F2000 S0
G1 X9.500 Y1.120 F2000 S800
G1 X14.500 Y1.120 F2000 S0
G0 X14.500 Y1.200 F3000
G1 X9.500 Y1.200 F2000 S0
G1 X5.000 Y1.200 F2000 S800
G1 X0.000 Y1.200 F2000 S0
G0 X0.000 Y1.280 F3000
G1 X5.000 Y1.280 F2000 S0
G1 X9.500 Y1.280 F2000 S800
G1 X14.500 Y1.280 F2000 S0
G0 X14.500 Y1.360 F3000
G1 X9.500 Y1.360 F2000 S0
G1 X5.000 Y1.360 F2000 S800
G1 X0.000 Y1.360 F2000 S0
G0 X0.000 Y1.440 F3000
G1 X5.000 Y1.440 F2000 S0
G1 X9.500 Y1.440 F2000 S800
G1 X14.500 Y1.440 F2000 S0
G0 X14.500 Y1.520 F3000
G1 X9.500 Y1.520 F2000 S0
G1 X5.000 Y1.520 F2000 S800
G1 X0.000 Y1.520 F2000 S0
G0 X0.000 Y1.600 F3000
G1 X5.000 Y1.600 F2000 S0
G1 X9.500 Y1.600 F2000 S800
G1 X14.500 Y1.600 F2000 S0
G0 X14.500 Y1.680 F3000
G1 X9.500 Y1.680 F2000 S0
G1 X5.000 Y1.680 F2000 S800
G1 X0.000 Y1.680 F2000 S0
G0 X0.000 Y1.760 F3000
G1 X5.000 Y1.760 F2000 S0
G1 X9.500 Y1.760 F2000 S800
G1 X14.500 Y1.760 F2000 S0
G0 X14.500 Y1.840 F3000
G1 X9.500 Y1.840 F2000 S0
G1 X5.000 Y1.840 F2000 S800
G1 X0.000 Y1.840 F2000 S0
G0 X0.000 Y1.920 F3000
G1 X5.000 Y1.920 F2000 S0
G1 X9.500 Y1.920 F2000 S800
G1 X14.500 Y1.920 F2000 S0
G0 X14.500 Y2.000 F3000
G1 X9.500 Y2.000 F2000 S0
G1 X5.000 Y2.000 F2000 S800
G1 X0.000 Y2.000 F2000 S0
G0 X0.000 Y2.080 F3000
G1 X5.000 Y2.080 F2000 S0
G1 X9.500 Y2.080 F2000 S800
G1 X14.500 Y2.080 F2000 S0
G0 X14.500 Y2.160 F3000
G1 X9.500 Y2.160 F2000 S0
G1 X5.000 Y2.160 F2000 S800
G1 X0.000 Y2.160 F2000 S0
G0 X0.000 Y2.240 F3000
G1 X5.000 Y2.240 F2000 S0
G1 X9.500 Y2.240 F2000 S800
G1 X14.500 Y2.240 F2000 S0
G0 X14.500 Y2.320 F3000
G1 X9.500 Y2.320 F2000 S0
G1 X5.000 Y2.320 F2000 S800
G1 X0.000 Y2.320 F2000 S0
G0 X0.000 Y2.400 F3000
G1 X5.000 Y2.400 F2000 S0
G1 X9.500 Y2.400 F2000 S800
G1 X14.500 Y2.400 F2000 S0
G0 X14.500 Y2.480 F3000
G1 X9.500 Y2.480 F2000 S0
G1 X5.000 Y2.480 F2000 S800
G1 X0.000 Y2.480 F2000 S0
G0 X0.000 Y2.560 F3000
G1 X5.000 Y2.560 F2000 S0
G1 X9.500 Y2.560 F2000 S800
G1 X14.500 Y2.560 F2000 S0
G0 X14.500 Y2.640 F3000
G1 X9.500 Y2.640 F2000 S0
G1 X5.000 Y2.640 F2000 S800
G1 X0.000 Y2.640 F2000 S0
G0 X0.000 Y2.720 F3000
G1 X5.000 Y2.720 F2000 S0
G1 X9.500 Y2.720 F2000 S800
G1 X14.500 Y2.720 F2000 S0
G0 X14.500 Y2.800 F3000
G1 X9.500 Y2.800 F2000 S0
G1 X5.000 Y2.800 F2000 S800
G1 X0.000 Y2.800 F2000 S0
G0 X0.000 Y2.880 F3000
G1 X5.000 Y2.880 F2000 S0
G1 X9.500 Y2.880 F2000 S800
G1 X14.500 Y2.880 F2000 S0
G0 X14.500 Y2.960 F3000
G1 X9.500 Y2.960 F2000 S0
G1 X5.000 Y2.960 F2000 S800
G1 X0.000 Y2.960 F2000 S0
G0 X0.000 Y3.040 F3000
G1 X5.000 Y3.040 F2000 S0
G1 X9.500 Y3.040 F2000 S800
G1 X14.500 Y3.040 F2000 S0
G0 X14.500 Y3.120 F3000
G1 X9.500 Y3.120 F2000 S0
G1 X5.000 Y3.120 F2000 S800
G1 X0.000 Y3.120 F2000 S0
G0 X0.000 Y3.200 F3000
G1 X5.000 Y3.200 F2000 S0
G1 X9.500 Y3.200 F2000 S800
G1 X14.500 Y3.200 F2000 S0
G0 X14.500 Y3.280 F3000
G1 X9.500 Y3.280 F2000 S0
G1 X5.000 Y3.280 F2000 S800
G1 X0.000 Y3.280 F2000 S0
G0 X0.000 Y3.360 F3000
G1 X5.000 Y3.360 F2000 S0
G1 X9.500 Y3.360 F2000 S800
G1 X14.500 Y3.360 F2000 S0
G0 X14.500 Y3.440 F3000
G1 X9.500 Y3.440 F2000 S0
G1 X5.000 Y3.440 F2000 S800
G1 X0.000 Y3.440 F2000 S0
G0 X0.000 Y3.520 F3000
G1 X5.000 Y3.520 F2000 S0
G1 X9.500 Y3.520 F2000 S800
G1 X14.500 Y3.520 F2000 S0
G0 X14.500 Y3.600 F3000
G1 X9.500 Y3.600 F2000 S0
G1 X5.000 Y3.600 F2000 S800
G1 X0.000 Y3.600 F2000 S0
G0 X0.000 Y3.680 F3000
G1 X5.000 Y3.680 F2000 S0
G1 X9.500 Y3.680 F2000 S800
G1 X14.500 Y3.680 F2000 S0
G0 X14.500 Y3.760 F3000
G1 X9.500 Y3.760 F2000 S0
G1 X5.000 Y3.760 F2000 S800
G1 X0.000 Y3.760 F2000 S0
G0 X0.000 Y3.840 F3000
G1 X5.000 Y3.840 F2000 S0
G1 X9.500 Y3.840 F2000 S800
G1 X14.500 Y3.840 F2000 S0
G0 X14.500 Y3.920 F3000
G1 X9.500 Y3.920 F2000 S0
G1 X5.000 Y3.920 F2000 S800
G1 X0.000 Y3.920 F2000 S0
G0 X0.000 Y4.000 F3000
G1 X5.000 Y4.000 F2000 S0
G1 X9.500 Y4.000 F2000 S800
G1 X14.500 Y4.000 F2000 S0
G0 X14.500 Y4.080 F3000
G1 X9.500 Y4.080 F2000 S0
G1 X5.000 Y4.080 F2000 S800
G1 X0.000 Y4.080 F2000 S0
G0 X0.000 Y4.160 F3000
G1 X5.000 Y4.160 F2000 S0
G1 X9.500 Y4.160 F2000 S800
G1 X14.500 Y4.160 F2000 S0
G0 X14.500 Y4.240 F3000
G1 X9.500 Y4.240 F2000 S0
G1 X5.000 Y4.240 F2000 S800
G1 X0.000 Y4.240 F2000 S0
G0 X0.000 Y4.320 F3000
G1 X5.000 Y4.320 F2000 S0
G1 X9.500 Y4.320 F2000 S800
G1 X14.500 Y4.320 F2000 S0
G0 X14.500 Y4.400 F3000
G1 X9.500 Y4.400 F2000 S0
G1 X5.000 Y4.400 F2000 S800
G1 X0.000 Y4.400 F2000 S0
G0 X0.000 Y4.480 F3000
G1 X5.000 Y4.480 F2000 S0
G1 X9.500 Y4.480 F2000 S800
G1 X14.500 Y4.480 F2000 S0
M5
G0 X5.000 Y7.200 F3000
M4 S2000
G1 X5.648 Y7.200 F1500
M5
G0 X5.000 Y7.200 F3000
M4 S2000
G1 X5.000 Y6.660 F1500
M5
G0 X5.000 Y6.660 F3000
M4 S2000
G1 X5.000 Y6.120 F1500
M5
G0 X5.000 Y6.120 F3000
M4 S2000
G1 X5.648 Y6.120 F1500
M5
G0 X5.648 Y6.660 F3000
M4 S2000
G1 X5.648 Y6.120 F1500
M5
G0 X5.000 Y6.660 F3000
M4 S2000
G1 X5.648 Y6.660 F1500
M5
G0 X5.864 Y6.660 F3000
M4 S2000
G1 X6.512 Y6.660 F1500
M5
G0 X6.728 Y7.200 F3000
M4 S2000
G1 X7.376 Y7.200 F1500
M5
G0 X7.376 Y7.200 F3000
M4 S2000
G1 X7.376 Y6.660 F1500
M5
G0 X7.376 Y6.660 F3000
M4 S2000
G1 X7.376 Y6.120 F1500
M5
G0 X6.728 Y6.120 F3000
M4 S2000
G1 X7.376 Y6.120 F1500
M5
G0 X6.728 Y6.660 F3000
M4 S2000
G1 X6.728 Y6.120 F1500
M5
G0 X6.728 Y7.200 F3000
M4 S2000
G1 X6.728 Y6.660 F1500
M5
G0 X7.592 Y7.200 F3000
M4 S2000
G1 X8.240 Y7.200 F1500
M5
G0 X8.240 Y7.200 F3000
M4 S2000
G1 X8.240 Y6.660 F1500
M5
G0 X8.240 Y6.660 F3000
M4 S2000
G1 X8.240 Y6.120 F1500
M5
G0 X7.592 Y6.120 F3000
M4 S2000
G1 X8.240 Y6.120 F1500
M5
G0 X7.592 Y6.660 F3000
M4 S2000
G1 X7.592 Y6.120 F1500
M5
G0 X7.592 Y7.200 F3000
M4 S2000
G1 X7.592 Y6.660 F1500
M5
G0 X9.104 Y7.200 F3000
M4 S2000
G1 X9.104 Y6.660 F1500
M5
G0 X9.104 Y6.660 F3000
M4 S2000
G1 X9.104 Y6.120 F1500
M5
G0 X0.000 Y7.500 F3000
M4 S0
G1 X5.000 Y7.500 F2000 S0
G1 X9.500 Y7.500 F2000 S1000
G1 X14.500 Y7.500 F2000 S0
G0 X14.500 Y7.580 F3000
G1 X9.500 Y7.580 F2000 S0
G1 X5.000 Y7.580 F2000 S1000
G1 X0.000 Y7.580 F2000 S0
G0 X0.000 Y7.660 F3000
G1 X5.000 Y7.660 F2000 S0
G1 X9.500 Y7.660 F2000 S1000
G1 X14.500 Y7.660 F2000 S0
G0 X14.500 Y7.740 F3000
G1 X9.500 Y7.740 F2000 S0
G1 X5.000 Y7.740 F2000 S1000
G1 X0.000 Y7.740 F2000 S0
G0 X0.000 Y7.820 F3000
G1 X5.000 Y7.820 F2000 S0
G1 X9.500 Y7.820 F2000 S1000
G1 X14.500 Y7.820 F2000 S0
G0 X14.500 Y7.900 F3000
G1 X9.500 Y7.900 F2000 S0
G1 X5.000 Y7.900 F2000 S1000
G1 X0.000 Y7.900 F2000 S0
G0 X0.000 Y7.980 F3000
G1 X5.000 Y7.980 F2000 S0
G1 X9.500 Y7.980 F2000 S1000
G1 X14.500 Y7.980 F2000 S0
G0 X14.500 Y8.060 F3000
G1 X9.500 Y8.060 F2000 S0
G1 X5.000 Y8.060 F2000 S1000
G1 X0.000 Y8.060 F2000 S0
G0 X0.000 Y8.140 F3000
G1 X5.000 Y8.140 F2000 S0
G1 X9.500 Y8.140 F2000 S1000
G1 X14.500 Y8.140 F2000 S0
G0 X14.500 Y8.220 F3000
G1 X9.500 Y8.220 F2000 S0
G1 X5.000 Y8.220 F2000 S1000
G1 X0.000 Y8.220 F2000 S0
G0 X0.000 Y8.300 F3000
G1 X5.000 Y8.300 F2000 S0
G1 X9.500 Y8.300 F2000 S1000
G1 X14.500 Y8.300 F2000 S0
G0 X14.500 Y8.380 F3000
G1 X9.500 Y8.380 F2000 S0
G1 X5.000 Y8.380 F2000 S1000
G1 X0.000 Y8.380 F2000 S0
G0 X0.000 Y8.460 F3000
G1 X5.000 Y8.460 F2000 S0
G1 X9.500 Y8.460 F2000 S1000
G1 X14.500 Y8.460 F2000 S0
G0 X14.500 Y8.540 F3000
G1 X9.500 Y8.540 F2000 S0
G1 X5.000 Y8.540 F2000 S1000
G1 X0.000 Y8.540 F2000 S0
G0 X0.000 Y8.620 F3000
G1 X5.000 Y8.620 F2000 S0
G1 X9.500 Y8.620 F2000 S1000
G1 X14.500 Y8.620 F2000 S0
G0 X14.500 Y8.700 F3000
G1 X9.500 Y8.700 F2000 S0
G1 X5.000 Y8.700 F2000 S1000
G1 X0.000 Y8.700 F2000 S0
G0 X0.000 Y8.780 F3000
G1 X5.000 Y8.780 F2000 S0
G1 X9.500 Y8.780 F2000 S1000
G1 X14.500 Y8.780 F2000 S0
G0 X14.500 Y8.860 F3000
G1 X9.500 Y8.860 F2000 S0
G1 X5.000 Y8.860 F2000 S1000
G1 X0.000 Y8.860 F2000 S0
G0 X0.000 Y8.940 F3000
G1 X5.000 Y8.940 F2000 S0
G1 X9.500 Y8.940 F2000 S1000
G1 X14.500 Y8.940 F2000 S0
G0 X14.500 Y9.020 F3000
G1 X9.500 Y9.020 F2000 S0
G1 X5.000 Y9.020 F2000 S1000
G1 X0.000 Y9.020 F2000 S0
G0 X0.000 Y9.100 F3000
G1 X5.000 Y9.100 F2000 S0
G1 X9.500 Y9.100 F2000 S1000
G1 X14.500 Y9.100 F2000 S0
G0 X14.500 Y9.180 F3000
G1 X9.500 Y9.180 F2000 S0
G1 X5.000 Y9.180 F2000 S1000
G1 X0.000 Y9.180 F2000 S0
G0 X0.000 Y9.260 F3000
G1 X5.000 Y9.260 F2000 S0
G1 X9.500 Y9.260 F2000 S1000
G1 X14.500 Y9.260 F2000 S0
G0 X14.500 Y9.340 F3000
G1 X9.500 Y9.340 F2000 S0
G1 X5.000 Y9.340 F2000 S1000
G1 X0.000 Y9.340 F2000 S0
G0 X0.000 Y9.420 F3000
G1 X5.000 Y9.420 F2000 S0
G1 X9.500 Y9.420 F2000 S1000
G1 X14.500 Y9.420 F2000 S0
G0 X14.500 Y9.500 F3000
G1 X9.500 Y9.500 F2000 S0
G1 X5.000 Y9.500 F2000 S1000
G1 X0.000 Y9.500 F2000 S0
G0 X0.000 Y9.580 F3000
G1 X5.000 Y9.580 F2000 S0
G1 X9.500 Y9.580 F2000 S1000
G1 X14.500 Y9.580 F2000 S0
G0 X14.500 Y9.660 F3000
G1 X9.500 Y9.660 F2000 S0
G1 X5.000 Y9.660 F2000 S1000
G1 X0.000 Y9.660 F2000 S0
G0 X0.000 Y9.740 F3000
G1 X5.000 Y9.740 F2000 S0
G1 X9.500 Y9.740 F2000 S1000
G1 X14.500 Y9.740 F2000 S0
G0 X14.500 Y9.820 F3000
G1 X9.500 Y9.820 F2000 S0
G1 X5.000 Y9.820 F2000 S1000
G1 X0.000 Y9.820 F2000 S0
G0 X0.000 Y9.900 F3000
G1 X5.000 Y9.900 F2000 S0
G1 X9.500 Y9.900 F2000 S1000
G1 X14.500 Y9.900 F2000 S0
G0 X14.500 Y9.980 F3000
G1 X9.500 Y9.980 F2000 S0
G1 X5.000 Y9.980 F2000 S1000
G1 X0.000 Y9.980 F2000 S0
G0 X0.000 Y10.060 F3000
G1 X5.000 Y10.060 F2000 S0
G1 X9.500 Y10.060 F2000 S1000
G1 X14.500 Y10.060 F2000 S0
G0 X14.500 Y10.140 F3000
G1 X9.500 Y10.140 F2000 S0
G1 X5.000 Y10.140 F2000 S1000
G1 X0.000 Y10.140 F2000 S0
G0 X0.000 Y10.220 F3000
G1 X5.000 Y10.220 F2000 S0
G1 X9.500 Y10.220 F2000 S1000
G1 X14.500 Y10.220 F2000 S0
G0 X14.500 Y10.300 F3000
G1 X9.500 Y10.300 F2000 S0
G1 X5.000 Y10.300 F2000 S1000
G1 X0.000 Y10.300 F2000 S0
G0 X0.000 Y10.380 F3000
G1 X5.000 Y10.380 F2000 S0
G1 X9.500 Y10.380 F2000 S1000
G1 X14.500 Y10.380 F2000 S0
G0 X14.500 Y10.460 F3000
G1 X9.500 Y10.460 F2000 S0
G1 X5.000 Y10.460 F2000 S1000
G1 X0.000 Y10.460 F2000 S0
G0 X0.000 Y10.540 F3000
G1 X5.000 Y10.540 F2000 S0
G1 X9.500 Y10.540 F2000 S1000
G1 X14.500 Y10.540 F2000 S0
G0 X14.500 Y10.620 F3000
G1 X9.500 Y10.620 F2000 S0
G1 X5.000 Y10.620 F2000 S1000
G1 X0.000 Y10.620 F2000 S0
G0 X0.000 Y10.700 F3000
G1 X5.000 Y10.700 F2000 S0
G1 X9.500 Y10.700 F2000 S1000
G1 X14.500 Y10.700 F2000 S0
G0 X14.500 Y10.780 F3000
G1 X9.500 Y10.780 F2000 S0
G1 X5.000 Y10.780 F2000 S1000
G1 X0.000 Y10.780 F2000 S0
G0 X0.000 Y10.860 F3000
G1 X5.000 Y10.860 F2000 S0
G1 X9.500 Y10.860 F2000 S1000
G1 X14.500 Y10.860 F2000 S0
G0 X14.500 Y10.940 F3000
G1 X9.500 Y10.940 F2000 S0
G1 X5.000 Y10.940 F2000 S1000
G1 X0.000 Y10.940 F2000 S0
G0 X0.000 Y11.020 F3000
G1 X5.000 Y11.020 F2000 S0
G1 X9.500 Y11.020 F2000 S1000
G1 X14.500 Y11.020 F2000 S0
G0 X14.500 Y11.100 F3000
G1 X9.500 Y11.100 F2000 S0
G1 X5.000 Y11.100 F2000 S1000
G1 X0.000 Y11.100 F2000 S0
G0 X0.000 Y11.180 F3000
G1 X5.000 Y11.180 F2000 S0
G1 X9.500 Y11.180 F2000 S1000
G1 X14.500 Y11.180 F2000 S0
G0 X14.500 Y11.260 F3000
G1 X9.500 Y11.260 F2000 S0
G1 X5.000 Y11.260 F2000 S1000
G1 X0.000 Y11.260 F2000 S0
G0 X0.000 Y11.340 F3000
G1 X5.000 Y11.340 F2000 S0
G1 X9.500 Y11.340 F2000 S1000
G1 X14.500 Y11.340 F2000 S0
G0 X14.500 Y11.420 F3000
G1 X9.500 Y11.420 F2000 S0
G1 X5.000 Y11.420 F2000 S1000
G1 X0.000 Y11.420 F2000 S0
G0 X0.000 Y11.500 F3000
G1 X5.000 Y11.500 F2000 S0
G1 X9.500 Y11.500 F2000 S1000
G1 X14.500 Y11.500 F2000 S0
G0 X14.500 Y11.580 F3000
G1 X9.500 Y11.580 F2000 S0
G1 X5.000 Y11.580 F2000 S1000
G1 X0.000 Y11.580 F2000 S0
G0 X0.000 Y11.660 F3000
G1 X5.000 Y11.660 F2000 S0
G1 X9.500 Y11.660 F2000 S1000
G1 X14.500 Y11.660 F2000 S0
G0 X14.500 Y11.740 F3000
G1 X9.500 Y11.740 F2000 S0
G1 X5.000 Y11.740 F2000 S1000
G1 X0.000 Y11.740 F2000 S0
G0 X0.000 Y11.820 F3000
G1 X5.000 Y11.820 F2000 S0
G1 X9.500 Y11.820 F2000 S1000
G1 X14.500 Y11.820 F2000 S0
G0 X14.500 Y11.900 F3000
G1 X9.500 Y11.900 F2000 S0
G1 X5.000 Y11.900 F2000 S1000
G1 X0.000 Y11.900 F2000 S0
G0 X0.000 Y11.980 F3000
G1 X5.000 Y11.980 F2000 S0
G1 X9.500 Y11.980 F2000 S1000
G1 X14.500 Y11.980 F2000 S0
M5
G0 X5.000 Y14.700 F3000
M4 S2000
G1 X5.648 Y14.700 F1500
M5
G0 X5.000 Y14.700 F3000
M4 S2000
G1 X5.000 Y14.160 F1500
M5
G0 X5.000 Y14.160 F3000
M4 S2000
G1 X5.000 Y13.620 F1500
M5
G0 X5.000 Y13.620 F3000
M4 S2000
G1 X5.648 Y13.620 F1500
M5
G0 X5.648 Y14.160 F3000
M4 S2000
G1 X5.648 Y13.620 F1500
M5
G0 X5.000 Y14.160 F3000
M4 S2000
G1 X5.648 Y14.160 F1500
M5
G0 X5.864 Y14.160 F3000
M4 S2000
G1 X6.512 Y14.160 F1500
M5
G0 X6.728 Y14.700 F3000
M4 S2000
G1 X7.376 Y14.700 F1500
M5
G0 X7.376 Y14.700 F3000
M4 S2000
G1 X7.376 Y14.160 F1500
M5
G0 X7.376 Y14.160 F3000
M4 S2000
G1 X7.376 Y13.620 F1500
M5
G0 X6.728 Y13.620 F3000
M4 S2000
G1 X7.376 Y13.620 F1500
M5
G0 X6.728 Y14.160 F3000
M4 S2000
G1 X6.728 Y13.620 F1500
M5
G0 X6.728 Y14.700 F3000
M4 S2000
G1 X6.728 Y14.160 F1500
M5
G0 X7.592 Y14.700 F3000
M4 S2000
G1 X8.240 Y14.700 F1500
M5
G0 X8.240 Y14.700 F3000
M4 S2000
G1 X8.240 Y14.160 F1500
M5
G0 X8.240 Y14.160 F3000
M4 S2000
G1 X8.240 Y13.620 F1500
M5
G0 X7.592 Y13.620 F3000
M4 S2000
G1 X8.240 Y13.620 F1500
M5
G0 X7.592 Y14.160 F3000
M4 S2000
G1 X7.592 Y13.620 F1500
M5
G0 X7.592 Y14.700 F3000
M4 S2000
G1 X7.592 Y14.160 F1500
M5
G0 X8.456 Y14.700 F3000
M4 S2000
G1 X9.104 Y14.700 F1500
M5
G0 X9.104 Y14.700 F3000
M4 S2000
G1 X9.104 Y14.160 F1500
M5
G0 X8.456 Y14.160 F3000
M4 S2000
G1 X9.104 Y14.160 F1500
M5
G0 X8.456 Y14.160 F3000
M4 S2000
G1 X8.456 Y13.620 F1500
M5
G0 X8.456 Y13.620 F3000
M4 S2000
G1 X9.104 Y13.620 F1500
M5
M5 ; laser apagado
G0 X0 Y0 ; volver al origen
