; Suite de CORTE -- MDF Comercial 3.0mm -- lote L12
; Generado por laser_toolkit -- no editar a mano, regenerar desde el YAML de configuracion
G21 ; unidades en milimetros
G90 ; posicionamiento absoluto
M5 ; laser apagado por seguridad al iniciar
G0 X1.312 Y13.397 F3000
M4 S10000
G1 X8.201 Y13.397 F230
G1 X8.282 Y13.393 F230
G1 X8.360 Y13.381 F230
G1 X8.435 Y13.361 F230
G1 X8.508 Y13.335 F230
G1 X8.576 Y13.302 F230
G1 X8.641 Y13.262 F230
G1 X8.702 Y13.217 F230
G1 X8.758 Y13.166 F230
G1 X8.809 Y13.110 F230
G1 X8.854 Y13.050 F230
G1 X8.893 Y12.985 F230
G1 X8.927 Y12.916 F230
G1 X8.953 Y12.844 F230
G1 X8.973 Y12.768 F230
G1 X8.984 Y12.690 F230
G1 X8.989 Y12.610 F230
G1 X8.989 Y8.480 F230
G1 X0.525 Y8.480 F230
G1 X0.525 Y12.610 F230
G1 X0.529 Y12.690 F230
G1 X0.541 Y12.768 F230
G1 X0.560 Y12.844 F230
G1 X0.587 Y12.916 F230
G1 X0.620 Y12.985 F230
G1 X0.659 Y13.050 F230
G1 X0.704 Y13.110 F230
G1 X0.755 Y13.166 F230
G1 X0.811 Y13.217 F230
G1 X0.872 Y13.262 F230
G1 X0.937 Y13.302 F230
G1 X1.006 Y13.335 F230
G1 X1.078 Y13.361 F230
G1 X1.153 Y13.381 F230
G1 X1.231 Y13.393 F230
G1 X1.312 Y13.397 F230
G1 X1.312 Y13.397 F230
M5
G0 X14.475 Y10.708 F3000
M4 S10000
G1 X14.465 Y10.490 F230
G1 X14.432 Y10.273 F230
G1 X14.379 Y10.061 F230
G1 X14.304 Y9.855 F230
G1 X14.210 Y9.658 F230
G1 X14.097 Y9.470 F230
G1 X13.966 Y9.294 F230
G1 X13.818 Y9.132 F230
G1 X13.654 Y8.986 F230
G1 X13.477 Y8.855 F230
G1 X13.288 Y8.743 F230
G1 X13.089 Y8.649 F230
G1 X12.882 Y8.576 F230
G1 X12.668 Y8.523 F230
G1 X12.450 Y8.491 F230
G1 X12.230 Y8.480 F230
G1 X12.010 Y8.491 F230
G1 X11.792 Y8.523 F230
G1 X11.578 Y8.576 F230
G1 X11.370 Y8.649 F230
G1 X11.171 Y8.743 F230
G1 X10.982 Y8.855 F230
G1 X10.805 Y8.986 F230
G1 X10.642 Y9.132 F230
G1 X10.494 Y9.294 F230
G1 X10.362 Y9.470 F230
G1 X10.249 Y9.658 F230
G1 X10.155 Y9.855 F230
G1 X10.081 Y10.061 F230
G1 X10.027 Y10.273 F230
G1 X9.995 Y10.490 F230
G1 X9.984 Y10.708 F230
G1 X9.995 Y10.926 F230
G1 X10.027 Y11.143 F230
G1 X10.081 Y11.355 F230
G1 X10.155 Y11.561 F230
G1 X10.249 Y11.758 F230
G1 X10.362 Y11.946 F230
G1 X10.494 Y12.121 F230
G1 X10.642 Y12.283 F230
G1 X10.805 Y12.430 F230
G1 X10.982 Y12.561 F230
G1 X11.171 Y12.673 F230
G1 X11.370 Y12.766 F230
G1 X11.578 Y12.840 F230
G1 X11.792 Y12.893 F230
G1 X12.010 Y12.925 F230
G1 X12.230 Y12.936 F230
G1 X12.450 Y12.925 F230
G1 X12.668 Y12.893 F230
G1 X12.882 Y12.840 F230
G1 X13.089 Y12.766 F230
G1 X13.288 Y12.673 F230
G1 X13.477 Y12.561 F230
G1 X13.654 Y12.430 F230
G1 X13.818 Y12.283 F230
G1 X13.966 Y12.121 F230
G1 X14.097 Y11.946 F230
G1 X14.210 Y11.758 F230
G1 X14.304 Y11.561 F230
G1 X14.379 Y11.355 F230
G1 X14.432 Y11.143 F230
G1 X14.465 Y10.926 F230
G1 X14.475 Y10.708 F230
M5
G0 X7.784 Y1.695 F3000
M4 S10000
G1 X14.244 Y6.486 F230
G1 X14.316 Y6.549 F230
G1 X14.374 Y6.620 F230
G1 X14.418 Y6.695 F230
G1 X14.448 Y6.775 F230
G1 X14.464 Y6.857 F230
G1 X14.468 Y6.940 F230
G1 X14.459 Y7.022 F230
G1 X14.439 Y7.102 F230
G1 X14.408 Y7.179 F230
G1 X14.365 Y7.250 F230
G1 X14.313 Y7.314 F230
G1 X14.251 Y7.370 F230
G1 X14.179 Y7.416 F230
G1 X14.099 Y7.451 F230
G1 X14.011 Y7.473 F230
G1 X13.915 Y7.481 F230
G1 X1.096 Y7.481 F230
G1 X1.000 Y7.473 F230
G1 X0.912 Y7.451 F230
G1 X0.831 Y7.416 F230
G1 X0.760 Y7.370 F230
G1 X0.698 Y7.314 F230
G1 X0.645 Y7.250 F230
G1 X0.603 Y7.179 F230
G1 X0.572 Y7.102 F230
G1 X0.552 Y7.022 F230
G1 X0.543 Y6.940 F230
G1 X0.547 Y6.857 F230
G1 X0.563 Y6.775 F230
G1 X0.593 Y6.695 F230
G1 X0.637 Y6.620 F230
G1 X0.695 Y6.549 F230
G1 X0.767 Y6.486 F230
G1 X7.227 Y1.695 F230
G1 X7.259 Y1.673 F230
G1 X7.292 Y1.655 F230
G1 X7.326 Y1.639 F230
G1 X7.361 Y1.626 F230
G1 X7.396 Y1.616 F230
G1 X7.432 Y1.609 F230
G1 X7.469 Y1.604 F230
G1 X7.505 Y1.603 F230
G1 X7.542 Y1.604 F230
G1 X7.579 Y1.609 F230
G1 X7.615 Y1.616 F230
G1 X7.650 Y1.626 F230
G1 X7.685 Y1.639 F230
G1 X7.719 Y1.655 F230
G1 X7.752 Y1.673 F230
G1 X7.784 Y1.695 F230
G1 X7.784 Y1.695 F230
M5
; pasada 2/3: aplicar z_step_mm de la configuracion (ajuste manual de Z o G-code M-code segun el firmware)
G0 X1.312 Y13.397 F3000
M4 S10000
G1 X8.201 Y13.397 F230
G1 X8.282 Y13.393 F230
G1 X8.360 Y13.381 F230
G1 X8.435 Y13.361 F230
G1 X8.508 Y13.335 F230
G1 X8.576 Y13.302 F230
G1 X8.641 Y13.262 F230
G1 X8.702 Y13.217 F230
G1 X8.758 Y13.166 F230
G1 X8.809 Y13.110 F230
G1 X8.854 Y13.050 F230
G1 X8.893 Y12.985 F230
G1 X8.927 Y12.916 F230
G1 X8.953 Y12.844 F230
G1 X8.973 Y12.768 F230
G1 X8.984 Y12.690 F230
G1 X8.989 Y12.610 F230
G1 X8.989 Y8.480 F230
G1 X0.525 Y8.480 F230
G1 X0.525 Y12.610 F230
G1 X0.529 Y12.690 F230
G1 X0.541 Y12.768 F230
G1 X0.560 Y12.844 F230
G1 X0.587 Y12.916 F230
G1 X0.620 Y12.985 F230
G1 X0.659 Y13.050 F230
G1 X0.704 Y13.110 F230
G1 X0.755 Y13.166 F230
G1 X0.811 Y13.217 F230
G1 X0.872 Y13.262 F230
G1 X0.937 Y13.302 F230
G1 X1.006 Y13.335 F230
G1 X1.078 Y13.361 F230
G1 X1.153 Y13.381 F230
G1 X1.231 Y13.393 F230
G1 X1.312 Y13.397 F230
G1 X1.312 Y13.397 F230
M5
G0 X14.475 Y10.708 F3000
M4 S10000
G1 X14.465 Y10.490 F230
G1 X14.432 Y10.273 F230
G1 X14.379 Y10.061 F230
G1 X14.304 Y9.855 F230
G1 X14.210 Y9.658 F230
G1 X14.097 Y9.470 F230
G1 X13.966 Y9.294 F230
G1 X13.818 Y9.132 F230
G1 X13.654 Y8.986 F230
G1 X13.477 Y8.855 F230
G1 X13.288 Y8.743 F230
G1 X13.089 Y8.649 F230
G1 X12.882 Y8.576 F230
G1 X12.668 Y8.523 F230
G1 X12.450 Y8.491 F230
G1 X12.230 Y8.480 F230
G1 X12.010 Y8.491 F230
G1 X11.792 Y8.523 F230
G1 X11.578 Y8.576 F230
G1 X11.370 Y8.649 F230
G1 X11.171 Y8.743 F230
G1 X10.982 Y8.855 F230
G1 X10.805 Y8.986 F230
G1 X10.642 Y9.132 F230
G1 X10.494 Y9.294 F230
G1 X10.362 Y9.470 F230
G1 X10.249 Y9.658 F230
G1 X10.155 Y9.855 F230
G1 X10.081 Y10.061 F230
G1 X10.027 Y10.273 F230
G1 X9.995 Y10.490 F230
G1 X9.984 Y10.708 F230
G1 X9.995 Y10.926 F230
G1 X10.027 Y11.143 F230
G1 X10.081 Y11.355 F230
G1 X10.155 Y11.561 F230
G1 X10.249 Y11.758 F230
G1 X10.362 Y11.946 F230
G1 X10.494 Y12.121 F230
G1 X10.642 Y12.283 F230
G1 X10.805 Y12.430 F230
G1 X10.982 Y12.561 F230
G1 X11.171 Y12.673 F230
G1 X11.370 Y12.766 F230
G1 X11.578 Y12.840 F230
G1 X11.792 Y12.893 F230
G1 X12.010 Y12.925 F230
G1 X12.230 Y12.936 F230
G1 X12.450 Y12.925 F230
G1 X12.668 Y12.893 F230
G1 X12.882 Y12.840 F230
G1 X13.089 Y12.766 F230
G1 X13.288 Y12.673 F230
G1 X13.477 Y12.561 F230
G1 X13.654 Y12.430 F230
G1 X13.818 Y12.283 F230
G1 X13.966 Y12.121 F230
G1 X14.097 Y11.946 F230
G1 X14.210 Y11.758 F230
G1 X14.304 Y11.561 F230
G1 X14.379 Y11.355 F230
G1 X14.432 Y11.143 F230
G1 X14.465 Y10.926 F230
G1 X14.475 Y10.708 F230
M5
G0 X7.784 Y1.695 F3000
M4 S10000
G1 X14.244 Y6.486 F230
G1 X14.316 Y6.549 F230
G1 X14.374 Y6.620 F230
G1 X14.418 Y6.695 F230
G1 X14.448 Y6.775 F230
G1 X14.464 Y6.857 F230
G1 X14.468 Y6.940 F230
G1 X14.459 Y7.022 F230
G1 X14.439 Y7.102 F230
G1 X14.408 Y7.179 F230
G1 X14.365 Y7.250 F230
G1 X14.313 Y7.314 F230
G1 X14.251 Y7.370 F230
G1 X14.179 Y7.416 F230
G1 X14.099 Y7.451 F230
G1 X14.011 Y7.473 F230
G1 X13.915 Y7.481 F230
G1 X1.096 Y7.481 F230
G1 X1.000 Y7.473 F230
G1 X0.912 Y7.451 F230
G1 X0.831 Y7.416 F230
G1 X0.760 Y7.370 F230
G1 X0.698 Y7.314 F230
G1 X0.645 Y7.250 F230
G1 X0.603 Y7.179 F230
G1 X0.572 Y7.102 F230
G1 X0.552 Y7.022 F230
G1 X0.543 Y6.940 F230
G1 X0.547 Y6.857 F230
G1 X0.563 Y6.775 F230
G1 X0.593 Y6.695 F230
G1 X0.637 Y6.620 F230
G1 X0.695 Y6.549 F230
G1 X0.767 Y6.486 F230
G1 X7.227 Y1.695 F230
G1 X7.259 Y1.673 F230
G1 X7.292 Y1.655 F230
G1 X7.326 Y1.639 F230
G1 X7.361 Y1.626 F230
G1 X7.396 Y1.616 F230
G1 X7.432 Y1.609 F230
G1 X7.469 Y1.604 F230
G1 X7.505 Y1.603 F230
G1 X7.542 Y1.604 F230
G1 X7.579 Y1.609 F230
G1 X7.615 Y1.616 F230
G1 X7.650 Y1.626 F230
G1 X7.685 Y1.639 F230
G1 X7.719 Y1.655 F230
G1 X7.752 Y1.673 F230
G1 X7.784 Y1.695 F230
G1 X7.784 Y1.695 F230
M5
; pasada 3/3: aplicar z_step_mm de la configuracion (ajuste manual de Z o G-code M-code segun el firmware)
G0 X1.312 Y13.397 F3000
M4 S10000
G1 X8.201 Y13.397 F230
G1 X8.282 Y13.393 F230
G1 X8.360 Y13.381 F230
G1 X8.435 Y13.361 F230
G1 X8.508 Y13.335 F230
G1 X8.576 Y13.302 F230
G1 X8.641 Y13.262 F230
G1 X8.702 Y13.217 F230
G1 X8.758 Y13.166 F230
G1 X8.809 Y13.110 F230
G1 X8.854 Y13.050 F230
G1 X8.893 Y12.985 F230
G1 X8.927 Y12.916 F230
G1 X8.953 Y12.844 F230
G1 X8.973 Y12.768 F230
G1 X8.984 Y12.690 F230
G1 X8.989 Y12.610 F230
G1 X8.989 Y8.480 F230
G1 X0.525 Y8.480 F230
G1 X0.525 Y12.610 F230
G1 X0.529 Y12.690 F230
G1 X0.541 Y12.768 F230
G1 X0.560 Y12.844 F230
G1 X0.587 Y12.916 F230
G1 X0.620 Y12.985 F230
G1 X0.659 Y13.050 F230
G1 X0.704 Y13.110 F230
G1 X0.755 Y13.166 F230
G1 X0.811 Y13.217 F230
G1 X0.872 Y13.262 F230
G1 X0.937 Y13.302 F230
G1 X1.006 Y13.335 F230
G1 X1.078 Y13.361 F230
G1 X1.153 Y13.381 F230
G1 X1.231 Y13.393 F230
G1 X1.312 Y13.397 F230
G1 X1.312 Y13.397 F230
M5
G0 X14.475 Y10.708 F3000
M4 S10000
G1 X14.465 Y10.490 F230
G1 X14.432 Y10.273 F230
G1 X14.379 Y10.061 F230
G1 X14.304 Y9.855 F230
G1 X14.210 Y9.658 F230
G1 X14.097 Y9.470 F230
G1 X13.966 Y9.294 F230
G1 X13.818 Y9.132 F230
G1 X13.654 Y8.986 F230
G1 X13.477 Y8.855 F230
G1 X13.288 Y8.743 F230
G1 X13.089 Y8.649 F230
G1 X12.882 Y8.576 F230
G1 X12.668 Y8.523 F230
G1 X12.450 Y8.491 F230
G1 X12.230 Y8.480 F230
G1 X12.010 Y8.491 F230
G1 X11.792 Y8.523 F230
G1 X11.578 Y8.576 F230
G1 X11.370 Y8.649 F230
G1 X11.171 Y8.743 F230
G1 X10.982 Y8.855 F230
G1 X10.805 Y8.986 F230
G1 X10.642 Y9.132 F230
G1 X10.494 Y9.294 F230
G1 X10.362 Y9.470 F230
G1 X10.249 Y9.658 F230
G1 X10.155 Y9.855 F230
G1 X10.081 Y10.061 F230
G1 X10.027 Y10.273 F230
G1 X9.995 Y10.490 F230
G1 X9.984 Y10.708 F230
G1 X9.995 Y10.926 F230
G1 X10.027 Y11.143 F230
G1 X10.081 Y11.355 F230
G1 X10.155 Y11.561 F230
G1 X10.249 Y11.758 F230
G1 X10.362 Y11.946 F230
G1 X10.494 Y12.121 F230
G1 X10.642 Y12.283 F230
G1 X10.805 Y12.430 F230
G1 X10.982 Y12.561 F230
G1 X11.171 Y12.673 F230
G1 X11.370 Y12.766 F230
G1 X11.578 Y12.840 F230
G1 X11.792 Y12.893 F230
G1 X12.010 Y12.925 F230
G1 X12.230 Y12.936 F230
G1 X12.450 Y12.925 F230
G1 X12.668 Y12.893 F230
G1 X12.882 Y12.840 F230
G1 X13.089 Y12.766 F230
G1 X13.288 Y12.673 F230
G1 X13.477 Y12.561 F230
G1 X13.654 Y12.430 F230
G1 X13.818 Y12.283 F230
G1 X13.966 Y12.121 F230
G1 X14.097 Y11.946 F230
G1 X14.210 Y11.758 F230
G1 X14.304 Y11.561 F230
G1 X14.379 Y11.355 F230
G1 X14.432 Y11.143 F230
G1 X14.465 Y10.926 F230
G1 X14.475 Y10.708 F230
M5
G0 X7.784 Y1.695 F3000
M4 S10000
G1 X14.244 Y6.486 F230
G1 X14.316 Y6.549 F230
G1 X14.374 Y6.620 F230
G1 X14.418 Y6.695 F230
G1 X14.448 Y6.775 F230
G1 X14.464 Y6.857 F230
G1 X14.468 Y6.940 F230
G1 X14.459 Y7.022 F230
G1 X14.439 Y7.102 F230
G1 X14.408 Y7.179 F230
G1 X14.365 Y7.250 F230
G1 X14.313 Y7.314 F230
G1 X14.251 Y7.370 F230
G1 X14.179 Y7.416 F230
G1 X14.099 Y7.451 F230
G1 X14.011 Y7.473 F230
G1 X13.915 Y7.481 F230
G1 X1.096 Y7.481 F230
G1 X1.000 Y7.473 F230
G1 X0.912 Y7.451 F230
G1 X0.831 Y7.416 F230
G1 X0.760 Y7.370 F230
G1 X0.698 Y7.314 F230
G1 X0.645 Y7.250 F230
G1 X0.603 Y7.179 F230
G1 X0.572 Y7.102 F230
G1 X0.552 Y7.022 F230
G1 X0.543 Y6.940 F230
G1 X0.547 Y6.857 F230
G1 X0.563 Y6.775 F230
G1 X0.593 Y6.695 F230
G1 X0.637 Y6.620 F230
G1 X0.695 Y6.549 F230
G1 X0.767 Y6.486 F230
G1 X7.227 Y1.695 F230
G1 X7.259 Y1.673 F230
G1 X7.292 Y1.655 F230
G1 X7.326 Y1.639 F230
G1 X7.361 Y1.626 F230
G1 X7.396 Y1.616 F230
G1 X7.432 Y1.609 F230
G1 X7.469 Y1.604 F230
G1 X7.505 Y1.603 F230
G1 X7.542 Y1.604 F230
G1 X7.579 Y1.609 F230
G1 X7.615 Y1.616 F230
G1 X7.650 Y1.626 F230
G1 X7.685 Y1.639 F230
G1 X7.719 Y1.655 F230
G1 X7.752 Y1.673 F230
G1 X7.784 Y1.695 F230
G1 X7.784 Y1.695 F230
M5
G0 X0.000 Y20.000 F3000
M4 S2000
G1 X1.200 Y20.000 F1500
M5
G0 X0.000 Y20.000 F3000
M4 S2000
G1 X0.000 Y19.000 F1500
M5
G0 X0.000 Y19.000 F3000
M4 S2000
G1 X0.000 Y18.000 F1500
M5
G0 X0.000 Y18.000 F3000
M4 S2000
G1 X1.200 Y18.000 F1500
M5
G0 X1.600 Y19.000 F3000
M4 S2000
G1 X2.800 Y19.000 F1500
M5
G0 X3.200 Y20.000 F3000
M4 S2000
G1 X4.400 Y20.000 F1500
M5
G0 X4.400 Y20.000 F3000
M4 S2000
G1 X4.400 Y19.000 F1500
M5
G0 X4.400 Y19.000 F3000
M4 S2000
G1 X4.400 Y18.000 F1500
M5
G0 X3.200 Y18.000 F3000
M4 S2000
G1 X4.400 Y18.000 F1500
M5
G0 X3.200 Y19.000 F3000
M4 S2000
G1 X3.200 Y18.000 F1500
M5
G0 X3.200 Y20.000 F3000
M4 S2000
G1 X3.200 Y19.000 F1500
M5
G0 X4.800 Y20.000 F3000
M4 S2000
G1 X6.000 Y20.000 F1500
M5
G0 X6.000 Y20.000 F3000
M4 S2000
G1 X6.000 Y19.000 F1500
M5
G0 X6.000 Y19.000 F3000
M4 S2000
G1 X6.000 Y18.000 F1500
M5
G0 X4.800 Y18.000 F3000
M4 S2000
G1 X6.000 Y18.000 F1500
M5
G0 X4.800 Y19.000 F3000
M4 S2000
G1 X4.800 Y18.000 F1500
M5
G0 X4.800 Y20.000 F3000
M4 S2000
G1 X4.800 Y19.000 F1500
M5
G0 X7.600 Y20.000 F3000
M4 S2000
G1 X7.600 Y19.000 F1500
M5
G0 X7.600 Y19.000 F3000
M4 S2000
G1 X7.600 Y18.000 F1500
M5
G0 X19.812 Y13.397 F3000
M4 S10000
G1 X26.701 Y13.397 F240
G1 X26.782 Y13.393 F240
G1 X26.860 Y13.381 F240
G1 X26.935 Y13.361 F240
G1 X27.008 Y13.335 F240
G1 X27.076 Y13.302 F240
G1 X27.141 Y13.262 F240
G1 X27.202 Y13.217 F240
G1 X27.258 Y13.166 F240
G1 X27.309 Y13.110 F240
G1 X27.354 Y13.050 F240
G1 X27.393 Y12.985 F240
G1 X27.427 Y12.916 F240
G1 X27.453 Y12.844 F240
G1 X27.473 Y12.768 F240
G1 X27.484 Y12.690 F240
G1 X27.489 Y12.610 F240
G1 X27.489 Y8.480 F240
G1 X19.025 Y8.480 F240
G1 X19.025 Y12.610 F240
G1 X19.029 Y12.690 F240
G1 X19.041 Y12.768 F240
G1 X19.060 Y12.844 F240
G1 X19.087 Y12.916 F240
G1 X19.120 Y12.985 F240
G1 X19.159 Y13.050 F240
G1 X19.204 Y13.110 F240
G1 X19.255 Y13.166 F240
G1 X19.311 Y13.217 F240
G1 X19.372 Y13.262 F240
G1 X19.437 Y13.302 F240
G1 X19.506 Y13.335 F240
G1 X19.578 Y13.361 F240
G1 X19.653 Y13.381 F240
G1 X19.731 Y13.393 F240
G1 X19.812 Y13.397 F240
G1 X19.812 Y13.397 F240
M5
G0 X32.975 Y10.708 F3000
M4 S10000
G1 X32.965 Y10.490 F240
G1 X32.932 Y10.273 F240
G1 X32.879 Y10.061 F240
G1 X32.804 Y9.855 F240
G1 X32.710 Y9.658 F240
G1 X32.597 Y9.470 F240
G1 X32.466 Y9.294 F240
G1 X32.318 Y9.132 F240
G1 X32.154 Y8.986 F240
G1 X31.977 Y8.855 F240
G1 X31.788 Y8.743 F240
G1 X31.589 Y8.649 F240
G1 X31.382 Y8.576 F240
G1 X31.168 Y8.523 F240
G1 X30.950 Y8.491 F240
G1 X30.730 Y8.480 F240
G1 X30.510 Y8.491 F240
G1 X30.292 Y8.523 F240
G1 X30.078 Y8.576 F240
G1 X29.870 Y8.649 F240
G1 X29.671 Y8.743 F240
G1 X29.482 Y8.855 F240
G1 X29.305 Y8.986 F240
G1 X29.142 Y9.132 F240
G1 X28.994 Y9.294 F240
G1 X28.862 Y9.470 F240
G1 X28.749 Y9.658 F240
G1 X28.655 Y9.855 F240
G1 X28.581 Y10.061 F240
G1 X28.527 Y10.273 F240
G1 X28.495 Y10.490 F240
G1 X28.484 Y10.708 F240
G1 X28.495 Y10.926 F240
G1 X28.527 Y11.143 F240
G1 X28.581 Y11.355 F240
G1 X28.655 Y11.561 F240
G1 X28.749 Y11.758 F240
G1 X28.862 Y11.946 F240
G1 X28.994 Y12.121 F240
G1 X29.142 Y12.283 F240
G1 X29.305 Y12.430 F240
G1 X29.482 Y12.561 F240
G1 X29.671 Y12.673 F240
G1 X29.870 Y12.766 F240
G1 X30.078 Y12.840 F240
G1 X30.292 Y12.893 F240
G1 X30.510 Y12.925 F240
G1 X30.730 Y12.936 F240
G1 X30.950 Y12.925 F240
G1 X31.168 Y12.893 F240
G1 X31.382 Y12.840 F240
G1 X31.589 Y12.766 F240
G1 X31.788 Y12.673 F240
G1 X31.977 Y12.561 F240
G1 X32.154 Y12.430 F240
G1 X32.318 Y12.283 F240
G1 X32.466 Y12.121 F240
G1 X32.597 Y11.946 F240
G1 X32.710 Y11.758 F240
G1 X32.804 Y11.561 F240
G1 X32.879 Y11.355 F240
G1 X32.932 Y11.143 F240
G1 X32.965 Y10.926 F240
G1 X32.975 Y10.708 F240
M5
G0 X26.284 Y1.695 F3000
M4 S10000
G1 X32.744 Y6.486 F240
G1 X32.816 Y6.549 F240
G1 X32.874 Y6.620 F240
G1 X32.918 Y6.695 F240
G1 X32.948 Y6.775 F240
G1 X32.964 Y6.857 F240
G1 X32.968 Y6.940 F240
G1 X32.959 Y7.022 F240
G1 X32.939 Y7.102 F240
G1 X32.908 Y7.179 F240
G1 X32.865 Y7.250 F240
G1 X32.813 Y7.314 F240
G1 X32.751 Y7.370 F240
G1 X32.679 Y7.416 F240
G1 X32.599 Y7.451 F240
G1 X32.511 Y7.473 F240
G1 X32.415 Y7.481 F240
G1 X19.596 Y7.481 F240
G1 X19.500 Y7.473 F240
G1 X19.412 Y7.451 F240
G1 X19.331 Y7.416 F240
G1 X19.260 Y7.370 F240
G1 X19.198 Y7.314 F240
G1 X19.145 Y7.250 F240
G1 X19.103 Y7.179 F240
G1 X19.072 Y7.102 F240
G1 X19.052 Y7.022 F240
G1 X19.043 Y6.940 F240
G1 X19.047 Y6.857 F240
G1 X19.063 Y6.775 F240
G1 X19.093 Y6.695 F240
G1 X19.137 Y6.620 F240
G1 X19.195 Y6.549 F240
G1 X19.267 Y6.486 F240
G1 X25.727 Y1.695 F240
G1 X25.759 Y1.673 F240
G1 X25.792 Y1.655 F240
G1 X25.826 Y1.639 F240
G1 X25.861 Y1.626 F240
G1 X25.896 Y1.616 F240
G1 X25.932 Y1.609 F240
G1 X25.969 Y1.604 F240
G1 X26.005 Y1.603 F240
G1 X26.042 Y1.604 F240
G1 X26.079 Y1.609 F240
G1 X26.115 Y1.616 F240
G1 X26.150 Y1.626 F240
G1 X26.185 Y1.639 F240
G1 X26.219 Y1.655 F240
G1 X26.252 Y1.673 F240
G1 X26.284 Y1.695 F240
G1 X26.284 Y1.695 F240
M5
; pasada 2/3: aplicar z_step_mm de la configuracion (ajuste manual de Z o G-code M-code segun el firmware)
G0 X19.812 Y13.397 F3000
M4 S10000
G1 X26.701 Y13.397 F240
G1 X26.782 Y13.393 F240
G1 X26.860 Y13.381 F240
G1 X26.935 Y13.361 F240
G1 X27.008 Y13.335 F240
G1 X27.076 Y13.302 F240
G1 X27.141 Y13.262 F240
G1 X27.202 Y13.217 F240
G1 X27.258 Y13.166 F240
G1 X27.309 Y13.110 F240
G1 X27.354 Y13.050 F240
G1 X27.393 Y12.985 F240
G1 X27.427 Y12.916 F240
G1 X27.453 Y12.844 F240
G1 X27.473 Y12.768 F240
G1 X27.484 Y12.690 F240
G1 X27.489 Y12.610 F240
G1 X27.489 Y8.480 F240
G1 X19.025 Y8.480 F240
G1 X19.025 Y12.610 F240
G1 X19.029 Y12.690 F240
G1 X19.041 Y12.768 F240
G1 X19.060 Y12.844 F240
G1 X19.087 Y12.916 F240
G1 X19.120 Y12.985 F240
G1 X19.159 Y13.050 F240
G1 X19.204 Y13.110 F240
G1 X19.255 Y13.166 F240
G1 X19.311 Y13.217 F240
G1 X19.372 Y13.262 F240
G1 X19.437 Y13.302 F240
G1 X19.506 Y13.335 F240
G1 X19.578 Y13.361 F240
G1 X19.653 Y13.381 F240
G1 X19.731 Y13.393 F240
G1 X19.812 Y13.397 F240
G1 X19.812 Y13.397 F240
M5
G0 X32.975 Y10.708 F3000
M4 S10000
G1 X32.965 Y10.490 F240
G1 X32.932 Y10.273 F240
G1 X32.879 Y10.061 F240
G1 X32.804 Y9.855 F240
G1 X32.710 Y9.658 F240
G1 X32.597 Y9.470 F240
G1 X32.466 Y9.294 F240
G1 X32.318 Y9.132 F240
G1 X32.154 Y8.986 F240
G1 X31.977 Y8.855 F240
G1 X31.788 Y8.743 F240
G1 X31.589 Y8.649 F240
G1 X31.382 Y8.576 F240
G1 X31.168 Y8.523 F240
G1 X30.950 Y8.491 F240
G1 X30.730 Y8.480 F240
G1 X30.510 Y8.491 F240
G1 X30.292 Y8.523 F240
G1 X30.078 Y8.576 F240
G1 X29.870 Y8.649 F240
G1 X29.671 Y8.743 F240
G1 X29.482 Y8.855 F240
G1 X29.305 Y8.986 F240
G1 X29.142 Y9.132 F240
G1 X28.994 Y9.294 F240
G1 X28.862 Y9.470 F240
G1 X28.749 Y9.658 F240
G1 X28.655 Y9.855 F240
G1 X28.581 Y10.061 F240
G1 X28.527 Y10.273 F240
G1 X28.495 Y10.490 F240
G1 X28.484 Y10.708 F240
G1 X28.495 Y10.926 F240
G1 X28.527 Y11.143 F240
G1 X28.581 Y11.355 F240
G1 X28.655 Y11.561 F240
G1 X28.749 Y11.758 F240
G1 X28.862 Y11.946 F240
G1 X28.994 Y12.121 F240
G1 X29.142 Y12.283 F240
G1 X29.305 Y12.430 F240
G1 X29.482 Y12.561 F240
G1 X29.671 Y12.673 F240
G1 X29.870 Y12.766 F240
G1 X30.078 Y12.840 F240
G1 X30.292 Y12.893 F240
G1 X30.510 Y12.925 F240
G1 X30.730 Y12.936 F240
G1 X30.950 Y12.925 F240
G1 X31.168 Y12.893 F240
G1 X31.382 Y12.840 F240
G1 X31.589 Y12.766 F240
G1 X31.788 Y12.673 F240
G1 X31.977 Y12.561 F240
G1 X32.154 Y12.430 F240
G1 X32.318 Y12.283 F240
G1 X32.466 Y12.121 F240
G1 X32.597 Y11.946 F240
G1 X32.710 Y11.758 F240
G1 X32.804 Y11.561 F240
G1 X32.879 Y11.355 F240
G1 X32.932 Y11.143 F240
G1 X32.965 Y10.926 F240
G1 X32.975 Y10.708 F240
M5
G0 X26.284 Y1.695 F3000
M4 S10000
G1 X32.744 Y6.486 F240
G1 X32.816 Y6.549 F240
G1 X32.874 Y6.620 F240
G1 X32.918 Y6.695 F240
G1 X32.948 Y6.775 F240
G1 X32.964 Y6.857 F240
G1 X32.968 Y6.940 F240
G1 X32.959 Y7.022 F240
G1 X32.939 Y7.102 F240
G1 X32.908 Y7.179 F240
G1 X32.865 Y7.250 F240
G1 X32.813 Y7.314 F240
G1 X32.751 Y7.370 F240
G1 X32.679 Y7.416 F240
G1 X32.599 Y7.451 F240
G1 X32.511 Y7.473 F240
G1 X32.415 Y7.481 F240
G1 X19.596 Y7.481 F240
G1 X19.500 Y7.473 F240
G1 X19.412 Y7.451 F240
G1 X19.331 Y7.416 F240
G1 X19.260 Y7.370 F240
G1 X19.198 Y7.314 F240
G1 X19.145 Y7.250 F240
G1 X19.103 Y7.179 F240
G1 X19.072 Y7.102 F240
G1 X19.052 Y7.022 F240
G1 X19.043 Y6.940 F240
G1 X19.047 Y6.857 F240
G1 X19.063 Y6.775 F240
G1 X19.093 Y6.695 F240
G1 X19.137 Y6.620 F240
G1 X19.195 Y6.549 F240
G1 X19.267 Y6.486 F240
G1 X25.727 Y1.695 F240
G1 X25.759 Y1.673 F240
G1 X25.792 Y1.655 F240
G1 X25.826 Y1.639 F240
G1 X25.861 Y1.626 F240
G1 X25.896 Y1.616 F240
G1 X25.932 Y1.609 F240
G1 X25.969 Y1.604 F240
G1 X26.005 Y1.603 F240
G1 X26.042 Y1.604 F240
G1 X26.079 Y1.609 F240
G1 X26.115 Y1.616 F240
G1 X26.150 Y1.626 F240
G1 X26.185 Y1.639 F240
G1 X26.219 Y1.655 F240
G1 X26.252 Y1.673 F240
G1 X26.284 Y1.695 F240
G1 X26.284 Y1.695 F240
M5
; pasada 3/3: aplicar z_step_mm de la configuracion (ajuste manual de Z o G-code M-code segun el firmware)
G0 X19.812 Y13.397 F3000
M4 S10000
G1 X26.701 Y13.397 F240
G1 X26.782 Y13.393 F240
G1 X26.860 Y13.381 F240
G1 X26.935 Y13.361 F240
G1 X27.008 Y13.335 F240
G1 X27.076 Y13.302 F240
G1 X27.141 Y13.262 F240
G1 X27.202 Y13.217 F240
G1 X27.258 Y13.166 F240
G1 X27.309 Y13.110 F240
G1 X27.354 Y13.050 F240
G1 X27.393 Y12.985 F240
G1 X27.427 Y12.916 F240
G1 X27.453 Y12.844 F240
G1 X27.473 Y12.768 F240
G1 X27.484 Y12.690 F240
G1 X27.489 Y12.610 F240
G1 X27.489 Y8.480 F240
G1 X19.025 Y8.480 F240
G1 X19.025 Y12.610 F240
G1 X19.029 Y12.690 F240
G1 X19.041 Y12.768 F240
G1 X19.060 Y12.844 F240
G1 X19.087 Y12.916 F240
G1 X19.120 Y12.985 F240
G1 X19.159 Y13.050 F240
G1 X19.204 Y13.110 F240
G1 X19.255 Y13.166 F240
G1 X19.311 Y13.217 F240
G1 X19.372 Y13.262 F240
G1 X19.437 Y13.302 F240
G1 X19.506 Y13.335 F240
G1 X19.578 Y13.361 F240
G1 X19.653 Y13.381 F240
G1 X19.731 Y13.393 F240
G1 X19.812 Y13.397 F240
G1 X19.812 Y13.397 F240
M5
G0 X32.975 Y10.708 F3000
M4 S10000
G1 X32.965 Y10.490 F240
G1 X32.932 Y10.273 F240
G1 X32.879 Y10.061 F240
G1 X32.804 Y9.855 F240
G1 X32.710 Y9.658 F240
G1 X32.597 Y9.470 F240
G1 X32.466 Y9.294 F240
G1 X32.318 Y9.132 F240
G1 X32.154 Y8.986 F240
G1 X31.977 Y8.855 F240
G1 X31.788 Y8.743 F240
G1 X31.589 Y8.649 F240
G1 X31.382 Y8.576 F240
G1 X31.168 Y8.523 F240
G1 X30.950 Y8.491 F240
G1 X30.730 Y8.480 F240
G1 X30.510 Y8.491 F240
G1 X30.292 Y8.523 F240
G1 X30.078 Y8.576 F240
G1 X29.870 Y8.649 F240
G1 X29.671 Y8.743 F240
G1 X29.482 Y8.855 F240
G1 X29.305 Y8.986 F240
G1 X29.142 Y9.132 F240
G1 X28.994 Y9.294 F240
G1 X28.862 Y9.470 F240
G1 X28.749 Y9.658 F240
G1 X28.655 Y9.855 F240
G1 X28.581 Y10.061 F240
G1 X28.527 Y10.273 F240
G1 X28.495 Y10.490 F240
G1 X28.484 Y10.708 F240
G1 X28.495 Y10.926 F240
G1 X28.527 Y11.143 F240
G1 X28.581 Y11.355 F240
G1 X28.655 Y11.561 F240
G1 X28.749 Y11.758 F240
G1 X28.862 Y11.946 F240
G1 X28.994 Y12.121 F240
G1 X29.142 Y12.283 F240
G1 X29.305 Y12.430 F240
G1 X29.482 Y12.561 F240
G1 X29.671 Y12.673 F240
G1 X29.870 Y12.766 F240
G1 X30.078 Y12.840 F240
G1 X30.292 Y12.893 F240
G1 X30.510 Y12.925 F240
G1 X30.730 Y12.936 F240
G1 X30.950 Y12.925 F240
G1 X31.168 Y12.893 F240
G1 X31.382 Y12.840 F240
G1 X31.589 Y12.766 F240
G1 X31.788 Y12.673 F240
G1 X31.977 Y12.561 F240
G1 X32.154 Y12.430 F240
G1 X32.318 Y12.283 F240
G1 X32.466 Y12.121 F240
G1 X32.597 Y11.946 F240
G1 X32.710 Y11.758 F240
G1 X32.804 Y11.561 F240
G1 X32.879 Y11.355 F240
G1 X32.932 Y11.143 F240
G1 X32.965 Y10.926 F240
G1 X32.975 Y10.708 F240
M5
G0 X26.284 Y1.695 F3000
M4 S10000
G1 X32.744 Y6.486 F240
G1 X32.816 Y6.549 F240
G1 X32.874 Y6.620 F240
G1 X32.918 Y6.695 F240
G1 X32.948 Y6.775 F240
G1 X32.964 Y6.857 F240
G1 X32.968 Y6.940 F240
G1 X32.959 Y7.022 F240
G1 X32.939 Y7.102 F240
G1 X32.908 Y7.179 F240
G1 X32.865 Y7.250 F240
G1 X32.813 Y7.314 F240
G1 X32.751 Y7.370 F240
G1 X32.679 Y7.416 F240
G1 X32.599 Y7.451 F240
G1 X32.511 Y7.473 F240
G1 X32.415 Y7.481 F240
G1 X19.596 Y7.481 F240
G1 X19.500 Y7.473 F240
G1 X19.412 Y7.451 F240
G1 X19.331 Y7.416 F240
G1 X19.260 Y7.370 F240
G1 X19.198 Y7.314 F240
G1 X19.145 Y7.250 F240
G1 X19.103 Y7.179 F240
G1 X19.072 Y7.102 F240
G1 X19.052 Y7.022 F240
G1 X19.043 Y6.940 F240
G1 X19.047 Y6.857 F240
G1 X19.063 Y6.775 F240
G1 X19.093 Y6.695 F240
G1 X19.137 Y6.620 F240
G1 X19.195 Y6.549 F240
G1 X19.267 Y6.486 F240
G1 X25.727 Y1.695 F240
G1 X25.759 Y1.673 F240
G1 X25.792 Y1.655 F240
G1 X25.826 Y1.639 F240
G1 X25.861 Y1.626 F240
G1 X25.896 Y1.616 F240
G1 X25.932 Y1.609 F240
G1 X25.969 Y1.604 F240
G1 X26.005 Y1.603 F240
G1 X26.042 Y1.604 F240
G1 X26.079 Y1.609 F240
G1 X26.115 Y1.616 F240
G1 X26.150 Y1.626 F240
G1 X26.185 Y1.639 F240
G1 X26.219 Y1.655 F240
G1 X26.252 Y1.673 F240
G1 X26.284 Y1.695 F240
G1 X26.284 Y1.695 F240
M5
G0 X18.500 Y20.000 F3000
M4 S2000
G1 X19.700 Y20.000 F1500
M5
G0 X18.500 Y20.000 F3000
M4 S2000
G1 X18.500 Y19.000 F1500
M5
G0 X18.500 Y19.000 F3000
M4 S2000
G1 X18.500 Y18.000 F1500
M5
G0 X18.500 Y18.000 F3000
M4 S2000
G1 X19.700 Y18.000 F1500
M5
G0 X20.100 Y19.000 F3000
M4 S2000
G1 X21.300 Y19.000 F1500
M5
G0 X21.700 Y20.000 F3000
M4 S2000
G1 X22.900 Y20.000 F1500
M5
G0 X22.900 Y20.000 F3000
M4 S2000
G1 X22.900 Y19.000 F1500
M5
G0 X22.900 Y19.000 F3000
M4 S2000
G1 X22.900 Y18.000 F1500
M5
G0 X21.700 Y18.000 F3000
M4 S2000
G1 X22.900 Y18.000 F1500
M5
G0 X21.700 Y19.000 F3000
M4 S2000
G1 X21.700 Y18.000 F1500
M5
G0 X21.700 Y20.000 F3000
M4 S2000
G1 X21.700 Y19.000 F1500
M5
G0 X23.300 Y20.000 F3000
M4 S2000
G1 X24.500 Y20.000 F1500
M5
G0 X24.500 Y20.000 F3000
M4 S2000
G1 X24.500 Y19.000 F1500
M5
G0 X24.500 Y19.000 F3000
M4 S2000
G1 X24.500 Y18.000 F1500
M5
G0 X23.300 Y18.000 F3000
M4 S2000
G1 X24.500 Y18.000 F1500
M5
G0 X23.300 Y19.000 F3000
M4 S2000
G1 X23.300 Y18.000 F1500
M5
G0 X23.300 Y20.000 F3000
M4 S2000
G1 X23.300 Y19.000 F1500
M5
G0 X24.900 Y20.000 F3000
M4 S2000
G1 X26.100 Y20.000 F1500
M5
G0 X26.100 Y20.000 F3000
M4 S2000
G1 X26.100 Y19.000 F1500
M5
G0 X24.900 Y19.000 F3000
M4 S2000
G1 X26.100 Y19.000 F1500
M5
G0 X24.900 Y19.000 F3000
M4 S2000
G1 X24.900 Y18.000 F1500
M5
G0 X24.900 Y18.000 F3000
M4 S2000
G1 X26.100 Y18.000 F1500
M5
G0 X38.312 Y13.397 F3000
M4 S10000
G1 X45.201 Y13.397 F250
G1 X45.282 Y13.393 F250
G1 X45.360 Y13.381 F250
G1 X45.435 Y13.361 F250
G1 X45.508 Y13.335 F250
G1 X45.576 Y13.302 F250
G1 X45.641 Y13.262 F250
G1 X45.702 Y13.217 F250
G1 X45.758 Y13.166 F250
G1 X45.809 Y13.110 F250
G1 X45.854 Y13.050 F250
G1 X45.893 Y12.985 F250
G1 X45.927 Y12.916 F250
G1 X45.953 Y12.844 F250
G1 X45.973 Y12.768 F250
G1 X45.984 Y12.690 F250
G1 X45.989 Y12.610 F250
G1 X45.989 Y8.480 F250
G1 X37.525 Y8.480 F250
G1 X37.525 Y12.610 F250
G1 X37.529 Y12.690 F250
G1 X37.541 Y12.768 F250
G1 X37.560 Y12.844 F250
G1 X37.587 Y12.916 F250
G1 X37.620 Y12.985 F250
G1 X37.659 Y13.050 F250
G1 X37.704 Y13.110 F250
G1 X37.755 Y13.166 F250
G1 X37.811 Y13.217 F250
G1 X37.872 Y13.262 F250
G1 X37.937 Y13.302 F250
G1 X38.006 Y13.335 F250
G1 X38.078 Y13.361 F250
G1 X38.153 Y13.381 F250
G1 X38.231 Y13.393 F250
G1 X38.312 Y13.397 F250
G1 X38.312 Y13.397 F250
M5
G0 X51.475 Y10.708 F3000
M4 S10000
G1 X51.465 Y10.490 F250
G1 X51.432 Y10.273 F250
G1 X51.379 Y10.061 F250
G1 X51.304 Y9.855 F250
G1 X51.210 Y9.658 F250
G1 X51.097 Y9.470 F250
G1 X50.966 Y9.294 F250
G1 X50.818 Y9.132 F250
G1 X50.654 Y8.986 F250
G1 X50.477 Y8.855 F250
G1 X50.288 Y8.743 F250
G1 X50.089 Y8.649 F250
G1 X49.882 Y8.576 F250
G1 X49.668 Y8.523 F250
G1 X49.450 Y8.491 F250
G1 X49.230 Y8.480 F250
G1 X49.010 Y8.491 F250
G1 X48.792 Y8.523 F250
G1 X48.578 Y8.576 F250
G1 X48.370 Y8.649 F250
G1 X48.171 Y8.743 F250
G1 X47.982 Y8.855 F250
G1 X47.805 Y8.986 F250
G1 X47.642 Y9.132 F250
G1 X47.494 Y9.294 F250
G1 X47.362 Y9.470 F250
G1 X47.249 Y9.658 F250
G1 X47.155 Y9.855 F250
G1 X47.081 Y10.061 F250
G1 X47.027 Y10.273 F250
G1 X46.995 Y10.490 F250
G1 X46.984 Y10.708 F250
G1 X46.995 Y10.926 F250
G1 X47.027 Y11.143 F250
G1 X47.081 Y11.355 F250
G1 X47.155 Y11.561 F250
G1 X47.249 Y11.758 F250
G1 X47.362 Y11.946 F250
G1 X47.494 Y12.121 F250
G1 X47.642 Y12.283 F250
G1 X47.805 Y12.430 F250
G1 X47.982 Y12.561 F250
G1 X48.171 Y12.673 F250
G1 X48.370 Y12.766 F250
G1 X48.578 Y12.840 F250
G1 X48.792 Y12.893 F250
G1 X49.010 Y12.925 F250
G1 X49.230 Y12.936 F250
G1 X49.450 Y12.925 F250
G1 X49.668 Y12.893 F250
G1 X49.882 Y12.840 F250
G1 X50.089 Y12.766 F250
G1 X50.288 Y12.673 F250
G1 X50.477 Y12.561 F250
G1 X50.654 Y12.430 F250
G1 X50.818 Y12.283 F250
G1 X50.966 Y12.121 F250
G1 X51.097 Y11.946 F250
G1 X51.210 Y11.758 F250
G1 X51.304 Y11.561 F250
G1 X51.379 Y11.355 F250
G1 X51.432 Y11.143 F250
G1 X51.465 Y10.926 F250
G1 X51.475 Y10.708 F250
M5
G0 X44.784 Y1.695 F3000
M4 S10000
G1 X51.244 Y6.486 F250
G1 X51.316 Y6.549 F250
G1 X51.374 Y6.620 F250
G1 X51.418 Y6.695 F250
G1 X51.448 Y6.775 F250
G1 X51.464 Y6.857 F250
G1 X51.468 Y6.940 F250
G1 X51.459 Y7.022 F250
G1 X51.439 Y7.102 F250
G1 X51.408 Y7.179 F250
G1 X51.365 Y7.250 F250
G1 X51.313 Y7.314 F250
G1 X51.251 Y7.370 F250
G1 X51.179 Y7.416 F250
G1 X51.099 Y7.451 F250
G1 X51.011 Y7.473 F250
G1 X50.915 Y7.481 F250
G1 X38.096 Y7.481 F250
G1 X38.000 Y7.473 F250
G1 X37.912 Y7.451 F250
G1 X37.831 Y7.416 F250
G1 X37.760 Y7.370 F250
G1 X37.698 Y7.314 F250
G1 X37.645 Y7.250 F250
G1 X37.603 Y7.179 F250
G1 X37.572 Y7.102 F250
G1 X37.552 Y7.022 F250
G1 X37.543 Y6.940 F250
G1 X37.547 Y6.857 F250
G1 X37.563 Y6.775 F250
G1 X37.593 Y6.695 F250
G1 X37.637 Y6.620 F250
G1 X37.695 Y6.549 F250
G1 X37.767 Y6.486 F250
G1 X44.227 Y1.695 F250
G1 X44.259 Y1.673 F250
G1 X44.292 Y1.655 F250
G1 X44.326 Y1.639 F250
G1 X44.361 Y1.626 F250
G1 X44.396 Y1.616 F250
G1 X44.432 Y1.609 F250
G1 X44.469 Y1.604 F250
G1 X44.505 Y1.603 F250
G1 X44.542 Y1.604 F250
G1 X44.579 Y1.609 F250
G1 X44.615 Y1.616 F250
G1 X44.650 Y1.626 F250
G1 X44.685 Y1.639 F250
G1 X44.719 Y1.655 F250
G1 X44.752 Y1.673 F250
G1 X44.784 Y1.695 F250
G1 X44.784 Y1.695 F250
M5
; pasada 2/3: aplicar z_step_mm de la configuracion (ajuste manual de Z o G-code M-code segun el firmware)
G0 X38.312 Y13.397 F3000
M4 S10000
G1 X45.201 Y13.397 F250
G1 X45.282 Y13.393 F250
G1 X45.360 Y13.381 F250
G1 X45.435 Y13.361 F250
G1 X45.508 Y13.335 F250
G1 X45.576 Y13.302 F250
G1 X45.641 Y13.262 F250
G1 X45.702 Y13.217 F250
G1 X45.758 Y13.166 F250
G1 X45.809 Y13.110 F250
G1 X45.854 Y13.050 F250
G1 X45.893 Y12.985 F250
G1 X45.927 Y12.916 F250
G1 X45.953 Y12.844 F250
G1 X45.973 Y12.768 F250
G1 X45.984 Y12.690 F250
G1 X45.989 Y12.610 F250
G1 X45.989 Y8.480 F250
G1 X37.525 Y8.480 F250
G1 X37.525 Y12.610 F250
G1 X37.529 Y12.690 F250
G1 X37.541 Y12.768 F250
G1 X37.560 Y12.844 F250
G1 X37.587 Y12.916 F250
G1 X37.620 Y12.985 F250
G1 X37.659 Y13.050 F250
G1 X37.704 Y13.110 F250
G1 X37.755 Y13.166 F250
G1 X37.811 Y13.217 F250
G1 X37.872 Y13.262 F250
G1 X37.937 Y13.302 F250
G1 X38.006 Y13.335 F250
G1 X38.078 Y13.361 F250
G1 X38.153 Y13.381 F250
G1 X38.231 Y13.393 F250
G1 X38.312 Y13.397 F250
G1 X38.312 Y13.397 F250
M5
G0 X51.475 Y10.708 F3000
M4 S10000
G1 X51.465 Y10.490 F250
G1 X51.432 Y10.273 F250
G1 X51.379 Y10.061 F250
G1 X51.304 Y9.855 F250
G1 X51.210 Y9.658 F250
G1 X51.097 Y9.470 F250
G1 X50.966 Y9.294 F250
G1 X50.818 Y9.132 F250
G1 X50.654 Y8.986 F250
G1 X50.477 Y8.855 F250
G1 X50.288 Y8.743 F250
G1 X50.089 Y8.649 F250
G1 X49.882 Y8.576 F250
G1 X49.668 Y8.523 F250
G1 X49.450 Y8.491 F250
G1 X49.230 Y8.480 F250
G1 X49.010 Y8.491 F250
G1 X48.792 Y8.523 F250
G1 X48.578 Y8.576 F250
G1 X48.370 Y8.649 F250
G1 X48.171 Y8.743 F250
G1 X47.982 Y8.855 F250
G1 X47.805 Y8.986 F250
G1 X47.642 Y9.132 F250
G1 X47.494 Y9.294 F250
G1 X47.362 Y9.470 F250
G1 X47.249 Y9.658 F250
G1 X47.155 Y9.855 F250
G1 X47.081 Y10.061 F250
G1 X47.027 Y10.273 F250
G1 X46.995 Y10.490 F250
G1 X46.984 Y10.708 F250
G1 X46.995 Y10.926 F250
G1 X47.027 Y11.143 F250
G1 X47.081 Y11.355 F250
G1 X47.155 Y11.561 F250
G1 X47.249 Y11.758 F250
G1 X47.362 Y11.946 F250
G1 X47.494 Y12.121 F250
G1 X47.642 Y12.283 F250
G1 X47.805 Y12.430 F250
G1 X47.982 Y12.561 F250
G1 X48.171 Y12.673 F250
G1 X48.370 Y12.766 F250
G1 X48.578 Y12.840 F250
G1 X48.792 Y12.893 F250
G1 X49.010 Y12.925 F250
G1 X49.230 Y12.936 F250
G1 X49.450 Y12.925 F250
G1 X49.668 Y12.893 F250
G1 X49.882 Y12.840 F250
G1 X50.089 Y12.766 F250
G1 X50.288 Y12.673 F250
G1 X50.477 Y12.561 F250
G1 X50.654 Y12.430 F250
G1 X50.818 Y12.283 F250
G1 X50.966 Y12.121 F250
G1 X51.097 Y11.946 F250
G1 X51.210 Y11.758 F250
G1 X51.304 Y11.561 F250
G1 X51.379 Y11.355 F250
G1 X51.432 Y11.143 F250
G1 X51.465 Y10.926 F250
G1 X51.475 Y10.708 F250
M5
G0 X44.784 Y1.695 F3000
M4 S10000
G1 X51.244 Y6.486 F250
G1 X51.316 Y6.549 F250
G1 X51.374 Y6.620 F250
G1 X51.418 Y6.695 F250
G1 X51.448 Y6.775 F250
G1 X51.464 Y6.857 F250
G1 X51.468 Y6.940 F250
G1 X51.459 Y7.022 F250
G1 X51.439 Y7.102 F250
G1 X51.408 Y7.179 F250
G1 X51.365 Y7.250 F250
G1 X51.313 Y7.314 F250
G1 X51.251 Y7.370 F250
G1 X51.179 Y7.416 F250
G1 X51.099 Y7.451 F250
G1 X51.011 Y7.473 F250
G1 X50.915 Y7.481 F250
G1 X38.096 Y7.481 F250
G1 X38.000 Y7.473 F250
G1 X37.912 Y7.451 F250
G1 X37.831 Y7.416 F250
G1 X37.760 Y7.370 F250
G1 X37.698 Y7.314 F250
G1 X37.645 Y7.250 F250
G1 X37.603 Y7.179 F250
G1 X37.572 Y7.102 F250
G1 X37.552 Y7.022 F250
G1 X37.543 Y6.940 F250
G1 X37.547 Y6.857 F250
G1 X37.563 Y6.775 F250
G1 X37.593 Y6.695 F250
G1 X37.637 Y6.620 F250
G1 X37.695 Y6.549 F250
G1 X37.767 Y6.486 F250
G1 X44.227 Y1.695 F250
G1 X44.259 Y1.673 F250
G1 X44.292 Y1.655 F250
G1 X44.326 Y1.639 F250
G1 X44.361 Y1.626 F250
G1 X44.396 Y1.616 F250
G1 X44.432 Y1.609 F250
G1 X44.469 Y1.604 F250
G1 X44.505 Y1.603 F250
G1 X44.542 Y1.604 F250
G1 X44.579 Y1.609 F250
G1 X44.615 Y1.616 F250
G1 X44.650 Y1.626 F250
G1 X44.685 Y1.639 F250
G1 X44.719 Y1.655 F250
G1 X44.752 Y1.673 F250
G1 X44.784 Y1.695 F250
G1 X44.784 Y1.695 F250
M5
; pasada 3/3: aplicar z_step_mm de la configuracion (ajuste manual de Z o G-code M-code segun el firmware)
G0 X38.312 Y13.397 F3000
M4 S10000
G1 X45.201 Y13.397 F250
G1 X45.282 Y13.393 F250
G1 X45.360 Y13.381 F250
G1 X45.435 Y13.361 F250
G1 X45.508 Y13.335 F250
G1 X45.576 Y13.302 F250
G1 X45.641 Y13.262 F250
G1 X45.702 Y13.217 F250
G1 X45.758 Y13.166 F250
G1 X45.809 Y13.110 F250
G1 X45.854 Y13.050 F250
G1 X45.893 Y12.985 F250
G1 X45.927 Y12.916 F250
G1 X45.953 Y12.844 F250
G1 X45.973 Y12.768 F250
G1 X45.984 Y12.690 F250
G1 X45.989 Y12.610 F250
G1 X45.989 Y8.480 F250
G1 X37.525 Y8.480 F250
G1 X37.525 Y12.610 F250
G1 X37.529 Y12.690 F250
G1 X37.541 Y12.768 F250
G1 X37.560 Y12.844 F250
G1 X37.587 Y12.916 F250
G1 X37.620 Y12.985 F250
G1 X37.659 Y13.050 F250
G1 X37.704 Y13.110 F250
G1 X37.755 Y13.166 F250
G1 X37.811 Y13.217 F250
G1 X37.872 Y13.262 F250
G1 X37.937 Y13.302 F250
G1 X38.006 Y13.335 F250
G1 X38.078 Y13.361 F250
G1 X38.153 Y13.381 F250
G1 X38.231 Y13.393 F250
G1 X38.312 Y13.397 F250
G1 X38.312 Y13.397 F250
M5
G0 X51.475 Y10.708 F3000
M4 S10000
G1 X51.465 Y10.490 F250
G1 X51.432 Y10.273 F250
G1 X51.379 Y10.061 F250
G1 X51.304 Y9.855 F250
G1 X51.210 Y9.658 F250
G1 X51.097 Y9.470 F250
G1 X50.966 Y9.294 F250
G1 X50.818 Y9.132 F250
G1 X50.654 Y8.986 F250
G1 X50.477 Y8.855 F250
G1 X50.288 Y8.743 F250
G1 X50.089 Y8.649 F250
G1 X49.882 Y8.576 F250
G1 X49.668 Y8.523 F250
G1 X49.450 Y8.491 F250
G1 X49.230 Y8.480 F250
G1 X49.010 Y8.491 F250
G1 X48.792 Y8.523 F250
G1 X48.578 Y8.576 F250
G1 X48.370 Y8.649 F250
G1 X48.171 Y8.743 F250
G1 X47.982 Y8.855 F250
G1 X47.805 Y8.986 F250
G1 X47.642 Y9.132 F250
G1 X47.494 Y9.294 F250
G1 X47.362 Y9.470 F250
G1 X47.249 Y9.658 F250
G1 X47.155 Y9.855 F250
G1 X47.081 Y10.061 F250
G1 X47.027 Y10.273 F250
G1 X46.995 Y10.490 F250
G1 X46.984 Y10.708 F250
G1 X46.995 Y10.926 F250
G1 X47.027 Y11.143 F250
G1 X47.081 Y11.355 F250
G1 X47.155 Y11.561 F250
G1 X47.249 Y11.758 F250
G1 X47.362 Y11.946 F250
G1 X47.494 Y12.121 F250
G1 X47.642 Y12.283 F250
G1 X47.805 Y12.430 F250
G1 X47.982 Y12.561 F250
G1 X48.171 Y12.673 F250
G1 X48.370 Y12.766 F250
G1 X48.578 Y12.840 F250
G1 X48.792 Y12.893 F250
G1 X49.010 Y12.925 F250
G1 X49.230 Y12.936 F250
G1 X49.450 Y12.925 F250
G1 X49.668 Y12.893 F250
G1 X49.882 Y12.840 F250
G1 X50.089 Y12.766 F250
G1 X50.288 Y12.673 F250
G1 X50.477 Y12.561 F250
G1 X50.654 Y12.430 F250
G1 X50.818 Y12.283 F250
G1 X50.966 Y12.121 F250
G1 X51.097 Y11.946 F250
G1 X51.210 Y11.758 F250
G1 X51.304 Y11.561 F250
G1 X51.379 Y11.355 F250
G1 X51.432 Y11.143 F250
G1 X51.465 Y10.926 F250
G1 X51.475 Y10.708 F250
M5
G0 X44.784 Y1.695 F3000
M4 S10000
G1 X51.244 Y6.486 F250
G1 X51.316 Y6.549 F250
G1 X51.374 Y6.620 F250
G1 X51.418 Y6.695 F250
G1 X51.448 Y6.775 F250
G1 X51.464 Y6.857 F250
G1 X51.468 Y6.940 F250
G1 X51.459 Y7.022 F250
G1 X51.439 Y7.102 F250
G1 X51.408 Y7.179 F250
G1 X51.365 Y7.250 F250
G1 X51.313 Y7.314 F250
G1 X51.251 Y7.370 F250
G1 X51.179 Y7.416 F250
G1 X51.099 Y7.451 F250
G1 X51.011 Y7.473 F250
G1 X50.915 Y7.481 F250
G1 X38.096 Y7.481 F250
G1 X38.000 Y7.473 F250
G1 X37.912 Y7.451 F250
G1 X37.831 Y7.416 F250
G1 X37.760 Y7.370 F250
G1 X37.698 Y7.314 F250
G1 X37.645 Y7.250 F250
G1 X37.603 Y7.179 F250
G1 X37.572 Y7.102 F250
G1 X37.552 Y7.022 F250
G1 X37.543 Y6.940 F250
G1 X37.547 Y6.857 F250
G1 X37.563 Y6.775 F250
G1 X37.593 Y6.695 F250
G1 X37.637 Y6.620 F250
G1 X37.695 Y6.549 F250
G1 X37.767 Y6.486 F250
G1 X44.227 Y1.695 F250
G1 X44.259 Y1.673 F250
G1 X44.292 Y1.655 F250
G1 X44.326 Y1.639 F250
G1 X44.361 Y1.626 F250
G1 X44.396 Y1.616 F250
G1 X44.432 Y1.609 F250
G1 X44.469 Y1.604 F250
G1 X44.505 Y1.603 F250
G1 X44.542 Y1.604 F250
G1 X44.579 Y1.609 F250
G1 X44.615 Y1.616 F250
G1 X44.650 Y1.626 F250
G1 X44.685 Y1.639 F250
G1 X44.719 Y1.655 F250
G1 X44.752 Y1.673 F250
G1 X44.784 Y1.695 F250
G1 X44.784 Y1.695 F250
M5
G0 X37.000 Y20.000 F3000
M4 S2000
G1 X38.200 Y20.000 F1500
M5
G0 X37.000 Y20.000 F3000
M4 S2000
G1 X37.000 Y19.000 F1500
M5
G0 X37.000 Y19.000 F3000
M4 S2000
G1 X37.000 Y18.000 F1500
M5
G0 X37.000 Y18.000 F3000
M4 S2000
G1 X38.200 Y18.000 F1500
M5
G0 X38.600 Y19.000 F3000
M4 S2000
G1 X39.800 Y19.000 F1500
M5
G0 X40.200 Y20.000 F3000
M4 S2000
G1 X41.400 Y20.000 F1500
M5
G0 X41.400 Y20.000 F3000
M4 S2000
G1 X41.400 Y19.000 F1500
M5
G0 X41.400 Y19.000 F3000
M4 S2000
G1 X41.400 Y18.000 F1500
M5
G0 X40.200 Y18.000 F3000
M4 S2000
G1 X41.400 Y18.000 F1500
M5
G0 X40.200 Y19.000 F3000
M4 S2000
G1 X40.200 Y18.000 F1500
M5
G0 X40.200 Y20.000 F3000
M4 S2000
G1 X40.200 Y19.000 F1500
M5
G0 X41.800 Y20.000 F3000
M4 S2000
G1 X43.000 Y20.000 F1500
M5
G0 X43.000 Y20.000 F3000
M4 S2000
G1 X43.000 Y19.000 F1500
M5
G0 X43.000 Y19.000 F3000
M4 S2000
G1 X43.000 Y18.000 F1500
M5
G0 X41.800 Y18.000 F3000
M4 S2000
G1 X43.000 Y18.000 F1500
M5
G0 X41.800 Y19.000 F3000
M4 S2000
G1 X41.800 Y18.000 F1500
M5
G0 X41.800 Y20.000 F3000
M4 S2000
G1 X41.800 Y19.000 F1500
M5
G0 X43.400 Y20.000 F3000
M4 S2000
G1 X44.600 Y20.000 F1500
M5
G0 X44.600 Y20.000 F3000
M4 S2000
G1 X44.600 Y19.000 F1500
M5
G0 X43.400 Y19.000 F3000
M4 S2000
G1 X44.600 Y19.000 F1500
M5
G0 X44.600 Y19.000 F3000
M4 S2000
G1 X44.600 Y18.000 F1500
M5
G0 X43.400 Y18.000 F3000
M4 S2000
G1 X44.600 Y18.000 F1500
M5
M5 ; laser apagado
G0 X0 Y0 ; volver al origen
