; Suite de CORTE -- MDF Trupan 3.0mm -- lote L05
; Generado por laser_toolkit -- no editar a mano, regenerar desde el YAML de configuracion
G21 ; unidades en milimetros
G90 ; posicionamiento absoluto
M5 ; laser apagado por seguridad al iniciar
G0 X1.312 Y13.397 F3000
M4 S8500
G1 X8.201 Y13.397 F180
G1 X8.282 Y13.393 F180
G1 X8.360 Y13.381 F180
G1 X8.435 Y13.361 F180
G1 X8.508 Y13.335 F180
G1 X8.576 Y13.302 F180
G1 X8.641 Y13.262 F180
G1 X8.702 Y13.217 F180
G1 X8.758 Y13.166 F180
G1 X8.809 Y13.110 F180
G1 X8.854 Y13.050 F180
G1 X8.893 Y12.985 F180
G1 X8.927 Y12.916 F180
G1 X8.953 Y12.844 F180
G1 X8.973 Y12.768 F180
G1 X8.984 Y12.690 F180
G1 X8.989 Y12.610 F180
G1 X8.989 Y8.480 F180
G1 X0.525 Y8.480 F180
G1 X0.525 Y12.610 F180
G1 X0.529 Y12.690 F180
G1 X0.541 Y12.768 F180
G1 X0.560 Y12.844 F180
G1 X0.587 Y12.916 F180
G1 X0.620 Y12.985 F180
G1 X0.659 Y13.050 F180
G1 X0.704 Y13.110 F180
G1 X0.755 Y13.166 F180
G1 X0.811 Y13.217 F180
G1 X0.872 Y13.262 F180
G1 X0.937 Y13.302 F180
G1 X1.006 Y13.335 F180
G1 X1.078 Y13.361 F180
G1 X1.153 Y13.381 F180
G1 X1.231 Y13.393 F180
G1 X1.312 Y13.397 F180
G1 X1.312 Y13.397 F180
M5
G0 X14.475 Y10.708 F3000
M4 S8500
G1 X14.465 Y10.490 F180
G1 X14.432 Y10.273 F180
G1 X14.379 Y10.061 F180
G1 X14.304 Y9.855 F180
G1 X14.210 Y9.658 F180
G1 X14.097 Y9.470 F180
G1 X13.966 Y9.294 F180
G1 X13.818 Y9.132 F180
G1 X13.654 Y8.986 F180
G1 X13.477 Y8.855 F180
G1 X13.288 Y8.743 F180
G1 X13.089 Y8.649 F180
G1 X12.882 Y8.576 F180
G1 X12.668 Y8.523 F180
G1 X12.450 Y8.491 F180
G1 X12.230 Y8.480 F180
G1 X12.010 Y8.491 F180
G1 X11.792 Y8.523 F180
G1 X11.578 Y8.576 F180
G1 X11.370 Y8.649 F180
G1 X11.171 Y8.743 F180
G1 X10.982 Y8.855 F180
G1 X10.805 Y8.986 F180
G1 X10.642 Y9.132 F180
G1 X10.494 Y9.294 F180
G1 X10.362 Y9.470 F180
G1 X10.249 Y9.658 F180
G1 X10.155 Y9.855 F180
G1 X10.081 Y10.061 F180
G1 X10.027 Y10.273 F180
G1 X9.995 Y10.490 F180
G1 X9.984 Y10.708 F180
G1 X9.995 Y10.926 F180
G1 X10.027 Y11.143 F180
G1 X10.081 Y11.355 F180
G1 X10.155 Y11.561 F180
G1 X10.249 Y11.758 F180
G1 X10.362 Y11.946 F180
G1 X10.494 Y12.121 F180
G1 X10.642 Y12.283 F180
G1 X10.805 Y12.430 F180
G1 X10.982 Y12.561 F180
G1 X11.171 Y12.673 F180
G1 X11.370 Y12.766 F180
G1 X11.578 Y12.840 F180
G1 X11.792 Y12.893 F180
G1 X12.010 Y12.925 F180
G1 X12.230 Y12.936 F180
G1 X12.450 Y12.925 F180
G1 X12.668 Y12.893 F180
G1 X12.882 Y12.840 F180
G1 X13.089 Y12.766 F180
G1 X13.288 Y12.673 F180
G1 X13.477 Y12.561 F180
G1 X13.654 Y12.430 F180
G1 X13.818 Y12.283 F180
G1 X13.966 Y12.121 F180
G1 X14.097 Y11.946 F180
G1 X14.210 Y11.758 F180
G1 X14.304 Y11.561 F180
G1 X14.379 Y11.355 F180
G1 X14.432 Y11.143 F180
G1 X14.465 Y10.926 F180
G1 X14.475 Y10.708 F180
M5
G0 X7.784 Y1.695 F3000
M4 S8500
G1 X14.244 Y6.486 F180
G1 X14.316 Y6.549 F180
G1 X14.374 Y6.620 F180
G1 X14.418 Y6.695 F180
G1 X14.448 Y6.775 F180
G1 X14.464 Y6.857 F180
G1 X14.468 Y6.940 F180
G1 X14.459 Y7.022 F180
G1 X14.439 Y7.102 F180
G1 X14.408 Y7.179 F180
G1 X14.365 Y7.250 F180
G1 X14.313 Y7.314 F180
G1 X14.251 Y7.370 F180
G1 X14.179 Y7.416 F180
G1 X14.099 Y7.451 F180
G1 X14.011 Y7.473 F180
G1 X13.915 Y7.481 F180
G1 X1.096 Y7.481 F180
G1 X1.000 Y7.473 F180
G1 X0.912 Y7.451 F180
G1 X0.831 Y7.416 F180
G1 X0.760 Y7.370 F180
G1 X0.698 Y7.314 F180
G1 X0.645 Y7.250 F180
G1 X0.603 Y7.179 F180
G1 X0.572 Y7.102 F180
G1 X0.552 Y7.022 F180
G1 X0.543 Y6.940 F180
G1 X0.547 Y6.857 F180
G1 X0.563 Y6.775 F180
G1 X0.593 Y6.695 F180
G1 X0.637 Y6.620 F180
G1 X0.695 Y6.549 F180
G1 X0.767 Y6.486 F180
G1 X7.227 Y1.695 F180
G1 X7.259 Y1.673 F180
G1 X7.292 Y1.655 F180
G1 X7.326 Y1.639 F180
G1 X7.361 Y1.626 F180
G1 X7.396 Y1.616 F180
G1 X7.432 Y1.609 F180
G1 X7.469 Y1.604 F180
G1 X7.505 Y1.603 F180
G1 X7.542 Y1.604 F180
G1 X7.579 Y1.609 F180
G1 X7.615 Y1.616 F180
G1 X7.650 Y1.626 F180
G1 X7.685 Y1.639 F180
G1 X7.719 Y1.655 F180
G1 X7.752 Y1.673 F180
G1 X7.784 Y1.695 F180
G1 X7.784 Y1.695 F180
M5
G0 X0.000 Y20.000 F3000
M4 S2000
G1 X1.200 Y20.000 F1500
M5
G0 X0.000 Y20.000 F3000
M4 S2000
G1 X0.000 Y19.000 F1500
M5
G0 X0.000 Y19.000 F3000
M4 S2000
G1 X0.000 Y18.000 F1500
M5
G0 X0.000 Y18.000 F3000
M4 S2000
G1 X1.200 Y18.000 F1500
M5
G0 X1.600 Y19.000 F3000
M4 S2000
G1 X2.800 Y19.000 F1500
M5
G0 X3.200 Y20.000 F3000
M4 S2000
G1 X4.400 Y20.000 F1500
M5
G0 X4.400 Y20.000 F3000
M4 S2000
G1 X4.400 Y19.000 F1500
M5
G0 X4.400 Y19.000 F3000
M4 S2000
G1 X4.400 Y18.000 F1500
M5
G0 X3.200 Y18.000 F3000
M4 S2000
G1 X4.400 Y18.000 F1500
M5
G0 X3.200 Y19.000 F3000
M4 S2000
G1 X3.200 Y18.000 F1500
M5
G0 X3.200 Y20.000 F3000
M4 S2000
G1 X3.200 Y19.000 F1500
M5
G0 X4.800 Y20.000 F3000
M4 S2000
G1 X6.000 Y20.000 F1500
M5
G0 X6.000 Y20.000 F3000
M4 S2000
G1 X6.000 Y19.000 F1500
M5
G0 X6.000 Y19.000 F3000
M4 S2000
G1 X6.000 Y18.000 F1500
M5
G0 X4.800 Y18.000 F3000
M4 S2000
G1 X6.000 Y18.000 F1500
M5
G0 X4.800 Y19.000 F3000
M4 S2000
G1 X4.800 Y18.000 F1500
M5
G0 X4.800 Y20.000 F3000
M4 S2000
G1 X4.800 Y19.000 F1500
M5
G0 X7.600 Y20.000 F3000
M4 S2000
G1 X7.600 Y19.000 F1500
M5
G0 X7.600 Y19.000 F3000
M4 S2000
G1 X7.600 Y18.000 F1500
M5
G0 X19.812 Y13.397 F3000
M4 S8500
G1 X26.701 Y13.397 F210
G1 X26.782 Y13.393 F210
G1 X26.860 Y13.381 F210
G1 X26.935 Y13.361 F210
G1 X27.008 Y13.335 F210
G1 X27.076 Y13.302 F210
G1 X27.141 Y13.262 F210
G1 X27.202 Y13.217 F210
G1 X27.258 Y13.166 F210
G1 X27.309 Y13.110 F210
G1 X27.354 Y13.050 F210
G1 X27.393 Y12.985 F210
G1 X27.427 Y12.916 F210
G1 X27.453 Y12.844 F210
G1 X27.473 Y12.768 F210
G1 X27.484 Y12.690 F210
G1 X27.489 Y12.610 F210
G1 X27.489 Y8.480 F210
G1 X19.025 Y8.480 F210
G1 X19.025 Y12.610 F210
G1 X19.029 Y12.690 F210
G1 X19.041 Y12.768 F210
G1 X19.060 Y12.844 F210
G1 X19.087 Y12.916 F210
G1 X19.120 Y12.985 F210
G1 X19.159 Y13.050 F210
G1 X19.204 Y13.110 F210
G1 X19.255 Y13.166 F210
G1 X19.311 Y13.217 F210
G1 X19.372 Y13.262 F210
G1 X19.437 Y13.302 F210
G1 X19.506 Y13.335 F210
G1 X19.578 Y13.361 F210
G1 X19.653 Y13.381 F210
G1 X19.731 Y13.393 F210
G1 X19.812 Y13.397 F210
G1 X19.812 Y13.397 F210
M5
G0 X32.975 Y10.708 F3000
M4 S8500
G1 X32.965 Y10.490 F210
G1 X32.932 Y10.273 F210
G1 X32.879 Y10.061 F210
G1 X32.804 Y9.855 F210
G1 X32.710 Y9.658 F210
G1 X32.597 Y9.470 F210
G1 X32.466 Y9.294 F210
G1 X32.318 Y9.132 F210
G1 X32.154 Y8.986 F210
G1 X31.977 Y8.855 F210
G1 X31.788 Y8.743 F210
G1 X31.589 Y8.649 F210
G1 X31.382 Y8.576 F210
G1 X31.168 Y8.523 F210
G1 X30.950 Y8.491 F210
G1 X30.730 Y8.480 F210
G1 X30.510 Y8.491 F210
G1 X30.292 Y8.523 F210
G1 X30.078 Y8.576 F210
G1 X29.870 Y8.649 F210
G1 X29.671 Y8.743 F210
G1 X29.482 Y8.855 F210
G1 X29.305 Y8.986 F210
G1 X29.142 Y9.132 F210
G1 X28.994 Y9.294 F210
G1 X28.862 Y9.470 F210
G1 X28.749 Y9.658 F210
G1 X28.655 Y9.855 F210
G1 X28.581 Y10.061 F210
G1 X28.527 Y10.273 F210
G1 X28.495 Y10.490 F210
G1 X28.484 Y10.708 F210
G1 X28.495 Y10.926 F210
G1 X28.527 Y11.143 F210
G1 X28.581 Y11.355 F210
G1 X28.655 Y11.561 F210
G1 X28.749 Y11.758 F210
G1 X28.862 Y11.946 F210
G1 X28.994 Y12.121 F210
G1 X29.142 Y12.283 F210
G1 X29.305 Y12.430 F210
G1 X29.482 Y12.561 F210
G1 X29.671 Y12.673 F210
G1 X29.870 Y12.766 F210
G1 X30.078 Y12.840 F210
G1 X30.292 Y12.893 F210
G1 X30.510 Y12.925 F210
G1 X30.730 Y12.936 F210
G1 X30.950 Y12.925 F210
G1 X31.168 Y12.893 F210
G1 X31.382 Y12.840 F210
G1 X31.589 Y12.766 F210
G1 X31.788 Y12.673 F210
G1 X31.977 Y12.561 F210
G1 X32.154 Y12.430 F210
G1 X32.318 Y12.283 F210
G1 X32.466 Y12.121 F210
G1 X32.597 Y11.946 F210
G1 X32.710 Y11.758 F210
G1 X32.804 Y11.561 F210
G1 X32.879 Y11.355 F210
G1 X32.932 Y11.143 F210
G1 X32.965 Y10.926 F210
G1 X32.975 Y10.708 F210
M5
G0 X26.284 Y1.695 F3000
M4 S8500
G1 X32.744 Y6.486 F210
G1 X32.816 Y6.549 F210
G1 X32.874 Y6.620 F210
G1 X32.918 Y6.695 F210
G1 X32.948 Y6.775 F210
G1 X32.964 Y6.857 F210
G1 X32.968 Y6.940 F210
G1 X32.959 Y7.022 F210
G1 X32.939 Y7.102 F210
G1 X32.908 Y7.179 F210
G1 X32.865 Y7.250 F210
G1 X32.813 Y7.314 F210
G1 X32.751 Y7.370 F210
G1 X32.679 Y7.416 F210
G1 X32.599 Y7.451 F210
G1 X32.511 Y7.473 F210
G1 X32.415 Y7.481 F210
G1 X19.596 Y7.481 F210
G1 X19.500 Y7.473 F210
G1 X19.412 Y7.451 F210
G1 X19.331 Y7.416 F210
G1 X19.260 Y7.370 F210
G1 X19.198 Y7.314 F210
G1 X19.145 Y7.250 F210
G1 X19.103 Y7.179 F210
G1 X19.072 Y7.102 F210
G1 X19.052 Y7.022 F210
G1 X19.043 Y6.940 F210
G1 X19.047 Y6.857 F210
G1 X19.063 Y6.775 F210
G1 X19.093 Y6.695 F210
G1 X19.137 Y6.620 F210
G1 X19.195 Y6.549 F210
G1 X19.267 Y6.486 F210
G1 X25.727 Y1.695 F210
G1 X25.759 Y1.673 F210
G1 X25.792 Y1.655 F210
G1 X25.826 Y1.639 F210
G1 X25.861 Y1.626 F210
G1 X25.896 Y1.616 F210
G1 X25.932 Y1.609 F210
G1 X25.969 Y1.604 F210
G1 X26.005 Y1.603 F210
G1 X26.042 Y1.604 F210
G1 X26.079 Y1.609 F210
G1 X26.115 Y1.616 F210
G1 X26.150 Y1.626 F210
G1 X26.185 Y1.639 F210
G1 X26.219 Y1.655 F210
G1 X26.252 Y1.673 F210
G1 X26.284 Y1.695 F210
G1 X26.284 Y1.695 F210
M5
G0 X18.500 Y20.000 F3000
M4 S2000
G1 X19.700 Y20.000 F1500
M5
G0 X18.500 Y20.000 F3000
M4 S2000
G1 X18.500 Y19.000 F1500
M5
G0 X18.500 Y19.000 F3000
M4 S2000
G1 X18.500 Y18.000 F1500
M5
G0 X18.500 Y18.000 F3000
M4 S2000
G1 X19.700 Y18.000 F1500
M5
G0 X20.100 Y19.000 F3000
M4 S2000
G1 X21.300 Y19.000 F1500
M5
G0 X21.700 Y20.000 F3000
M4 S2000
G1 X22.900 Y20.000 F1500
M5
G0 X22.900 Y20.000 F3000
M4 S2000
G1 X22.900 Y19.000 F1500
M5
G0 X22.900 Y19.000 F3000
M4 S2000
G1 X22.900 Y18.000 F1500
M5
G0 X21.700 Y18.000 F3000
M4 S2000
G1 X22.900 Y18.000 F1500
M5
G0 X21.700 Y19.000 F3000
M4 S2000
G1 X21.700 Y18.000 F1500
M5
G0 X21.700 Y20.000 F3000
M4 S2000
G1 X21.700 Y19.000 F1500
M5
G0 X23.300 Y20.000 F3000
M4 S2000
G1 X24.500 Y20.000 F1500
M5
G0 X24.500 Y20.000 F3000
M4 S2000
G1 X24.500 Y19.000 F1500
M5
G0 X24.500 Y19.000 F3000
M4 S2000
G1 X24.500 Y18.000 F1500
M5
G0 X23.300 Y18.000 F3000
M4 S2000
G1 X24.500 Y18.000 F1500
M5
G0 X23.300 Y19.000 F3000
M4 S2000
G1 X23.300 Y18.000 F1500
M5
G0 X23.300 Y20.000 F3000
M4 S2000
G1 X23.300 Y19.000 F1500
M5
G0 X24.900 Y20.000 F3000
M4 S2000
G1 X26.100 Y20.000 F1500
M5
G0 X26.100 Y20.000 F3000
M4 S2000
G1 X26.100 Y19.000 F1500
M5
G0 X24.900 Y19.000 F3000
M4 S2000
G1 X26.100 Y19.000 F1500
M5
G0 X24.900 Y19.000 F3000
M4 S2000
G1 X24.900 Y18.000 F1500
M5
G0 X24.900 Y18.000 F3000
M4 S2000
G1 X26.100 Y18.000 F1500
M5
G0 X38.312 Y13.397 F3000
M4 S8500
G1 X45.201 Y13.397 F240
G1 X45.282 Y13.393 F240
G1 X45.360 Y13.381 F240
G1 X45.435 Y13.361 F240
G1 X45.508 Y13.335 F240
G1 X45.576 Y13.302 F240
G1 X45.641 Y13.262 F240
G1 X45.702 Y13.217 F240
G1 X45.758 Y13.166 F240
G1 X45.809 Y13.110 F240
G1 X45.854 Y13.050 F240
G1 X45.893 Y12.985 F240
G1 X45.927 Y12.916 F240
G1 X45.953 Y12.844 F240
G1 X45.973 Y12.768 F240
G1 X45.984 Y12.690 F240
G1 X45.989 Y12.610 F240
G1 X45.989 Y8.480 F240
G1 X37.525 Y8.480 F240
G1 X37.525 Y12.610 F240
G1 X37.529 Y12.690 F240
G1 X37.541 Y12.768 F240
G1 X37.560 Y12.844 F240
G1 X37.587 Y12.916 F240
G1 X37.620 Y12.985 F240
G1 X37.659 Y13.050 F240
G1 X37.704 Y13.110 F240
G1 X37.755 Y13.166 F240
G1 X37.811 Y13.217 F240
G1 X37.872 Y13.262 F240
G1 X37.937 Y13.302 F240
G1 X38.006 Y13.335 F240
G1 X38.078 Y13.361 F240
G1 X38.153 Y13.381 F240
G1 X38.231 Y13.393 F240
G1 X38.312 Y13.397 F240
G1 X38.312 Y13.397 F240
M5
G0 X51.475 Y10.708 F3000
M4 S8500
G1 X51.465 Y10.490 F240
G1 X51.432 Y10.273 F240
G1 X51.379 Y10.061 F240
G1 X51.304 Y9.855 F240
G1 X51.210 Y9.658 F240
G1 X51.097 Y9.470 F240
G1 X50.966 Y9.294 F240
G1 X50.818 Y9.132 F240
G1 X50.654 Y8.986 F240
G1 X50.477 Y8.855 F240
G1 X50.288 Y8.743 F240
G1 X50.089 Y8.649 F240
G1 X49.882 Y8.576 F240
G1 X49.668 Y8.523 F240
G1 X49.450 Y8.491 F240
G1 X49.230 Y8.480 F240
G1 X49.010 Y8.491 F240
G1 X48.792 Y8.523 F240
G1 X48.578 Y8.576 F240
G1 X48.370 Y8.649 F240
G1 X48.171 Y8.743 F240
G1 X47.982 Y8.855 F240
G1 X47.805 Y8.986 F240
G1 X47.642 Y9.132 F240
G1 X47.494 Y9.294 F240
G1 X47.362 Y9.470 F240
G1 X47.249 Y9.658 F240
G1 X47.155 Y9.855 F240
G1 X47.081 Y10.061 F240
G1 X47.027 Y10.273 F240
G1 X46.995 Y10.490 F240
G1 X46.984 Y10.708 F240
G1 X46.995 Y10.926 F240
G1 X47.027 Y11.143 F240
G1 X47.081 Y11.355 F240
G1 X47.155 Y11.561 F240
G1 X47.249 Y11.758 F240
G1 X47.362 Y11.946 F240
G1 X47.494 Y12.121 F240
G1 X47.642 Y12.283 F240
G1 X47.805 Y12.430 F240
G1 X47.982 Y12.561 F240
G1 X48.171 Y12.673 F240
G1 X48.370 Y12.766 F240
G1 X48.578 Y12.840 F240
G1 X48.792 Y12.893 F240
G1 X49.010 Y12.925 F240
G1 X49.230 Y12.936 F240
G1 X49.450 Y12.925 F240
G1 X49.668 Y12.893 F240
G1 X49.882 Y12.840 F240
G1 X50.089 Y12.766 F240
G1 X50.288 Y12.673 F240
G1 X50.477 Y12.561 F240
G1 X50.654 Y12.430 F240
G1 X50.818 Y12.283 F240
G1 X50.966 Y12.121 F240
G1 X51.097 Y11.946 F240
G1 X51.210 Y11.758 F240
G1 X51.304 Y11.561 F240
G1 X51.379 Y11.355 F240
G1 X51.432 Y11.143 F240
G1 X51.465 Y10.926 F240
G1 X51.475 Y10.708 F240
M5
G0 X44.784 Y1.695 F3000
M4 S8500
G1 X51.244 Y6.486 F240
G1 X51.316 Y6.549 F240
G1 X51.374 Y6.620 F240
G1 X51.418 Y6.695 F240
G1 X51.448 Y6.775 F240
G1 X51.464 Y6.857 F240
G1 X51.468 Y6.940 F240
G1 X51.459 Y7.022 F240
G1 X51.439 Y7.102 F240
G1 X51.408 Y7.179 F240
G1 X51.365 Y7.250 F240
G1 X51.313 Y7.314 F240
G1 X51.251 Y7.370 F240
G1 X51.179 Y7.416 F240
G1 X51.099 Y7.451 F240
G1 X51.011 Y7.473 F240
G1 X50.915 Y7.481 F240
G1 X38.096 Y7.481 F240
G1 X38.000 Y7.473 F240
G1 X37.912 Y7.451 F240
G1 X37.831 Y7.416 F240
G1 X37.760 Y7.370 F240
G1 X37.698 Y7.314 F240
G1 X37.645 Y7.250 F240
G1 X37.603 Y7.179 F240
G1 X37.572 Y7.102 F240
G1 X37.552 Y7.022 F240
G1 X37.543 Y6.940 F240
G1 X37.547 Y6.857 F240
G1 X37.563 Y6.775 F240
G1 X37.593 Y6.695 F240
G1 X37.637 Y6.620 F240
G1 X37.695 Y6.549 F240
G1 X37.767 Y6.486 F240
G1 X44.227 Y1.695 F240
G1 X44.259 Y1.673 F240
G1 X44.292 Y1.655 F240
G1 X44.326 Y1.639 F240
G1 X44.361 Y1.626 F240
G1 X44.396 Y1.616 F240
G1 X44.432 Y1.609 F240
G1 X44.469 Y1.604 F240
G1 X44.505 Y1.603 F240
G1 X44.542 Y1.604 F240
G1 X44.579 Y1.609 F240
G1 X44.615 Y1.616 F240
G1 X44.650 Y1.626 F240
G1 X44.685 Y1.639 F240
G1 X44.719 Y1.655 F240
G1 X44.752 Y1.673 F240
G1 X44.784 Y1.695 F240
G1 X44.784 Y1.695 F240
M5
G0 X37.000 Y20.000 F3000
M4 S2000
G1 X38.200 Y20.000 F1500
M5
G0 X37.000 Y20.000 F3000
M4 S2000
G1 X37.000 Y19.000 F1500
M5
G0 X37.000 Y19.000 F3000
M4 S2000
G1 X37.000 Y18.000 F1500
M5
G0 X37.000 Y18.000 F3000
M4 S2000
G1 X38.200 Y18.000 F1500
M5
G0 X38.600 Y19.000 F3000
M4 S2000
G1 X39.800 Y19.000 F1500
M5
G0 X40.200 Y20.000 F3000
M4 S2000
G1 X41.400 Y20.000 F1500
M5
G0 X41.400 Y20.000 F3000
M4 S2000
G1 X41.400 Y19.000 F1500
M5
G0 X41.400 Y19.000 F3000
M4 S2000
G1 X41.400 Y18.000 F1500
M5
G0 X40.200 Y18.000 F3000
M4 S2000
G1 X41.400 Y18.000 F1500
M5
G0 X40.200 Y19.000 F3000
M4 S2000
G1 X40.200 Y18.000 F1500
M5
G0 X40.200 Y20.000 F3000
M4 S2000
G1 X40.200 Y19.000 F1500
M5
G0 X41.800 Y20.000 F3000
M4 S2000
G1 X43.000 Y20.000 F1500
M5
G0 X43.000 Y20.000 F3000
M4 S2000
G1 X43.000 Y19.000 F1500
M5
G0 X43.000 Y19.000 F3000
M4 S2000
G1 X43.000 Y18.000 F1500
M5
G0 X41.800 Y18.000 F3000
M4 S2000
G1 X43.000 Y18.000 F1500
M5
G0 X41.800 Y19.000 F3000
M4 S2000
G1 X41.800 Y18.000 F1500
M5
G0 X41.800 Y20.000 F3000
M4 S2000
G1 X41.800 Y19.000 F1500
M5
G0 X43.400 Y20.000 F3000
M4 S2000
G1 X44.600 Y20.000 F1500
M5
G0 X44.600 Y20.000 F3000
M4 S2000
G1 X44.600 Y19.000 F1500
M5
G0 X43.400 Y19.000 F3000
M4 S2000
G1 X44.600 Y19.000 F1500
M5
G0 X44.600 Y19.000 F3000
M4 S2000
G1 X44.600 Y18.000 F1500
M5
G0 X43.400 Y18.000 F3000
M4 S2000
G1 X44.600 Y18.000 F1500
M5
G0 X38.312 Y31.897 F3000
M4 S10000
G1 X45.201 Y31.897 F240
G1 X45.282 Y31.893 F240
G1 X45.360 Y31.881 F240
G1 X45.435 Y31.861 F240
G1 X45.508 Y31.835 F240
G1 X45.576 Y31.802 F240
G1 X45.641 Y31.762 F240
G1 X45.702 Y31.717 F240
G1 X45.758 Y31.666 F240
G1 X45.809 Y31.610 F240
G1 X45.854 Y31.550 F240
G1 X45.893 Y31.485 F240
G1 X45.927 Y31.416 F240
G1 X45.953 Y31.344 F240
G1 X45.973 Y31.268 F240
G1 X45.984 Y31.190 F240
G1 X45.989 Y31.110 F240
G1 X45.989 Y26.980 F240
G1 X37.525 Y26.980 F240
G1 X37.525 Y31.110 F240
G1 X37.529 Y31.190 F240
G1 X37.541 Y31.268 F240
G1 X37.560 Y31.344 F240
G1 X37.587 Y31.416 F240
G1 X37.620 Y31.485 F240
G1 X37.659 Y31.550 F240
G1 X37.704 Y31.610 F240
G1 X37.755 Y31.666 F240
G1 X37.811 Y31.717 F240
G1 X37.872 Y31.762 F240
G1 X37.937 Y31.802 F240
G1 X38.006 Y31.835 F240
G1 X38.078 Y31.861 F240
G1 X38.153 Y31.881 F240
G1 X38.231 Y31.893 F240
G1 X38.312 Y31.897 F240
G1 X38.312 Y31.897 F240
M5
G0 X51.475 Y29.208 F3000
M4 S10000
G1 X51.465 Y28.990 F240
G1 X51.432 Y28.773 F240
G1 X51.379 Y28.561 F240
G1 X51.304 Y28.355 F240
G1 X51.210 Y28.158 F240
G1 X51.097 Y27.970 F240
G1 X50.966 Y27.794 F240
G1 X50.818 Y27.632 F240
G1 X50.654 Y27.486 F240
G1 X50.477 Y27.355 F240
G1 X50.288 Y27.243 F240
G1 X50.089 Y27.149 F240
G1 X49.882 Y27.076 F240
G1 X49.668 Y27.023 F240
G1 X49.450 Y26.991 F240
G1 X49.230 Y26.980 F240
G1 X49.010 Y26.991 F240
G1 X48.792 Y27.023 F240
G1 X48.578 Y27.076 F240
G1 X48.370 Y27.149 F240
G1 X48.171 Y27.243 F240
G1 X47.982 Y27.355 F240
G1 X47.805 Y27.486 F240
G1 X47.642 Y27.632 F240
G1 X47.494 Y27.794 F240
G1 X47.362 Y27.970 F240
G1 X47.249 Y28.158 F240
G1 X47.155 Y28.355 F240
G1 X47.081 Y28.561 F240
G1 X47.027 Y28.773 F240
G1 X46.995 Y28.990 F240
G1 X46.984 Y29.208 F240
G1 X46.995 Y29.426 F240
G1 X47.027 Y29.643 F240
G1 X47.081 Y29.855 F240
G1 X47.155 Y30.061 F240
G1 X47.249 Y30.258 F240
G1 X47.362 Y30.446 F240
G1 X47.494 Y30.621 F240
G1 X47.642 Y30.783 F240
G1 X47.805 Y30.930 F240
G1 X47.982 Y31.061 F240
G1 X48.171 Y31.173 F240
G1 X48.370 Y31.266 F240
G1 X48.578 Y31.340 F240
G1 X48.792 Y31.393 F240
G1 X49.010 Y31.425 F240
G1 X49.230 Y31.436 F240
G1 X49.450 Y31.425 F240
G1 X49.668 Y31.393 F240
G1 X49.882 Y31.340 F240
G1 X50.089 Y31.266 F240
G1 X50.288 Y31.173 F240
G1 X50.477 Y31.061 F240
G1 X50.654 Y30.930 F240
G1 X50.818 Y30.783 F240
G1 X50.966 Y30.621 F240
G1 X51.097 Y30.446 F240
G1 X51.210 Y30.258 F240
G1 X51.304 Y30.061 F240
G1 X51.379 Y29.855 F240
G1 X51.432 Y29.643 F240
G1 X51.465 Y29.426 F240
G1 X51.475 Y29.208 F240
M5
G0 X44.784 Y20.195 F3000
M4 S10000
G1 X51.244 Y24.986 F240
G1 X51.316 Y25.049 F240
G1 X51.374 Y25.120 F240
G1 X51.418 Y25.195 F240
G1 X51.448 Y25.275 F240
G1 X51.464 Y25.357 F240
G1 X51.468 Y25.440 F240
G1 X51.459 Y25.522 F240
G1 X51.439 Y25.602 F240
G1 X51.408 Y25.679 F240
G1 X51.365 Y25.750 F240
G1 X51.313 Y25.814 F240
G1 X51.251 Y25.870 F240
G1 X51.179 Y25.916 F240
G1 X51.099 Y25.951 F240
G1 X51.011 Y25.973 F240
G1 X50.915 Y25.981 F240
G1 X38.096 Y25.981 F240
G1 X38.000 Y25.973 F240
G1 X37.912 Y25.951 F240
G1 X37.831 Y25.916 F240
G1 X37.760 Y25.870 F240
G1 X37.698 Y25.814 F240
G1 X37.645 Y25.750 F240
G1 X37.603 Y25.679 F240
G1 X37.572 Y25.602 F240
G1 X37.552 Y25.522 F240
G1 X37.543 Y25.440 F240
G1 X37.547 Y25.357 F240
G1 X37.563 Y25.275 F240
G1 X37.593 Y25.195 F240
G1 X37.637 Y25.120 F240
G1 X37.695 Y25.049 F240
G1 X37.767 Y24.986 F240
G1 X44.227 Y20.195 F240
G1 X44.259 Y20.173 F240
G1 X44.292 Y20.155 F240
G1 X44.326 Y20.139 F240
G1 X44.361 Y20.126 F240
G1 X44.396 Y20.116 F240
G1 X44.432 Y20.109 F240
G1 X44.469 Y20.104 F240
G1 X44.505 Y20.103 F240
G1 X44.542 Y20.104 F240
G1 X44.579 Y20.109 F240
G1 X44.615 Y20.116 F240
G1 X44.650 Y20.126 F240
G1 X44.685 Y20.139 F240
G1 X44.719 Y20.155 F240
G1 X44.752 Y20.173 F240
G1 X44.784 Y20.195 F240
G1 X44.784 Y20.195 F240
M5
G0 X37.000 Y38.500 F3000
M4 S2000
G1 X38.200 Y38.500 F1500
M5
G0 X37.000 Y38.500 F3000
M4 S2000
G1 X37.000 Y37.500 F1500
M5
G0 X37.000 Y37.500 F3000
M4 S2000
G1 X37.000 Y36.500 F1500
M5
G0 X37.000 Y36.500 F3000
M4 S2000
G1 X38.200 Y36.500 F1500
M5
G0 X38.600 Y37.500 F3000
M4 S2000
G1 X39.800 Y37.500 F1500
M5
G0 X40.200 Y38.500 F3000
M4 S2000
G1 X41.400 Y38.500 F1500
M5
G0 X41.400 Y38.500 F3000
M4 S2000
G1 X41.400 Y37.500 F1500
M5
G0 X41.400 Y37.500 F3000
M4 S2000
G1 X41.400 Y36.500 F1500
M5
G0 X40.200 Y36.500 F3000
M4 S2000
G1 X41.400 Y36.500 F1500
M5
G0 X40.200 Y37.500 F3000
M4 S2000
G1 X40.200 Y36.500 F1500
M5
G0 X40.200 Y38.500 F3000
M4 S2000
G1 X40.200 Y37.500 F1500
M5
G0 X41.800 Y38.500 F3000
M4 S2000
G1 X43.000 Y38.500 F1500
M5
G0 X43.000 Y38.500 F3000
M4 S2000
G1 X43.000 Y37.500 F1500
M5
G0 X43.000 Y37.500 F3000
M4 S2000
G1 X43.000 Y36.500 F1500
M5
G0 X41.800 Y36.500 F3000
M4 S2000
G1 X43.000 Y36.500 F1500
M5
G0 X41.800 Y37.500 F3000
M4 S2000
G1 X41.800 Y36.500 F1500
M5
G0 X41.800 Y38.500 F3000
M4 S2000
G1 X41.800 Y37.500 F1500
M5
G0 X43.400 Y38.500 F3000
M4 S2000
G1 X43.400 Y37.500 F1500
M5
G0 X43.400 Y37.500 F3000
M4 S2000
G1 X44.600 Y37.500 F1500
M5
G0 X44.600 Y38.500 F3000
M4 S2000
G1 X44.600 Y37.500 F1500
M5
G0 X44.600 Y37.500 F3000
M4 S2000
G1 X44.600 Y36.500 F1500
M5
G0 X19.812 Y31.897 F3000
M4 S10000
G1 X26.701 Y31.897 F210
G1 X26.782 Y31.893 F210
G1 X26.860 Y31.881 F210
G1 X26.935 Y31.861 F210
G1 X27.008 Y31.835 F210
G1 X27.076 Y31.802 F210
G1 X27.141 Y31.762 F210
G1 X27.202 Y31.717 F210
G1 X27.258 Y31.666 F210
G1 X27.309 Y31.610 F210
G1 X27.354 Y31.550 F210
G1 X27.393 Y31.485 F210
G1 X27.427 Y31.416 F210
G1 X27.453 Y31.344 F210
G1 X27.473 Y31.268 F210
G1 X27.484 Y31.190 F210
G1 X27.489 Y31.110 F210
G1 X27.489 Y26.980 F210
G1 X19.025 Y26.980 F210
G1 X19.025 Y31.110 F210
G1 X19.029 Y31.190 F210
G1 X19.041 Y31.268 F210
G1 X19.060 Y31.344 F210
G1 X19.087 Y31.416 F210
G1 X19.120 Y31.485 F210
G1 X19.159 Y31.550 F210
G1 X19.204 Y31.610 F210
G1 X19.255 Y31.666 F210
G1 X19.311 Y31.717 F210
G1 X19.372 Y31.762 F210
G1 X19.437 Y31.802 F210
G1 X19.506 Y31.835 F210
G1 X19.578 Y31.861 F210
G1 X19.653 Y31.881 F210
G1 X19.731 Y31.893 F210
G1 X19.812 Y31.897 F210
G1 X19.812 Y31.897 F210
M5
G0 X32.975 Y29.208 F3000
M4 S10000
G1 X32.965 Y28.990 F210
G1 X32.932 Y28.773 F210
G1 X32.879 Y28.561 F210
G1 X32.804 Y28.355 F210
G1 X32.710 Y28.158 F210
G1 X32.597 Y27.970 F210
G1 X32.466 Y27.794 F210
G1 X32.318 Y27.632 F210
G1 X32.154 Y27.486 F210
G1 X31.977 Y27.355 F210
G1 X31.788 Y27.243 F210
G1 X31.589 Y27.149 F210
G1 X31.382 Y27.076 F210
G1 X31.168 Y27.023 F210
G1 X30.950 Y26.991 F210
G1 X30.730 Y26.980 F210
G1 X30.510 Y26.991 F210
G1 X30.292 Y27.023 F210
G1 X30.078 Y27.076 F210
G1 X29.870 Y27.149 F210
G1 X29.671 Y27.243 F210
G1 X29.482 Y27.355 F210
G1 X29.305 Y27.486 F210
G1 X29.142 Y27.632 F210
G1 X28.994 Y27.794 F210
G1 X28.862 Y27.970 F210
G1 X28.749 Y28.158 F210
G1 X28.655 Y28.355 F210
G1 X28.581 Y28.561 F210
G1 X28.527 Y28.773 F210
G1 X28.495 Y28.990 F210
G1 X28.484 Y29.208 F210
G1 X28.495 Y29.426 F210
G1 X28.527 Y29.643 F210
G1 X28.581 Y29.855 F210
G1 X28.655 Y30.061 F210
G1 X28.749 Y30.258 F210
G1 X28.862 Y30.446 F210
G1 X28.994 Y30.621 F210
G1 X29.142 Y30.783 F210
G1 X29.305 Y30.930 F210
G1 X29.482 Y31.061 F210
G1 X29.671 Y31.173 F210
G1 X29.870 Y31.266 F210
G1 X30.078 Y31.340 F210
G1 X30.292 Y31.393 F210
G1 X30.510 Y31.425 F210
G1 X30.730 Y31.436 F210
G1 X30.950 Y31.425 F210
G1 X31.168 Y31.393 F210
G1 X31.382 Y31.340 F210
G1 X31.589 Y31.266 F210
G1 X31.788 Y31.173 F210
G1 X31.977 Y31.061 F210
G1 X32.154 Y30.930 F210
G1 X32.318 Y30.783 F210
G1 X32.466 Y30.621 F210
G1 X32.597 Y30.446 F210
G1 X32.710 Y30.258 F210
G1 X32.804 Y30.061 F210
G1 X32.879 Y29.855 F210
G1 X32.932 Y29.643 F210
G1 X32.965 Y29.426 F210
G1 X32.975 Y29.208 F210
M5
G0 X26.284 Y20.195 F3000
M4 S10000
G1 X32.744 Y24.986 F210
G1 X32.816 Y25.049 F210
G1 X32.874 Y25.120 F210
G1 X32.918 Y25.195 F210
G1 X32.948 Y25.275 F210
G1 X32.964 Y25.357 F210
G1 X32.968 Y25.440 F210
G1 X32.959 Y25.522 F210
G1 X32.939 Y25.602 F210
G1 X32.908 Y25.679 F210
G1 X32.865 Y25.750 F210
G1 X32.813 Y25.814 F210
G1 X32.751 Y25.870 F210
G1 X32.679 Y25.916 F210
G1 X32.599 Y25.951 F210
G1 X32.511 Y25.973 F210
G1 X32.415 Y25.981 F210
G1 X19.596 Y25.981 F210
G1 X19.500 Y25.973 F210
G1 X19.412 Y25.951 F210
G1 X19.331 Y25.916 F210
G1 X19.260 Y25.870 F210
G1 X19.198 Y25.814 F210
G1 X19.145 Y25.750 F210
G1 X19.103 Y25.679 F210
G1 X19.072 Y25.602 F210
G1 X19.052 Y25.522 F210
G1 X19.043 Y25.440 F210
G1 X19.047 Y25.357 F210
G1 X19.063 Y25.275 F210
G1 X19.093 Y25.195 F210
G1 X19.137 Y25.120 F210
G1 X19.195 Y25.049 F210
G1 X19.267 Y24.986 F210
G1 X25.727 Y20.195 F210
G1 X25.759 Y20.173 F210
G1 X25.792 Y20.155 F210
G1 X25.826 Y20.139 F210
G1 X25.861 Y20.126 F210
G1 X25.896 Y20.116 F210
G1 X25.932 Y20.109 F210
G1 X25.969 Y20.104 F210
G1 X26.005 Y20.103 F210
G1 X26.042 Y20.104 F210
G1 X26.079 Y20.109 F210
G1 X26.115 Y20.116 F210
G1 X26.150 Y20.126 F210
G1 X26.185 Y20.139 F210
G1 X26.219 Y20.155 F210
G1 X26.252 Y20.173 F210
G1 X26.284 Y20.195 F210
G1 X26.284 Y20.195 F210
M5
G0 X18.500 Y38.500 F3000
M4 S2000
G1 X19.700 Y38.500 F1500
M5
G0 X18.500 Y38.500 F3000
M4 S2000
G1 X18.500 Y37.500 F1500
M5
G0 X18.500 Y37.500 F3000
M4 S2000
G1 X18.500 Y36.500 F1500
M5
G0 X18.500 Y36.500 F3000
M4 S2000
G1 X19.700 Y36.500 F1500
M5
G0 X20.100 Y37.500 F3000
M4 S2000
G1 X21.300 Y37.500 F1500
M5
G0 X21.700 Y38.500 F3000
M4 S2000
G1 X22.900 Y38.500 F1500
M5
G0 X22.900 Y38.500 F3000
M4 S2000
G1 X22.900 Y37.500 F1500
M5
G0 X22.900 Y37.500 F3000
M4 S2000
G1 X22.900 Y36.500 F1500
M5
G0 X21.700 Y36.500 F3000
M4 S2000
G1 X22.900 Y36.500 F1500
M5
G0 X21.700 Y37.500 F3000
M4 S2000
G1 X21.700 Y36.500 F1500
M5
G0 X21.700 Y38.500 F3000
M4 S2000
G1 X21.700 Y37.500 F1500
M5
G0 X23.300 Y38.500 F3000
M4 S2000
G1 X24.500 Y38.500 F1500
M5
G0 X24.500 Y38.500 F3000
M4 S2000
G1 X24.500 Y37.500 F1500
M5
G0 X24.500 Y37.500 F3000
M4 S2000
G1 X24.500 Y36.500 F1500
M5
G0 X23.300 Y36.500 F3000
M4 S2000
G1 X24.500 Y36.500 F1500
M5
G0 X23.300 Y37.500 F3000
M4 S2000
G1 X23.300 Y36.500 F1500
M5
G0 X23.300 Y38.500 F3000
M4 S2000
G1 X23.300 Y37.500 F1500
M5
G0 X24.900 Y38.500 F3000
M4 S2000
G1 X26.100 Y38.500 F1500
M5
G0 X24.900 Y38.500 F3000
M4 S2000
G1 X24.900 Y37.500 F1500
M5
G0 X24.900 Y37.500 F3000
M4 S2000
G1 X26.100 Y37.500 F1500
M5
G0 X26.100 Y37.500 F3000
M4 S2000
G1 X26.100 Y36.500 F1500
M5
G0 X24.900 Y36.500 F3000
M4 S2000
G1 X26.100 Y36.500 F1500
M5
G0 X1.312 Y31.897 F3000
M4 S10000
G1 X8.201 Y31.897 F180
G1 X8.282 Y31.893 F180
G1 X8.360 Y31.881 F180
G1 X8.435 Y31.861 F180
G1 X8.508 Y31.835 F180
G1 X8.576 Y31.802 F180
G1 X8.641 Y31.762 F180
G1 X8.702 Y31.717 F180
G1 X8.758 Y31.666 F180
G1 X8.809 Y31.610 F180
G1 X8.854 Y31.550 F180
G1 X8.893 Y31.485 F180
G1 X8.927 Y31.416 F180
G1 X8.953 Y31.344 F180
G1 X8.973 Y31.268 F180
G1 X8.984 Y31.190 F180
G1 X8.989 Y31.110 F180
G1 X8.989 Y26.980 F180
G1 X0.525 Y26.980 F180
G1 X0.525 Y31.110 F180
G1 X0.529 Y31.190 F180
G1 X0.541 Y31.268 F180
G1 X0.560 Y31.344 F180
G1 X0.587 Y31.416 F180
G1 X0.620 Y31.485 F180
G1 X0.659 Y31.550 F180
G1 X0.704 Y31.610 F180
G1 X0.755 Y31.666 F180
G1 X0.811 Y31.717 F180
G1 X0.872 Y31.762 F180
G1 X0.937 Y31.802 F180
G1 X1.006 Y31.835 F180
G1 X1.078 Y31.861 F180
G1 X1.153 Y31.881 F180
G1 X1.231 Y31.893 F180
G1 X1.312 Y31.897 F180
G1 X1.312 Y31.897 F180
M5
G0 X14.475 Y29.208 F3000
M4 S10000
G1 X14.465 Y28.990 F180
G1 X14.432 Y28.773 F180
G1 X14.379 Y28.561 F180
G1 X14.304 Y28.355 F180
G1 X14.210 Y28.158 F180
G1 X14.097 Y27.970 F180
G1 X13.966 Y27.794 F180
G1 X13.818 Y27.632 F180
G1 X13.654 Y27.486 F180
G1 X13.477 Y27.355 F180
G1 X13.288 Y27.243 F180
G1 X13.089 Y27.149 F180
G1 X12.882 Y27.076 F180
G1 X12.668 Y27.023 F180
G1 X12.450 Y26.991 F180
G1 X12.230 Y26.980 F180
G1 X12.010 Y26.991 F180
G1 X11.792 Y27.023 F180
G1 X11.578 Y27.076 F180
G1 X11.370 Y27.149 F180
G1 X11.171 Y27.243 F180
G1 X10.982 Y27.355 F180
G1 X10.805 Y27.486 F180
G1 X10.642 Y27.632 F180
G1 X10.494 Y27.794 F180
G1 X10.362 Y27.970 F180
G1 X10.249 Y28.158 F180
G1 X10.155 Y28.355 F180
G1 X10.081 Y28.561 F180
G1 X10.027 Y28.773 F180
G1 X9.995 Y28.990 F180
G1 X9.984 Y29.208 F180
G1 X9.995 Y29.426 F180
G1 X10.027 Y29.643 F180
G1 X10.081 Y29.855 F180
G1 X10.155 Y30.061 F180
G1 X10.249 Y30.258 F180
G1 X10.362 Y30.446 F180
G1 X10.494 Y30.621 F180
G1 X10.642 Y30.783 F180
G1 X10.805 Y30.930 F180
G1 X10.982 Y31.061 F180
G1 X11.171 Y31.173 F180
G1 X11.370 Y31.266 F180
G1 X11.578 Y31.340 F180
G1 X11.792 Y31.393 F180
G1 X12.010 Y31.425 F180
G1 X12.230 Y31.436 F180
G1 X12.450 Y31.425 F180
G1 X12.668 Y31.393 F180
G1 X12.882 Y31.340 F180
G1 X13.089 Y31.266 F180
G1 X13.288 Y31.173 F180
G1 X13.477 Y31.061 F180
G1 X13.654 Y30.930 F180
G1 X13.818 Y30.783 F180
G1 X13.966 Y30.621 F180
G1 X14.097 Y30.446 F180
G1 X14.210 Y30.258 F180
G1 X14.304 Y30.061 F180
G1 X14.379 Y29.855 F180
G1 X14.432 Y29.643 F180
G1 X14.465 Y29.426 F180
G1 X14.475 Y29.208 F180
M5
G0 X7.784 Y20.195 F3000
M4 S10000
G1 X14.244 Y24.986 F180
G1 X14.316 Y25.049 F180
G1 X14.374 Y25.120 F180
G1 X14.418 Y25.195 F180
G1 X14.448 Y25.275 F180
G1 X14.464 Y25.357 F180
G1 X14.468 Y25.440 F180
G1 X14.459 Y25.522 F180
G1 X14.439 Y25.602 F180
G1 X14.408 Y25.679 F180
G1 X14.365 Y25.750 F180
G1 X14.313 Y25.814 F180
G1 X14.251 Y25.870 F180
G1 X14.179 Y25.916 F180
G1 X14.099 Y25.951 F180
G1 X14.011 Y25.973 F180
G1 X13.915 Y25.981 F180
G1 X1.096 Y25.981 F180
G1 X1.000 Y25.973 F180
G1 X0.912 Y25.951 F180
G1 X0.831 Y25.916 F180
G1 X0.760 Y25.870 F180
G1 X0.698 Y25.814 F180
G1 X0.645 Y25.750 F180
G1 X0.603 Y25.679 F180
G1 X0.572 Y25.602 F180
G1 X0.552 Y25.522 F180
G1 X0.543 Y25.440 F180
G1 X0.547 Y25.357 F180
G1 X0.563 Y25.275 F180
G1 X0.593 Y25.195 F180
G1 X0.637 Y25.120 F180
G1 X0.695 Y25.049 F180
G1 X0.767 Y24.986 F180
G1 X7.227 Y20.195 F180
G1 X7.259 Y20.173 F180
G1 X7.292 Y20.155 F180
G1 X7.326 Y20.139 F180
G1 X7.361 Y20.126 F180
G1 X7.396 Y20.116 F180
G1 X7.432 Y20.109 F180
G1 X7.469 Y20.104 F180
G1 X7.505 Y20.103 F180
G1 X7.542 Y20.104 F180
G1 X7.579 Y20.109 F180
G1 X7.615 Y20.116 F180
G1 X7.650 Y20.126 F180
G1 X7.685 Y20.139 F180
G1 X7.719 Y20.155 F180
G1 X7.752 Y20.173 F180
G1 X7.784 Y20.195 F180
G1 X7.784 Y20.195 F180
M5
G0 X0.000 Y38.500 F3000
M4 S2000
G1 X1.200 Y38.500 F1500
M5
G0 X0.000 Y38.500 F3000
M4 S2000
G1 X0.000 Y37.500 F1500
M5
G0 X0.000 Y37.500 F3000
M4 S2000
G1 X0.000 Y36.500 F1500
M5
G0 X0.000 Y36.500 F3000
M4 S2000
G1 X1.200 Y36.500 F1500
M5
G0 X1.600 Y37.500 F3000
M4 S2000
G1 X2.800 Y37.500 F1500
M5
G0 X3.200 Y38.500 F3000
M4 S2000
G1 X4.400 Y38.500 F1500
M5
G0 X4.400 Y38.500 F3000
M4 S2000
G1 X4.400 Y37.500 F1500
M5
G0 X4.400 Y37.500 F3000
M4 S2000
G1 X4.400 Y36.500 F1500
M5
G0 X3.200 Y36.500 F3000
M4 S2000
G1 X4.400 Y36.500 F1500
M5
G0 X3.200 Y37.500 F3000
M4 S2000
G1 X3.200 Y36.500 F1500
M5
G0 X3.200 Y38.500 F3000
M4 S2000
G1 X3.200 Y37.500 F1500
M5
G0 X4.800 Y38.500 F3000
M4 S2000
G1 X6.000 Y38.500 F1500
M5
G0 X6.000 Y38.500 F3000
M4 S2000
G1 X6.000 Y37.500 F1500
M5
G0 X6.000 Y37.500 F3000
M4 S2000
G1 X6.000 Y36.500 F1500
M5
G0 X4.800 Y36.500 F3000
M4 S2000
G1 X6.000 Y36.500 F1500
M5
G0 X4.800 Y37.500 F3000
M4 S2000
G1 X4.800 Y36.500 F1500
M5
G0 X4.800 Y38.500 F3000
M4 S2000
G1 X4.800 Y37.500 F1500
M5
G0 X6.400 Y38.500 F3000
M4 S2000
G1 X7.600 Y38.500 F1500
M5
G0 X6.400 Y38.500 F3000
M4 S2000
G1 X6.400 Y37.500 F1500
M5
G0 X6.400 Y37.500 F3000
M4 S2000
G1 X7.600 Y37.500 F1500
M5
G0 X6.400 Y37.500 F3000
M4 S2000
G1 X6.400 Y36.500 F1500
M5
G0 X7.600 Y37.500 F3000
M4 S2000
G1 X7.600 Y36.500 F1500
M5
G0 X6.400 Y36.500 F3000
M4 S2000
G1 X7.600 Y36.500 F1500
M5
M5 ; laser apagado
G0 X0 Y0 ; volver al origen
