; Suite de CORTE -- MDF Trupan 3.0mm -- lote L03
; Generado por laser_toolkit -- no editar a mano, regenerar desde el YAML de configuracion
G21 ; unidades en milimetros
G90 ; posicionamiento absoluto
M5 ; laser apagado por seguridad al iniciar
G0 X1.312 Y13.397 F3000
M4 S1000
G1 X8.201 Y13.397 F80
G1 X8.282 Y13.393 F80
G1 X8.360 Y13.381 F80
G1 X8.435 Y13.361 F80
G1 X8.508 Y13.335 F80
G1 X8.576 Y13.302 F80
G1 X8.641 Y13.262 F80
G1 X8.702 Y13.217 F80
G1 X8.758 Y13.166 F80
G1 X8.809 Y13.110 F80
G1 X8.854 Y13.050 F80
G1 X8.893 Y12.985 F80
G1 X8.927 Y12.916 F80
G1 X8.953 Y12.844 F80
G1 X8.973 Y12.768 F80
G1 X8.984 Y12.690 F80
G1 X8.989 Y12.610 F80
G1 X8.989 Y8.480 F80
G1 X0.525 Y8.480 F80
G1 X0.525 Y12.610 F80
G1 X0.529 Y12.690 F80
G1 X0.541 Y12.768 F80
G1 X0.560 Y12.844 F80
G1 X0.587 Y12.916 F80
G1 X0.620 Y12.985 F80
G1 X0.659 Y13.050 F80
G1 X0.704 Y13.110 F80
G1 X0.755 Y13.166 F80
G1 X0.811 Y13.217 F80
G1 X0.872 Y13.262 F80
G1 X0.937 Y13.302 F80
G1 X1.006 Y13.335 F80
G1 X1.078 Y13.361 F80
G1 X1.153 Y13.381 F80
G1 X1.231 Y13.393 F80
G1 X1.312 Y13.397 F80
G1 X1.312 Y13.397 F80
M5
G0 X14.475 Y10.708 F3000
M4 S1000
G1 X14.465 Y10.490 F80
G1 X14.432 Y10.273 F80
G1 X14.379 Y10.061 F80
G1 X14.304 Y9.855 F80
G1 X14.210 Y9.658 F80
G1 X14.097 Y9.470 F80
G1 X13.966 Y9.294 F80
G1 X13.818 Y9.132 F80
G1 X13.654 Y8.986 F80
G1 X13.477 Y8.855 F80
G1 X13.288 Y8.743 F80
G1 X13.089 Y8.649 F80
G1 X12.882 Y8.576 F80
G1 X12.668 Y8.523 F80
G1 X12.450 Y8.491 F80
G1 X12.230 Y8.480 F80
G1 X12.010 Y8.491 F80
G1 X11.792 Y8.523 F80
G1 X11.578 Y8.576 F80
G1 X11.370 Y8.649 F80
G1 X11.171 Y8.743 F80
G1 X10.982 Y8.855 F80
G1 X10.805 Y8.986 F80
G1 X10.642 Y9.132 F80
G1 X10.494 Y9.294 F80
G1 X10.362 Y9.470 F80
G1 X10.249 Y9.658 F80
G1 X10.155 Y9.855 F80
G1 X10.081 Y10.061 F80
G1 X10.027 Y10.273 F80
G1 X9.995 Y10.490 F80
G1 X9.984 Y10.708 F80
G1 X9.995 Y10.926 F80
G1 X10.027 Y11.143 F80
G1 X10.081 Y11.355 F80
G1 X10.155 Y11.561 F80
G1 X10.249 Y11.758 F80
G1 X10.362 Y11.946 F80
G1 X10.494 Y12.121 F80
G1 X10.642 Y12.283 F80
G1 X10.805 Y12.430 F80
G1 X10.982 Y12.561 F80
G1 X11.171 Y12.673 F80
G1 X11.370 Y12.766 F80
G1 X11.578 Y12.840 F80
G1 X11.792 Y12.893 F80
G1 X12.010 Y12.925 F80
G1 X12.230 Y12.936 F80
G1 X12.450 Y12.925 F80
G1 X12.668 Y12.893 F80
G1 X12.882 Y12.840 F80
G1 X13.089 Y12.766 F80
G1 X13.288 Y12.673 F80
G1 X13.477 Y12.561 F80
G1 X13.654 Y12.430 F80
G1 X13.818 Y12.283 F80
G1 X13.966 Y12.121 F80
G1 X14.097 Y11.946 F80
G1 X14.210 Y11.758 F80
G1 X14.304 Y11.561 F80
G1 X14.379 Y11.355 F80
G1 X14.432 Y11.143 F80
G1 X14.465 Y10.926 F80
G1 X14.475 Y10.708 F80
M5
G0 X7.784 Y1.695 F3000
M4 S1000
G1 X14.244 Y6.486 F80
G1 X14.316 Y6.549 F80
G1 X14.374 Y6.620 F80
G1 X14.418 Y6.695 F80
G1 X14.448 Y6.775 F80
G1 X14.464 Y6.857 F80
G1 X14.468 Y6.940 F80
G1 X14.459 Y7.022 F80
G1 X14.439 Y7.102 F80
G1 X14.408 Y7.179 F80
G1 X14.365 Y7.250 F80
G1 X14.313 Y7.314 F80
G1 X14.251 Y7.370 F80
G1 X14.179 Y7.416 F80
G1 X14.099 Y7.451 F80
G1 X14.011 Y7.473 F80
G1 X13.915 Y7.481 F80
G1 X1.096 Y7.481 F80
G1 X1.000 Y7.473 F80
G1 X0.912 Y7.451 F80
G1 X0.831 Y7.416 F80
G1 X0.760 Y7.370 F80
G1 X0.698 Y7.314 F80
G1 X0.645 Y7.250 F80
G1 X0.603 Y7.179 F80
G1 X0.572 Y7.102 F80
G1 X0.552 Y7.022 F80
G1 X0.543 Y6.940 F80
G1 X0.547 Y6.857 F80
G1 X0.563 Y6.775 F80
G1 X0.593 Y6.695 F80
G1 X0.637 Y6.620 F80
G1 X0.695 Y6.549 F80
G1 X0.767 Y6.486 F80
G1 X7.227 Y1.695 F80
G1 X7.259 Y1.673 F80
G1 X7.292 Y1.655 F80
G1 X7.326 Y1.639 F80
G1 X7.361 Y1.626 F80
G1 X7.396 Y1.616 F80
G1 X7.432 Y1.609 F80
G1 X7.469 Y1.604 F80
G1 X7.505 Y1.603 F80
G1 X7.542 Y1.604 F80
G1 X7.579 Y1.609 F80
G1 X7.615 Y1.616 F80
G1 X7.650 Y1.626 F80
G1 X7.685 Y1.639 F80
G1 X7.719 Y1.655 F80
G1 X7.752 Y1.673 F80
G1 X7.784 Y1.695 F80
G1 X7.784 Y1.695 F80
M5
; pasada 2/6: aplicar z_step_mm de la configuracion (ajuste manual de Z o G-code M-code segun el firmware)
G0 X1.312 Y13.397 F3000
M4 S1000
G1 X8.201 Y13.397 F80
G1 X8.282 Y13.393 F80
G1 X8.360 Y13.381 F80
G1 X8.435 Y13.361 F80
G1 X8.508 Y13.335 F80
G1 X8.576 Y13.302 F80
G1 X8.641 Y13.262 F80
G1 X8.702 Y13.217 F80
G1 X8.758 Y13.166 F80
G1 X8.809 Y13.110 F80
G1 X8.854 Y13.050 F80
G1 X8.893 Y12.985 F80
G1 X8.927 Y12.916 F80
G1 X8.953 Y12.844 F80
G1 X8.973 Y12.768 F80
G1 X8.984 Y12.690 F80
G1 X8.989 Y12.610 F80
G1 X8.989 Y8.480 F80
G1 X0.525 Y8.480 F80
G1 X0.525 Y12.610 F80
G1 X0.529 Y12.690 F80
G1 X0.541 Y12.768 F80
G1 X0.560 Y12.844 F80
G1 X0.587 Y12.916 F80
G1 X0.620 Y12.985 F80
G1 X0.659 Y13.050 F80
G1 X0.704 Y13.110 F80
G1 X0.755 Y13.166 F80
G1 X0.811 Y13.217 F80
G1 X0.872 Y13.262 F80
G1 X0.937 Y13.302 F80
G1 X1.006 Y13.335 F80
G1 X1.078 Y13.361 F80
G1 X1.153 Y13.381 F80
G1 X1.231 Y13.393 F80
G1 X1.312 Y13.397 F80
G1 X1.312 Y13.397 F80
M5
G0 X14.475 Y10.708 F3000
M4 S1000
G1 X14.465 Y10.490 F80
G1 X14.432 Y10.273 F80
G1 X14.379 Y10.061 F80
G1 X14.304 Y9.855 F80
G1 X14.210 Y9.658 F80
G1 X14.097 Y9.470 F80
G1 X13.966 Y9.294 F80
G1 X13.818 Y9.132 F80
G1 X13.654 Y8.986 F80
G1 X13.477 Y8.855 F80
G1 X13.288 Y8.743 F80
G1 X13.089 Y8.649 F80
G1 X12.882 Y8.576 F80
G1 X12.668 Y8.523 F80
G1 X12.450 Y8.491 F80
G1 X12.230 Y8.480 F80
G1 X12.010 Y8.491 F80
G1 X11.792 Y8.523 F80
G1 X11.578 Y8.576 F80
G1 X11.370 Y8.649 F80
G1 X11.171 Y8.743 F80
G1 X10.982 Y8.855 F80
G1 X10.805 Y8.986 F80
G1 X10.642 Y9.132 F80
G1 X10.494 Y9.294 F80
G1 X10.362 Y9.470 F80
G1 X10.249 Y9.658 F80
G1 X10.155 Y9.855 F80
G1 X10.081 Y10.061 F80
G1 X10.027 Y10.273 F80
G1 X9.995 Y10.490 F80
G1 X9.984 Y10.708 F80
G1 X9.995 Y10.926 F80
G1 X10.027 Y11.143 F80
G1 X10.081 Y11.355 F80
G1 X10.155 Y11.561 F80
G1 X10.249 Y11.758 F80
G1 X10.362 Y11.946 F80
G1 X10.494 Y12.121 F80
G1 X10.642 Y12.283 F80
G1 X10.805 Y12.430 F80
G1 X10.982 Y12.561 F80
G1 X11.171 Y12.673 F80
G1 X11.370 Y12.766 F80
G1 X11.578 Y12.840 F80
G1 X11.792 Y12.893 F80
G1 X12.010 Y12.925 F80
G1 X12.230 Y12.936 F80
G1 X12.450 Y12.925 F80
G1 X12.668 Y12.893 F80
G1 X12.882 Y12.840 F80
G1 X13.089 Y12.766 F80
G1 X13.288 Y12.673 F80
G1 X13.477 Y12.561 F80
G1 X13.654 Y12.430 F80
G1 X13.818 Y12.283 F80
G1 X13.966 Y12.121 F80
G1 X14.097 Y11.946 F80
G1 X14.210 Y11.758 F80
G1 X14.304 Y11.561 F80
G1 X14.379 Y11.355 F80
G1 X14.432 Y11.143 F80
G1 X14.465 Y10.926 F80
G1 X14.475 Y10.708 F80
M5
G0 X7.784 Y1.695 F3000
M4 S1000
G1 X14.244 Y6.486 F80
G1 X14.316 Y6.549 F80
G1 X14.374 Y6.620 F80
G1 X14.418 Y6.695 F80
G1 X14.448 Y6.775 F80
G1 X14.464 Y6.857 F80
G1 X14.468 Y6.940 F80
G1 X14.459 Y7.022 F80
G1 X14.439 Y7.102 F80
G1 X14.408 Y7.179 F80
G1 X14.365 Y7.250 F80
G1 X14.313 Y7.314 F80
G1 X14.251 Y7.370 F80
G1 X14.179 Y7.416 F80
G1 X14.099 Y7.451 F80
G1 X14.011 Y7.473 F80
G1 X13.915 Y7.481 F80
G1 X1.096 Y7.481 F80
G1 X1.000 Y7.473 F80
G1 X0.912 Y7.451 F80
G1 X0.831 Y7.416 F80
G1 X0.760 Y7.370 F80
G1 X0.698 Y7.314 F80
G1 X0.645 Y7.250 F80
G1 X0.603 Y7.179 F80
G1 X0.572 Y7.102 F80
G1 X0.552 Y7.022 F80
G1 X0.543 Y6.940 F80
G1 X0.547 Y6.857 F80
G1 X0.563 Y6.775 F80
G1 X0.593 Y6.695 F80
G1 X0.637 Y6.620 F80
G1 X0.695 Y6.549 F80
G1 X0.767 Y6.486 F80
G1 X7.227 Y1.695 F80
G1 X7.259 Y1.673 F80
G1 X7.292 Y1.655 F80
G1 X7.326 Y1.639 F80
G1 X7.361 Y1.626 F80
G1 X7.396 Y1.616 F80
G1 X7.432 Y1.609 F80
G1 X7.469 Y1.604 F80
G1 X7.505 Y1.603 F80
G1 X7.542 Y1.604 F80
G1 X7.579 Y1.609 F80
G1 X7.615 Y1.616 F80
G1 X7.650 Y1.626 F80
G1 X7.685 Y1.639 F80
G1 X7.719 Y1.655 F80
G1 X7.752 Y1.673 F80
G1 X7.784 Y1.695 F80
G1 X7.784 Y1.695 F80
M5
; pasada 3/6: aplicar z_step_mm de la configuracion (ajuste manual de Z o G-code M-code segun el firmware)
G0 X1.312 Y13.397 F3000
M4 S1000
G1 X8.201 Y13.397 F80
G1 X8.282 Y13.393 F80
G1 X8.360 Y13.381 F80
G1 X8.435 Y13.361 F80
G1 X8.508 Y13.335 F80
G1 X8.576 Y13.302 F80
G1 X8.641 Y13.262 F80
G1 X8.702 Y13.217 F80
G1 X8.758 Y13.166 F80
G1 X8.809 Y13.110 F80
G1 X8.854 Y13.050 F80
G1 X8.893 Y12.985 F80
G1 X8.927 Y12.916 F80
G1 X8.953 Y12.844 F80
G1 X8.973 Y12.768 F80
G1 X8.984 Y12.690 F80
G1 X8.989 Y12.610 F80
G1 X8.989 Y8.480 F80
G1 X0.525 Y8.480 F80
G1 X0.525 Y12.610 F80
G1 X0.529 Y12.690 F80
G1 X0.541 Y12.768 F80
G1 X0.560 Y12.844 F80
G1 X0.587 Y12.916 F80
G1 X0.620 Y12.985 F80
G1 X0.659 Y13.050 F80
G1 X0.704 Y13.110 F80
G1 X0.755 Y13.166 F80
G1 X0.811 Y13.217 F80
G1 X0.872 Y13.262 F80
G1 X0.937 Y13.302 F80
G1 X1.006 Y13.335 F80
G1 X1.078 Y13.361 F80
G1 X1.153 Y13.381 F80
G1 X1.231 Y13.393 F80
G1 X1.312 Y13.397 F80
G1 X1.312 Y13.397 F80
M5
G0 X14.475 Y10.708 F3000
M4 S1000
G1 X14.465 Y10.490 F80
G1 X14.432 Y10.273 F80
G1 X14.379 Y10.061 F80
G1 X14.304 Y9.855 F80
G1 X14.210 Y9.658 F80
G1 X14.097 Y9.470 F80
G1 X13.966 Y9.294 F80
G1 X13.818 Y9.132 F80
G1 X13.654 Y8.986 F80
G1 X13.477 Y8.855 F80
G1 X13.288 Y8.743 F80
G1 X13.089 Y8.649 F80
G1 X12.882 Y8.576 F80
G1 X12.668 Y8.523 F80
G1 X12.450 Y8.491 F80
G1 X12.230 Y8.480 F80
G1 X12.010 Y8.491 F80
G1 X11.792 Y8.523 F80
G1 X11.578 Y8.576 F80
G1 X11.370 Y8.649 F80
G1 X11.171 Y8.743 F80
G1 X10.982 Y8.855 F80
G1 X10.805 Y8.986 F80
G1 X10.642 Y9.132 F80
G1 X10.494 Y9.294 F80
G1 X10.362 Y9.470 F80
G1 X10.249 Y9.658 F80
G1 X10.155 Y9.855 F80
G1 X10.081 Y10.061 F80
G1 X10.027 Y10.273 F80
G1 X9.995 Y10.490 F80
G1 X9.984 Y10.708 F80
G1 X9.995 Y10.926 F80
G1 X10.027 Y11.143 F80
G1 X10.081 Y11.355 F80
G1 X10.155 Y11.561 F80
G1 X10.249 Y11.758 F80
G1 X10.362 Y11.946 F80
G1 X10.494 Y12.121 F80
G1 X10.642 Y12.283 F80
G1 X10.805 Y12.430 F80
G1 X10.982 Y12.561 F80
G1 X11.171 Y12.673 F80
G1 X11.370 Y12.766 F80
G1 X11.578 Y12.840 F80
G1 X11.792 Y12.893 F80
G1 X12.010 Y12.925 F80
G1 X12.230 Y12.936 F80
G1 X12.450 Y12.925 F80
G1 X12.668 Y12.893 F80
G1 X12.882 Y12.840 F80
G1 X13.089 Y12.766 F80
G1 X13.288 Y12.673 F80
G1 X13.477 Y12.561 F80
G1 X13.654 Y12.430 F80
G1 X13.818 Y12.283 F80
G1 X13.966 Y12.121 F80
G1 X14.097 Y11.946 F80
G1 X14.210 Y11.758 F80
G1 X14.304 Y11.561 F80
G1 X14.379 Y11.355 F80
G1 X14.432 Y11.143 F80
G1 X14.465 Y10.926 F80
G1 X14.475 Y10.708 F80
M5
G0 X7.784 Y1.695 F3000
M4 S1000
G1 X14.244 Y6.486 F80
G1 X14.316 Y6.549 F80
G1 X14.374 Y6.620 F80
G1 X14.418 Y6.695 F80
G1 X14.448 Y6.775 F80
G1 X14.464 Y6.857 F80
G1 X14.468 Y6.940 F80
G1 X14.459 Y7.022 F80
G1 X14.439 Y7.102 F80
G1 X14.408 Y7.179 F80
G1 X14.365 Y7.250 F80
G1 X14.313 Y7.314 F80
G1 X14.251 Y7.370 F80
G1 X14.179 Y7.416 F80
G1 X14.099 Y7.451 F80
G1 X14.011 Y7.473 F80
G1 X13.915 Y7.481 F80
G1 X1.096 Y7.481 F80
G1 X1.000 Y7.473 F80
G1 X0.912 Y7.451 F80
G1 X0.831 Y7.416 F80
G1 X0.760 Y7.370 F80
G1 X0.698 Y7.314 F80
G1 X0.645 Y7.250 F80
G1 X0.603 Y7.179 F80
G1 X0.572 Y7.102 F80
G1 X0.552 Y7.022 F80
G1 X0.543 Y6.940 F80
G1 X0.547 Y6.857 F80
G1 X0.563 Y6.775 F80
G1 X0.593 Y6.695 F80
G1 X0.637 Y6.620 F80
G1 X0.695 Y6.549 F80
G1 X0.767 Y6.486 F80
G1 X7.227 Y1.695 F80
G1 X7.259 Y1.673 F80
G1 X7.292 Y1.655 F80
G1 X7.326 Y1.639 F80
G1 X7.361 Y1.626 F80
G1 X7.396 Y1.616 F80
G1 X7.432 Y1.609 F80
G1 X7.469 Y1.604 F80
G1 X7.505 Y1.603 F80
G1 X7.542 Y1.604 F80
G1 X7.579 Y1.609 F80
G1 X7.615 Y1.616 F80
G1 X7.650 Y1.626 F80
G1 X7.685 Y1.639 F80
G1 X7.719 Y1.655 F80
G1 X7.752 Y1.673 F80
G1 X7.784 Y1.695 F80
G1 X7.784 Y1.695 F80
M5
; pasada 4/6: aplicar z_step_mm de la configuracion (ajuste manual de Z o G-code M-code segun el firmware)
G0 X1.312 Y13.397 F3000
M4 S1000
G1 X8.201 Y13.397 F80
G1 X8.282 Y13.393 F80
G1 X8.360 Y13.381 F80
G1 X8.435 Y13.361 F80
G1 X8.508 Y13.335 F80
G1 X8.576 Y13.302 F80
G1 X8.641 Y13.262 F80
G1 X8.702 Y13.217 F80
G1 X8.758 Y13.166 F80
G1 X8.809 Y13.110 F80
G1 X8.854 Y13.050 F80
G1 X8.893 Y12.985 F80
G1 X8.927 Y12.916 F80
G1 X8.953 Y12.844 F80
G1 X8.973 Y12.768 F80
G1 X8.984 Y12.690 F80
G1 X8.989 Y12.610 F80
G1 X8.989 Y8.480 F80
G1 X0.525 Y8.480 F80
G1 X0.525 Y12.610 F80
G1 X0.529 Y12.690 F80
G1 X0.541 Y12.768 F80
G1 X0.560 Y12.844 F80
G1 X0.587 Y12.916 F80
G1 X0.620 Y12.985 F80
G1 X0.659 Y13.050 F80
G1 X0.704 Y13.110 F80
G1 X0.755 Y13.166 F80
G1 X0.811 Y13.217 F80
G1 X0.872 Y13.262 F80
G1 X0.937 Y13.302 F80
G1 X1.006 Y13.335 F80
G1 X1.078 Y13.361 F80
G1 X1.153 Y13.381 F80
G1 X1.231 Y13.393 F80
G1 X1.312 Y13.397 F80
G1 X1.312 Y13.397 F80
M5
G0 X14.475 Y10.708 F3000
M4 S1000
G1 X14.465 Y10.490 F80
G1 X14.432 Y10.273 F80
G1 X14.379 Y10.061 F80
G1 X14.304 Y9.855 F80
G1 X14.210 Y9.658 F80
G1 X14.097 Y9.470 F80
G1 X13.966 Y9.294 F80
G1 X13.818 Y9.132 F80
G1 X13.654 Y8.986 F80
G1 X13.477 Y8.855 F80
G1 X13.288 Y8.743 F80
G1 X13.089 Y8.649 F80
G1 X12.882 Y8.576 F80
G1 X12.668 Y8.523 F80
G1 X12.450 Y8.491 F80
G1 X12.230 Y8.480 F80
G1 X12.010 Y8.491 F80
G1 X11.792 Y8.523 F80
G1 X11.578 Y8.576 F80
G1 X11.370 Y8.649 F80
G1 X11.171 Y8.743 F80
G1 X10.982 Y8.855 F80
G1 X10.805 Y8.986 F80
G1 X10.642 Y9.132 F80
G1 X10.494 Y9.294 F80
G1 X10.362 Y9.470 F80
G1 X10.249 Y9.658 F80
G1 X10.155 Y9.855 F80
G1 X10.081 Y10.061 F80
G1 X10.027 Y10.273 F80
G1 X9.995 Y10.490 F80
G1 X9.984 Y10.708 F80
G1 X9.995 Y10.926 F80
G1 X10.027 Y11.143 F80
G1 X10.081 Y11.355 F80
G1 X10.155 Y11.561 F80
G1 X10.249 Y11.758 F80
G1 X10.362 Y11.946 F80
G1 X10.494 Y12.121 F80
G1 X10.642 Y12.283 F80
G1 X10.805 Y12.430 F80
G1 X10.982 Y12.561 F80
G1 X11.171 Y12.673 F80
G1 X11.370 Y12.766 F80
G1 X11.578 Y12.840 F80
G1 X11.792 Y12.893 F80
G1 X12.010 Y12.925 F80
G1 X12.230 Y12.936 F80
G1 X12.450 Y12.925 F80
G1 X12.668 Y12.893 F80
G1 X12.882 Y12.840 F80
G1 X13.089 Y12.766 F80
G1 X13.288 Y12.673 F80
G1 X13.477 Y12.561 F80
G1 X13.654 Y12.430 F80
G1 X13.818 Y12.283 F80
G1 X13.966 Y12.121 F80
G1 X14.097 Y11.946 F80
G1 X14.210 Y11.758 F80
G1 X14.304 Y11.561 F80
G1 X14.379 Y11.355 F80
G1 X14.432 Y11.143 F80
G1 X14.465 Y10.926 F80
G1 X14.475 Y10.708 F80
M5
G0 X7.784 Y1.695 F3000
M4 S1000
G1 X14.244 Y6.486 F80
G1 X14.316 Y6.549 F80
G1 X14.374 Y6.620 F80
G1 X14.418 Y6.695 F80
G1 X14.448 Y6.775 F80
G1 X14.464 Y6.857 F80
G1 X14.468 Y6.940 F80
G1 X14.459 Y7.022 F80
G1 X14.439 Y7.102 F80
G1 X14.408 Y7.179 F80
G1 X14.365 Y7.250 F80
G1 X14.313 Y7.314 F80
G1 X14.251 Y7.370 F80
G1 X14.179 Y7.416 F80
G1 X14.099 Y7.451 F80
G1 X14.011 Y7.473 F80
G1 X13.915 Y7.481 F80
G1 X1.096 Y7.481 F80
G1 X1.000 Y7.473 F80
G1 X0.912 Y7.451 F80
G1 X0.831 Y7.416 F80
G1 X0.760 Y7.370 F80
G1 X0.698 Y7.314 F80
G1 X0.645 Y7.250 F80
G1 X0.603 Y7.179 F80
G1 X0.572 Y7.102 F80
G1 X0.552 Y7.022 F80
G1 X0.543 Y6.940 F80
G1 X0.547 Y6.857 F80
G1 X0.563 Y6.775 F80
G1 X0.593 Y6.695 F80
G1 X0.637 Y6.620 F80
G1 X0.695 Y6.549 F80
G1 X0.767 Y6.486 F80
G1 X7.227 Y1.695 F80
G1 X7.259 Y1.673 F80
G1 X7.292 Y1.655 F80
G1 X7.326 Y1.639 F80
G1 X7.361 Y1.626 F80
G1 X7.396 Y1.616 F80
G1 X7.432 Y1.609 F80
G1 X7.469 Y1.604 F80
G1 X7.505 Y1.603 F80
G1 X7.542 Y1.604 F80
G1 X7.579 Y1.609 F80
G1 X7.615 Y1.616 F80
G1 X7.650 Y1.626 F80
G1 X7.685 Y1.639 F80
G1 X7.719 Y1.655 F80
G1 X7.752 Y1.673 F80
G1 X7.784 Y1.695 F80
G1 X7.784 Y1.695 F80
M5
; pasada 5/6: aplicar z_step_mm de la configuracion (ajuste manual de Z o G-code M-code segun el firmware)
G0 X1.312 Y13.397 F3000
M4 S1000
G1 X8.201 Y13.397 F80
G1 X8.282 Y13.393 F80
G1 X8.360 Y13.381 F80
G1 X8.435 Y13.361 F80
G1 X8.508 Y13.335 F80
G1 X8.576 Y13.302 F80
G1 X8.641 Y13.262 F80
G1 X8.702 Y13.217 F80
G1 X8.758 Y13.166 F80
G1 X8.809 Y13.110 F80
G1 X8.854 Y13.050 F80
G1 X8.893 Y12.985 F80
G1 X8.927 Y12.916 F80
G1 X8.953 Y12.844 F80
G1 X8.973 Y12.768 F80
G1 X8.984 Y12.690 F80
G1 X8.989 Y12.610 F80
G1 X8.989 Y8.480 F80
G1 X0.525 Y8.480 F80
G1 X0.525 Y12.610 F80
G1 X0.529 Y12.690 F80
G1 X0.541 Y12.768 F80
G1 X0.560 Y12.844 F80
G1 X0.587 Y12.916 F80
G1 X0.620 Y12.985 F80
G1 X0.659 Y13.050 F80
G1 X0.704 Y13.110 F80
G1 X0.755 Y13.166 F80
G1 X0.811 Y13.217 F80
G1 X0.872 Y13.262 F80
G1 X0.937 Y13.302 F80
G1 X1.006 Y13.335 F80
G1 X1.078 Y13.361 F80
G1 X1.153 Y13.381 F80
G1 X1.231 Y13.393 F80
G1 X1.312 Y13.397 F80
G1 X1.312 Y13.397 F80
M5
G0 X14.475 Y10.708 F3000
M4 S1000
G1 X14.465 Y10.490 F80
G1 X14.432 Y10.273 F80
G1 X14.379 Y10.061 F80
G1 X14.304 Y9.855 F80
G1 X14.210 Y9.658 F80
G1 X14.097 Y9.470 F80
G1 X13.966 Y9.294 F80
G1 X13.818 Y9.132 F80
G1 X13.654 Y8.986 F80
G1 X13.477 Y8.855 F80
G1 X13.288 Y8.743 F80
G1 X13.089 Y8.649 F80
G1 X12.882 Y8.576 F80
G1 X12.668 Y8.523 F80
G1 X12.450 Y8.491 F80
G1 X12.230 Y8.480 F80
G1 X12.010 Y8.491 F80
G1 X11.792 Y8.523 F80
G1 X11.578 Y8.576 F80
G1 X11.370 Y8.649 F80
G1 X11.171 Y8.743 F80
G1 X10.982 Y8.855 F80
G1 X10.805 Y8.986 F80
G1 X10.642 Y9.132 F80
G1 X10.494 Y9.294 F80
G1 X10.362 Y9.470 F80
G1 X10.249 Y9.658 F80
G1 X10.155 Y9.855 F80
G1 X10.081 Y10.061 F80
G1 X10.027 Y10.273 F80
G1 X9.995 Y10.490 F80
G1 X9.984 Y10.708 F80
G1 X9.995 Y10.926 F80
G1 X10.027 Y11.143 F80
G1 X10.081 Y11.355 F80
G1 X10.155 Y11.561 F80
G1 X10.249 Y11.758 F80
G1 X10.362 Y11.946 F80
G1 X10.494 Y12.121 F80
G1 X10.642 Y12.283 F80
G1 X10.805 Y12.430 F80
G1 X10.982 Y12.561 F80
G1 X11.171 Y12.673 F80
G1 X11.370 Y12.766 F80
G1 X11.578 Y12.840 F80
G1 X11.792 Y12.893 F80
G1 X12.010 Y12.925 F80
G1 X12.230 Y12.936 F80
G1 X12.450 Y12.925 F80
G1 X12.668 Y12.893 F80
G1 X12.882 Y12.840 F80
G1 X13.089 Y12.766 F80
G1 X13.288 Y12.673 F80
G1 X13.477 Y12.561 F80
G1 X13.654 Y12.430 F80
G1 X13.818 Y12.283 F80
G1 X13.966 Y12.121 F80
G1 X14.097 Y11.946 F80
G1 X14.210 Y11.758 F80
G1 X14.304 Y11.561 F80
G1 X14.379 Y11.355 F80
G1 X14.432 Y11.143 F80
G1 X14.465 Y10.926 F80
G1 X14.475 Y10.708 F80
M5
G0 X7.784 Y1.695 F3000
M4 S1000
G1 X14.244 Y6.486 F80
G1 X14.316 Y6.549 F80
G1 X14.374 Y6.620 F80
G1 X14.418 Y6.695 F80
G1 X14.448 Y6.775 F80
G1 X14.464 Y6.857 F80
G1 X14.468 Y6.940 F80
G1 X14.459 Y7.022 F80
G1 X14.439 Y7.102 F80
G1 X14.408 Y7.179 F80
G1 X14.365 Y7.250 F80
G1 X14.313 Y7.314 F80
G1 X14.251 Y7.370 F80
G1 X14.179 Y7.416 F80
G1 X14.099 Y7.451 F80
G1 X14.011 Y7.473 F80
G1 X13.915 Y7.481 F80
G1 X1.096 Y7.481 F80
G1 X1.000 Y7.473 F80
G1 X0.912 Y7.451 F80
G1 X0.831 Y7.416 F80
G1 X0.760 Y7.370 F80
G1 X0.698 Y7.314 F80
G1 X0.645 Y7.250 F80
G1 X0.603 Y7.179 F80
G1 X0.572 Y7.102 F80
G1 X0.552 Y7.022 F80
G1 X0.543 Y6.940 F80
G1 X0.547 Y6.857 F80
G1 X0.563 Y6.775 F80
G1 X0.593 Y6.695 F80
G1 X0.637 Y6.620 F80
G1 X0.695 Y6.549 F80
G1 X0.767 Y6.486 F80
G1 X7.227 Y1.695 F80
G1 X7.259 Y1.673 F80
G1 X7.292 Y1.655 F80
G1 X7.326 Y1.639 F80
G1 X7.361 Y1.626 F80
G1 X7.396 Y1.616 F80
G1 X7.432 Y1.609 F80
G1 X7.469 Y1.604 F80
G1 X7.505 Y1.603 F80
G1 X7.542 Y1.604 F80
G1 X7.579 Y1.609 F80
G1 X7.615 Y1.616 F80
G1 X7.650 Y1.626 F80
G1 X7.685 Y1.639 F80
G1 X7.719 Y1.655 F80
G1 X7.752 Y1.673 F80
G1 X7.784 Y1.695 F80
G1 X7.784 Y1.695 F80
M5
; pasada 6/6: aplicar z_step_mm de la configuracion (ajuste manual de Z o G-code M-code segun el firmware)
G0 X1.312 Y13.397 F3000
M4 S1000
G1 X8.201 Y13.397 F80
G1 X8.282 Y13.393 F80
G1 X8.360 Y13.381 F80
G1 X8.435 Y13.361 F80
G1 X8.508 Y13.335 F80
G1 X8.576 Y13.302 F80
G1 X8.641 Y13.262 F80
G1 X8.702 Y13.217 F80
G1 X8.758 Y13.166 F80
G1 X8.809 Y13.110 F80
G1 X8.854 Y13.050 F80
G1 X8.893 Y12.985 F80
G1 X8.927 Y12.916 F80
G1 X8.953 Y12.844 F80
G1 X8.973 Y12.768 F80
G1 X8.984 Y12.690 F80
G1 X8.989 Y12.610 F80
G1 X8.989 Y8.480 F80
G1 X0.525 Y8.480 F80
G1 X0.525 Y12.610 F80
G1 X0.529 Y12.690 F80
G1 X0.541 Y12.768 F80
G1 X0.560 Y12.844 F80
G1 X0.587 Y12.916 F80
G1 X0.620 Y12.985 F80
G1 X0.659 Y13.050 F80
G1 X0.704 Y13.110 F80
G1 X0.755 Y13.166 F80
G1 X0.811 Y13.217 F80
G1 X0.872 Y13.262 F80
G1 X0.937 Y13.302 F80
G1 X1.006 Y13.335 F80
G1 X1.078 Y13.361 F80
G1 X1.153 Y13.381 F80
G1 X1.231 Y13.393 F80
G1 X1.312 Y13.397 F80
G1 X1.312 Y13.397 F80
M5
G0 X14.475 Y10.708 F3000
M4 S1000
G1 X14.465 Y10.490 F80
G1 X14.432 Y10.273 F80
G1 X14.379 Y10.061 F80
G1 X14.304 Y9.855 F80
G1 X14.210 Y9.658 F80
G1 X14.097 Y9.470 F80
G1 X13.966 Y9.294 F80
G1 X13.818 Y9.132 F80
G1 X13.654 Y8.986 F80
G1 X13.477 Y8.855 F80
G1 X13.288 Y8.743 F80
G1 X13.089 Y8.649 F80
G1 X12.882 Y8.576 F80
G1 X12.668 Y8.523 F80
G1 X12.450 Y8.491 F80
G1 X12.230 Y8.480 F80
G1 X12.010 Y8.491 F80
G1 X11.792 Y8.523 F80
G1 X11.578 Y8.576 F80
G1 X11.370 Y8.649 F80
G1 X11.171 Y8.743 F80
G1 X10.982 Y8.855 F80
G1 X10.805 Y8.986 F80
G1 X10.642 Y9.132 F80
G1 X10.494 Y9.294 F80
G1 X10.362 Y9.470 F80
G1 X10.249 Y9.658 F80
G1 X10.155 Y9.855 F80
G1 X10.081 Y10.061 F80
G1 X10.027 Y10.273 F80
G1 X9.995 Y10.490 F80
G1 X9.984 Y10.708 F80
G1 X9.995 Y10.926 F80
G1 X10.027 Y11.143 F80
G1 X10.081 Y11.355 F80
G1 X10.155 Y11.561 F80
G1 X10.249 Y11.758 F80
G1 X10.362 Y11.946 F80
G1 X10.494 Y12.121 F80
G1 X10.642 Y12.283 F80
G1 X10.805 Y12.430 F80
G1 X10.982 Y12.561 F80
G1 X11.171 Y12.673 F80
G1 X11.370 Y12.766 F80
G1 X11.578 Y12.840 F80
G1 X11.792 Y12.893 F80
G1 X12.010 Y12.925 F80
G1 X12.230 Y12.936 F80
G1 X12.450 Y12.925 F80
G1 X12.668 Y12.893 F80
G1 X12.882 Y12.840 F80
G1 X13.089 Y12.766 F80
G1 X13.288 Y12.673 F80
G1 X13.477 Y12.561 F80
G1 X13.654 Y12.430 F80
G1 X13.818 Y12.283 F80
G1 X13.966 Y12.121 F80
G1 X14.097 Y11.946 F80
G1 X14.210 Y11.758 F80
G1 X14.304 Y11.561 F80
G1 X14.379 Y11.355 F80
G1 X14.432 Y11.143 F80
G1 X14.465 Y10.926 F80
G1 X14.475 Y10.708 F80
M5
G0 X7.784 Y1.695 F3000
M4 S1000
G1 X14.244 Y6.486 F80
G1 X14.316 Y6.549 F80
G1 X14.374 Y6.620 F80
G1 X14.418 Y6.695 F80
G1 X14.448 Y6.775 F80
G1 X14.464 Y6.857 F80
G1 X14.468 Y6.940 F80
G1 X14.459 Y7.022 F80
G1 X14.439 Y7.102 F80
G1 X14.408 Y7.179 F80
G1 X14.365 Y7.250 F80
G1 X14.313 Y7.314 F80
G1 X14.251 Y7.370 F80
G1 X14.179 Y7.416 F80
G1 X14.099 Y7.451 F80
G1 X14.011 Y7.473 F80
G1 X13.915 Y7.481 F80
G1 X1.096 Y7.481 F80
G1 X1.000 Y7.473 F80
G1 X0.912 Y7.451 F80
G1 X0.831 Y7.416 F80
G1 X0.760 Y7.370 F80
G1 X0.698 Y7.314 F80
G1 X0.645 Y7.250 F80
G1 X0.603 Y7.179 F80
G1 X0.572 Y7.102 F80
G1 X0.552 Y7.022 F80
G1 X0.543 Y6.940 F80
G1 X0.547 Y6.857 F80
G1 X0.563 Y6.775 F80
G1 X0.593 Y6.695 F80
G1 X0.637 Y6.620 F80
G1 X0.695 Y6.549 F80
G1 X0.767 Y6.486 F80
G1 X7.227 Y1.695 F80
G1 X7.259 Y1.673 F80
G1 X7.292 Y1.655 F80
G1 X7.326 Y1.639 F80
G1 X7.361 Y1.626 F80
G1 X7.396 Y1.616 F80
G1 X7.432 Y1.609 F80
G1 X7.469 Y1.604 F80
G1 X7.505 Y1.603 F80
G1 X7.542 Y1.604 F80
G1 X7.579 Y1.609 F80
G1 X7.615 Y1.616 F80
G1 X7.650 Y1.626 F80
G1 X7.685 Y1.639 F80
G1 X7.719 Y1.655 F80
G1 X7.752 Y1.673 F80
G1 X7.784 Y1.695 F80
G1 X7.784 Y1.695 F80
M5
G0 X0.000 Y20.000 F3000
M4 S200
G1 X1.200 Y20.000 F1500
M5
G0 X0.000 Y20.000 F3000
M4 S200
G1 X0.000 Y19.000 F1500
M5
G0 X0.000 Y19.000 F3000
M4 S200
G1 X0.000 Y18.000 F1500
M5
G0 X0.000 Y18.000 F3000
M4 S200
G1 X1.200 Y18.000 F1500
M5
G0 X1.600 Y19.000 F3000
M4 S200
G1 X2.800 Y19.000 F1500
M5
G0 X3.200 Y20.000 F3000
M4 S200
G1 X4.400 Y20.000 F1500
M5
G0 X4.400 Y20.000 F3000
M4 S200
G1 X4.400 Y19.000 F1500
M5
G0 X4.400 Y19.000 F3000
M4 S200
G1 X4.400 Y18.000 F1500
M5
G0 X3.200 Y18.000 F3000
M4 S200
G1 X4.400 Y18.000 F1500
M5
G0 X3.200 Y19.000 F3000
M4 S200
G1 X3.200 Y18.000 F1500
M5
G0 X3.200 Y20.000 F3000
M4 S200
G1 X3.200 Y19.000 F1500
M5
G0 X4.800 Y20.000 F3000
M4 S200
G1 X6.000 Y20.000 F1500
M5
G0 X6.000 Y20.000 F3000
M4 S200
G1 X6.000 Y19.000 F1500
M5
G0 X6.000 Y19.000 F3000
M4 S200
G1 X6.000 Y18.000 F1500
M5
G0 X4.800 Y18.000 F3000
M4 S200
G1 X6.000 Y18.000 F1500
M5
G0 X4.800 Y19.000 F3000
M4 S200
G1 X4.800 Y18.000 F1500
M5
G0 X4.800 Y20.000 F3000
M4 S200
G1 X4.800 Y19.000 F1500
M5
G0 X7.600 Y20.000 F3000
M4 S200
G1 X7.600 Y19.000 F1500
M5
G0 X7.600 Y19.000 F3000
M4 S200
G1 X7.600 Y18.000 F1500
M5
M5 ; laser apagado
G0 X0 Y0 ; volver al origen
