; Suite de CORTE -- MDF Comercial 3.0mm -- lote L15
; Generado por laser_toolkit -- no editar a mano, regenerar desde el YAML de configuracion
G21 ; unidades en milimetros
G90 ; posicionamiento absoluto
M5 ; laser apagado por seguridad al iniciar
G0 X0.875 Y8.931 F3000
M4 S10000
G1 X5.468 Y8.931 F440
G1 X5.521 Y8.929 F440
G1 X5.573 Y8.921 F440
G1 X5.623 Y8.908 F440
G1 X5.672 Y8.890 F440
G1 X5.718 Y8.868 F440
G1 X5.761 Y8.842 F440
G1 X5.801 Y8.811 F440
G1 X5.839 Y8.777 F440
G1 X5.872 Y8.740 F440
G1 X5.903 Y8.700 F440
G1 X5.929 Y8.657 F440
G1 X5.951 Y8.611 F440
G1 X5.969 Y8.562 F440
G1 X5.982 Y8.512 F440
G1 X5.990 Y8.460 F440
G1 X5.992 Y8.406 F440
G1 X5.992 Y5.653 F440
G1 X0.350 Y5.653 F440
G1 X0.350 Y8.406 F440
G1 X0.352 Y8.460 F440
G1 X0.360 Y8.512 F440
G1 X0.373 Y8.562 F440
G1 X0.391 Y8.611 F440
G1 X0.413 Y8.656 F440
G1 X0.439 Y8.700 F440
G1 X0.470 Y8.740 F440
G1 X0.504 Y8.777 F440
G1 X0.541 Y8.811 F440
G1 X0.581 Y8.842 F440
G1 X0.624 Y8.868 F440
G1 X0.670 Y8.890 F440
G1 X0.719 Y8.908 F440
G1 X0.769 Y8.921 F440
G1 X0.821 Y8.929 F440
G1 X0.875 Y8.931 F440
G1 X0.875 Y8.931 F440
M5
G0 X9.650 Y7.139 F3000
M4 S10000
G1 X9.643 Y6.993 F440
G1 X9.621 Y6.849 F440
G1 X9.586 Y6.707 F440
G1 X9.536 Y6.570 F440
G1 X9.473 Y6.438 F440
G1 X9.398 Y6.313 F440
G1 X9.310 Y6.196 F440
G1 X9.212 Y6.088 F440
G1 X9.103 Y5.990 F440
G1 X8.985 Y5.904 F440
G1 X8.859 Y5.829 F440
G1 X8.726 Y5.766 F440
G1 X8.588 Y5.717 F440
G1 X8.445 Y5.682 F440
G1 X8.300 Y5.660 F440
G1 X8.153 Y5.653 F440
G1 X8.006 Y5.660 F440
G1 X7.861 Y5.682 F440
G1 X7.719 Y5.717 F440
G1 X7.580 Y5.766 F440
G1 X7.447 Y5.829 F440
G1 X7.321 Y5.904 F440
G1 X7.203 Y5.990 F440
G1 X7.094 Y6.088 F440
G1 X6.996 Y6.196 F440
G1 X6.908 Y6.313 F440
G1 X6.833 Y6.438 F440
G1 X6.770 Y6.570 F440
G1 X6.720 Y6.707 F440
G1 X6.685 Y6.849 F440
G1 X6.663 Y6.993 F440
G1 X6.656 Y7.139 F440
G1 X6.663 Y7.284 F440
G1 X6.685 Y7.428 F440
G1 X6.720 Y7.570 F440
G1 X6.770 Y7.707 F440
G1 X6.833 Y7.839 F440
G1 X6.908 Y7.964 F440
G1 X6.996 Y8.081 F440
G1 X7.094 Y8.189 F440
G1 X7.203 Y8.287 F440
G1 X7.321 Y8.374 F440
G1 X7.447 Y8.449 F440
G1 X7.580 Y8.511 F440
G1 X7.719 Y8.560 F440
G1 X7.861 Y8.595 F440
G1 X8.006 Y8.617 F440
G1 X8.153 Y8.624 F440
G1 X8.300 Y8.617 F440
G1 X8.445 Y8.595 F440
G1 X8.588 Y8.560 F440
G1 X8.726 Y8.511 F440
G1 X8.859 Y8.449 F440
G1 X8.985 Y8.374 F440
G1 X9.103 Y8.287 F440
G1 X9.212 Y8.189 F440
G1 X9.310 Y8.081 F440
G1 X9.398 Y7.964 F440
G1 X9.473 Y7.839 F440
G1 X9.536 Y7.707 F440
G1 X9.586 Y7.570 F440
G1 X9.621 Y7.428 F440
G1 X9.643 Y7.284 F440
G1 X9.650 Y7.139 F440
M5
G0 X5.189 Y1.130 F3000
M4 S10000
G1 X9.496 Y4.324 F440
G1 X9.544 Y4.366 F440
G1 X9.583 Y4.413 F440
G1 X9.612 Y4.464 F440
G1 X9.632 Y4.517 F440
G1 X9.643 Y4.571 F440
G1 X9.645 Y4.627 F440
G1 X9.640 Y4.681 F440
G1 X9.626 Y4.735 F440
G1 X9.605 Y4.786 F440
G1 X9.577 Y4.833 F440
G1 X9.542 Y4.876 F440
G1 X9.501 Y4.913 F440
G1 X9.453 Y4.944 F440
G1 X9.400 Y4.968 F440
G1 X9.341 Y4.982 F440
G1 X9.277 Y4.987 F440
G1 X0.731 Y4.987 F440
G1 X0.667 Y4.982 F440
G1 X0.608 Y4.968 F440
G1 X0.554 Y4.944 F440
G1 X0.507 Y4.913 F440
G1 X0.465 Y4.876 F440
G1 X0.430 Y4.833 F440
G1 X0.402 Y4.786 F440
G1 X0.381 Y4.735 F440
G1 X0.368 Y4.681 F440
G1 X0.362 Y4.627 F440
G1 X0.365 Y4.571 F440
G1 X0.376 Y4.517 F440
G1 X0.395 Y4.464 F440
G1 X0.424 Y4.413 F440
G1 X0.463 Y4.366 F440
G1 X0.511 Y4.324 F440
G1 X4.818 Y1.130 F440
G1 X4.839 Y1.116 F440
G1 X4.861 Y1.103 F440
G1 X4.884 Y1.093 F440
G1 X4.907 Y1.084 F440
G1 X4.931 Y1.077 F440
G1 X4.955 Y1.073 F440
G1 X4.979 Y1.070 F440
G1 X5.004 Y1.069 F440
G1 X5.028 Y1.070 F440
G1 X5.052 Y1.073 F440
G1 X5.076 Y1.077 F440
G1 X5.100 Y1.084 F440
G1 X5.123 Y1.093 F440
G1 X5.146 Y1.103 F440
G1 X5.168 Y1.116 F440
G1 X5.189 Y1.130 F440
G1 X5.189 Y1.130 F440
M5
; pasada 2/3: aplicar z_step_mm de la configuracion (ajuste manual de Z o G-code M-code segun el firmware)
G0 X0.875 Y8.931 F3000
M4 S10000
G1 X5.468 Y8.931 F440
G1 X5.521 Y8.929 F440
G1 X5.573 Y8.921 F440
G1 X5.623 Y8.908 F440
G1 X5.672 Y8.890 F440
G1 X5.718 Y8.868 F440
G1 X5.761 Y8.842 F440
G1 X5.801 Y8.811 F440
G1 X5.839 Y8.777 F440
G1 X5.872 Y8.740 F440
G1 X5.903 Y8.700 F440
G1 X5.929 Y8.657 F440
G1 X5.951 Y8.611 F440
G1 X5.969 Y8.562 F440
G1 X5.982 Y8.512 F440
G1 X5.990 Y8.460 F440
G1 X5.992 Y8.406 F440
G1 X5.992 Y5.653 F440
G1 X0.350 Y5.653 F440
G1 X0.350 Y8.406 F440
G1 X0.352 Y8.460 F440
G1 X0.360 Y8.512 F440
G1 X0.373 Y8.562 F440
G1 X0.391 Y8.611 F440
G1 X0.413 Y8.656 F440
G1 X0.439 Y8.700 F440
G1 X0.470 Y8.740 F440
G1 X0.504 Y8.777 F440
G1 X0.541 Y8.811 F440
G1 X0.581 Y8.842 F440
G1 X0.624 Y8.868 F440
G1 X0.670 Y8.890 F440
G1 X0.719 Y8.908 F440
G1 X0.769 Y8.921 F440
G1 X0.821 Y8.929 F440
G1 X0.875 Y8.931 F440
G1 X0.875 Y8.931 F440
M5
G0 X9.650 Y7.139 F3000
M4 S10000
G1 X9.643 Y6.993 F440
G1 X9.621 Y6.849 F440
G1 X9.586 Y6.707 F440
G1 X9.536 Y6.570 F440
G1 X9.473 Y6.438 F440
G1 X9.398 Y6.313 F440
G1 X9.310 Y6.196 F440
G1 X9.212 Y6.088 F440
G1 X9.103 Y5.990 F440
G1 X8.985 Y5.904 F440
G1 X8.859 Y5.829 F440
G1 X8.726 Y5.766 F440
G1 X8.588 Y5.717 F440
G1 X8.445 Y5.682 F440
G1 X8.300 Y5.660 F440
G1 X8.153 Y5.653 F440
G1 X8.006 Y5.660 F440
G1 X7.861 Y5.682 F440
G1 X7.719 Y5.717 F440
G1 X7.580 Y5.766 F440
G1 X7.447 Y5.829 F440
G1 X7.321 Y5.904 F440
G1 X7.203 Y5.990 F440
G1 X7.094 Y6.088 F440
G1 X6.996 Y6.196 F440
G1 X6.908 Y6.313 F440
G1 X6.833 Y6.438 F440
G1 X6.770 Y6.570 F440
G1 X6.720 Y6.707 F440
G1 X6.685 Y6.849 F440
G1 X6.663 Y6.993 F440
G1 X6.656 Y7.139 F440
G1 X6.663 Y7.284 F440
G1 X6.685 Y7.428 F440
G1 X6.720 Y7.570 F440
G1 X6.770 Y7.707 F440
G1 X6.833 Y7.839 F440
G1 X6.908 Y7.964 F440
G1 X6.996 Y8.081 F440
G1 X7.094 Y8.189 F440
G1 X7.203 Y8.287 F440
G1 X7.321 Y8.374 F440
G1 X7.447 Y8.449 F440
G1 X7.580 Y8.511 F440
G1 X7.719 Y8.560 F440
G1 X7.861 Y8.595 F440
G1 X8.006 Y8.617 F440
G1 X8.153 Y8.624 F440
G1 X8.300 Y8.617 F440
G1 X8.445 Y8.595 F440
G1 X8.588 Y8.560 F440
G1 X8.726 Y8.511 F440
G1 X8.859 Y8.449 F440
G1 X8.985 Y8.374 F440
G1 X9.103 Y8.287 F440
G1 X9.212 Y8.189 F440
G1 X9.310 Y8.081 F440
G1 X9.398 Y7.964 F440
G1 X9.473 Y7.839 F440
G1 X9.536 Y7.707 F440
G1 X9.586 Y7.570 F440
G1 X9.621 Y7.428 F440
G1 X9.643 Y7.284 F440
G1 X9.650 Y7.139 F440
M5
G0 X5.189 Y1.130 F3000
M4 S10000
G1 X9.496 Y4.324 F440
G1 X9.544 Y4.366 F440
G1 X9.583 Y4.413 F440
G1 X9.612 Y4.464 F440
G1 X9.632 Y4.517 F440
G1 X9.643 Y4.571 F440
G1 X9.645 Y4.627 F440
G1 X9.640 Y4.681 F440
G1 X9.626 Y4.735 F440
G1 X9.605 Y4.786 F440
G1 X9.577 Y4.833 F440
G1 X9.542 Y4.876 F440
G1 X9.501 Y4.913 F440
G1 X9.453 Y4.944 F440
G1 X9.400 Y4.968 F440
G1 X9.341 Y4.982 F440
G1 X9.277 Y4.987 F440
G1 X0.731 Y4.987 F440
G1 X0.667 Y4.982 F440
G1 X0.608 Y4.968 F440
G1 X0.554 Y4.944 F440
G1 X0.507 Y4.913 F440
G1 X0.465 Y4.876 F440
G1 X0.430 Y4.833 F440
G1 X0.402 Y4.786 F440
G1 X0.381 Y4.735 F440
G1 X0.368 Y4.681 F440
G1 X0.362 Y4.627 F440
G1 X0.365 Y4.571 F440
G1 X0.376 Y4.517 F440
G1 X0.395 Y4.464 F440
G1 X0.424 Y4.413 F440
G1 X0.463 Y4.366 F440
G1 X0.511 Y4.324 F440
G1 X4.818 Y1.130 F440
G1 X4.839 Y1.116 F440
G1 X4.861 Y1.103 F440
G1 X4.884 Y1.093 F440
G1 X4.907 Y1.084 F440
G1 X4.931 Y1.077 F440
G1 X4.955 Y1.073 F440
G1 X4.979 Y1.070 F440
G1 X5.004 Y1.069 F440
G1 X5.028 Y1.070 F440
G1 X5.052 Y1.073 F440
G1 X5.076 Y1.077 F440
G1 X5.100 Y1.084 F440
G1 X5.123 Y1.093 F440
G1 X5.146 Y1.103 F440
G1 X5.168 Y1.116 F440
G1 X5.189 Y1.130 F440
G1 X5.189 Y1.130 F440
M5
; pasada 3/3: aplicar z_step_mm de la configuracion (ajuste manual de Z o G-code M-code segun el firmware)
G0 X0.875 Y8.931 F3000
M4 S10000
G1 X5.468 Y8.931 F440
G1 X5.521 Y8.929 F440
G1 X5.573 Y8.921 F440
G1 X5.623 Y8.908 F440
G1 X5.672 Y8.890 F440
G1 X5.718 Y8.868 F440
G1 X5.761 Y8.842 F440
G1 X5.801 Y8.811 F440
G1 X5.839 Y8.777 F440
G1 X5.872 Y8.740 F440
G1 X5.903 Y8.700 F440
G1 X5.929 Y8.657 F440
G1 X5.951 Y8.611 F440
G1 X5.969 Y8.562 F440
G1 X5.982 Y8.512 F440
G1 X5.990 Y8.460 F440
G1 X5.992 Y8.406 F440
G1 X5.992 Y5.653 F440
G1 X0.350 Y5.653 F440
G1 X0.350 Y8.406 F440
G1 X0.352 Y8.460 F440
G1 X0.360 Y8.512 F440
G1 X0.373 Y8.562 F440
G1 X0.391 Y8.611 F440
G1 X0.413 Y8.656 F440
G1 X0.439 Y8.700 F440
G1 X0.470 Y8.740 F440
G1 X0.504 Y8.777 F440
G1 X0.541 Y8.811 F440
G1 X0.581 Y8.842 F440
G1 X0.624 Y8.868 F440
G1 X0.670 Y8.890 F440
G1 X0.719 Y8.908 F440
G1 X0.769 Y8.921 F440
G1 X0.821 Y8.929 F440
G1 X0.875 Y8.931 F440
G1 X0.875 Y8.931 F440
M5
G0 X9.650 Y7.139 F3000
M4 S10000
G1 X9.643 Y6.993 F440
G1 X9.621 Y6.849 F440
G1 X9.586 Y6.707 F440
G1 X9.536 Y6.570 F440
G1 X9.473 Y6.438 F440
G1 X9.398 Y6.313 F440
G1 X9.310 Y6.196 F440
G1 X9.212 Y6.088 F440
G1 X9.103 Y5.990 F440
G1 X8.985 Y5.904 F440
G1 X8.859 Y5.829 F440
G1 X8.726 Y5.766 F440
G1 X8.588 Y5.717 F440
G1 X8.445 Y5.682 F440
G1 X8.300 Y5.660 F440
G1 X8.153 Y5.653 F440
G1 X8.006 Y5.660 F440
G1 X7.861 Y5.682 F440
G1 X7.719 Y5.717 F440
G1 X7.580 Y5.766 F440
G1 X7.447 Y5.829 F440
G1 X7.321 Y5.904 F440
G1 X7.203 Y5.990 F440
G1 X7.094 Y6.088 F440
G1 X6.996 Y6.196 F440
G1 X6.908 Y6.313 F440
G1 X6.833 Y6.438 F440
G1 X6.770 Y6.570 F440
G1 X6.720 Y6.707 F440
G1 X6.685 Y6.849 F440
G1 X6.663 Y6.993 F440
G1 X6.656 Y7.139 F440
G1 X6.663 Y7.284 F440
G1 X6.685 Y7.428 F440
G1 X6.720 Y7.570 F440
G1 X6.770 Y7.707 F440
G1 X6.833 Y7.839 F440
G1 X6.908 Y7.964 F440
G1 X6.996 Y8.081 F440
G1 X7.094 Y8.189 F440
G1 X7.203 Y8.287 F440
G1 X7.321 Y8.374 F440
G1 X7.447 Y8.449 F440
G1 X7.580 Y8.511 F440
G1 X7.719 Y8.560 F440
G1 X7.861 Y8.595 F440
G1 X8.006 Y8.617 F440
G1 X8.153 Y8.624 F440
G1 X8.300 Y8.617 F440
G1 X8.445 Y8.595 F440
G1 X8.588 Y8.560 F440
G1 X8.726 Y8.511 F440
G1 X8.859 Y8.449 F440
G1 X8.985 Y8.374 F440
G1 X9.103 Y8.287 F440
G1 X9.212 Y8.189 F440
G1 X9.310 Y8.081 F440
G1 X9.398 Y7.964 F440
G1 X9.473 Y7.839 F440
G1 X9.536 Y7.707 F440
G1 X9.586 Y7.570 F440
G1 X9.621 Y7.428 F440
G1 X9.643 Y7.284 F440
G1 X9.650 Y7.139 F440
M5
G0 X5.189 Y1.130 F3000
M4 S10000
G1 X9.496 Y4.324 F440
G1 X9.544 Y4.366 F440
G1 X9.583 Y4.413 F440
G1 X9.612 Y4.464 F440
G1 X9.632 Y4.517 F440
G1 X9.643 Y4.571 F440
G1 X9.645 Y4.627 F440
G1 X9.640 Y4.681 F440
G1 X9.626 Y4.735 F440
G1 X9.605 Y4.786 F440
G1 X9.577 Y4.833 F440
G1 X9.542 Y4.876 F440
G1 X9.501 Y4.913 F440
G1 X9.453 Y4.944 F440
G1 X9.400 Y4.968 F440
G1 X9.341 Y4.982 F440
G1 X9.277 Y4.987 F440
G1 X0.731 Y4.987 F440
G1 X0.667 Y4.982 F440
G1 X0.608 Y4.968 F440
G1 X0.554 Y4.944 F440
G1 X0.507 Y4.913 F440
G1 X0.465 Y4.876 F440
G1 X0.430 Y4.833 F440
G1 X0.402 Y4.786 F440
G1 X0.381 Y4.735 F440
G1 X0.368 Y4.681 F440
G1 X0.362 Y4.627 F440
G1 X0.365 Y4.571 F440
G1 X0.376 Y4.517 F440
G1 X0.395 Y4.464 F440
G1 X0.424 Y4.413 F440
G1 X0.463 Y4.366 F440
G1 X0.511 Y4.324 F440
G1 X4.818 Y1.130 F440
G1 X4.839 Y1.116 F440
G1 X4.861 Y1.103 F440
G1 X4.884 Y1.093 F440
G1 X4.907 Y1.084 F440
G1 X4.931 Y1.077 F440
G1 X4.955 Y1.073 F440
G1 X4.979 Y1.070 F440
G1 X5.004 Y1.069 F440
G1 X5.028 Y1.070 F440
G1 X5.052 Y1.073 F440
G1 X5.076 Y1.077 F440
G1 X5.100 Y1.084 F440
G1 X5.123 Y1.093 F440
G1 X5.146 Y1.103 F440
G1 X5.168 Y1.116 F440
G1 X5.189 Y1.130 F440
G1 X5.189 Y1.130 F440
M5
G0 X0.000 Y15.000 F3000
M4 S2000
G1 X1.200 Y15.000 F1500
M5
G0 X0.000 Y15.000 F3000
M4 S2000
G1 X0.000 Y14.000 F1500
M5
G0 X0.000 Y14.000 F3000
M4 S2000
G1 X0.000 Y13.000 F1500
M5
G0 X0.000 Y13.000 F3000
M4 S2000
G1 X1.200 Y13.000 F1500
M5
G0 X1.600 Y14.000 F3000
M4 S2000
G1 X2.800 Y14.000 F1500
M5
G0 X3.200 Y15.000 F3000
M4 S2000
G1 X4.400 Y15.000 F1500
M5
G0 X4.400 Y15.000 F3000
M4 S2000
G1 X4.400 Y14.000 F1500
M5
G0 X4.400 Y14.000 F3000
M4 S2000
G1 X4.400 Y13.000 F1500
M5
G0 X3.200 Y13.000 F3000
M4 S2000
G1 X4.400 Y13.000 F1500
M5
G0 X3.200 Y14.000 F3000
M4 S2000
G1 X3.200 Y13.000 F1500
M5
G0 X3.200 Y15.000 F3000
M4 S2000
G1 X3.200 Y14.000 F1500
M5
G0 X4.800 Y15.000 F3000
M4 S2000
G1 X6.000 Y15.000 F1500
M5
G0 X6.000 Y15.000 F3000
M4 S2000
G1 X6.000 Y14.000 F1500
M5
G0 X6.000 Y14.000 F3000
M4 S2000
G1 X6.000 Y13.000 F1500
M5
G0 X4.800 Y13.000 F3000
M4 S2000
G1 X6.000 Y13.000 F1500
M5
G0 X4.800 Y14.000 F3000
M4 S2000
G1 X4.800 Y13.000 F1500
M5
G0 X4.800 Y15.000 F3000
M4 S2000
G1 X4.800 Y14.000 F1500
M5
G0 X7.600 Y15.000 F3000
M4 S2000
G1 X7.600 Y14.000 F1500
M5
G0 X7.600 Y14.000 F3000
M4 S2000
G1 X7.600 Y13.000 F1500
M5
G0 X14.375 Y8.931 F3000
M4 S10000
G1 X18.968 Y8.931 F500
G1 X19.021 Y8.929 F500
G1 X19.073 Y8.921 F500
G1 X19.123 Y8.908 F500
G1 X19.172 Y8.890 F500
G1 X19.218 Y8.868 F500
G1 X19.261 Y8.842 F500
G1 X19.301 Y8.811 F500
G1 X19.339 Y8.777 F500
G1 X19.372 Y8.740 F500
G1 X19.403 Y8.700 F500
G1 X19.429 Y8.657 F500
G1 X19.451 Y8.611 F500
G1 X19.469 Y8.562 F500
G1 X19.482 Y8.512 F500
G1 X19.490 Y8.460 F500
G1 X19.492 Y8.406 F500
G1 X19.492 Y5.653 F500
G1 X13.850 Y5.653 F500
G1 X13.850 Y8.406 F500
G1 X13.852 Y8.460 F500
G1 X13.860 Y8.512 F500
G1 X13.873 Y8.562 F500
G1 X13.891 Y8.611 F500
G1 X13.913 Y8.656 F500
G1 X13.939 Y8.700 F500
G1 X13.970 Y8.740 F500
G1 X14.004 Y8.777 F500
G1 X14.041 Y8.811 F500
G1 X14.081 Y8.842 F500
G1 X14.124 Y8.868 F500
G1 X14.170 Y8.890 F500
G1 X14.219 Y8.908 F500
G1 X14.269 Y8.921 F500
G1 X14.321 Y8.929 F500
G1 X14.375 Y8.931 F500
G1 X14.375 Y8.931 F500
M5
G0 X23.150 Y7.139 F3000
M4 S10000
G1 X23.143 Y6.993 F500
G1 X23.121 Y6.849 F500
G1 X23.086 Y6.707 F500
G1 X23.036 Y6.570 F500
G1 X22.973 Y6.438 F500
G1 X22.898 Y6.313 F500
G1 X22.810 Y6.196 F500
G1 X22.712 Y6.088 F500
G1 X22.603 Y5.990 F500
G1 X22.485 Y5.904 F500
G1 X22.359 Y5.829 F500
G1 X22.226 Y5.766 F500
G1 X22.088 Y5.717 F500
G1 X21.945 Y5.682 F500
G1 X21.800 Y5.660 F500
G1 X21.653 Y5.653 F500
G1 X21.506 Y5.660 F500
G1 X21.361 Y5.682 F500
G1 X21.219 Y5.717 F500
G1 X21.080 Y5.766 F500
G1 X20.947 Y5.829 F500
G1 X20.821 Y5.904 F500
G1 X20.703 Y5.990 F500
G1 X20.594 Y6.088 F500
G1 X20.496 Y6.196 F500
G1 X20.408 Y6.313 F500
G1 X20.333 Y6.438 F500
G1 X20.270 Y6.570 F500
G1 X20.220 Y6.707 F500
G1 X20.185 Y6.849 F500
G1 X20.163 Y6.993 F500
G1 X20.156 Y7.139 F500
G1 X20.163 Y7.284 F500
G1 X20.185 Y7.428 F500
G1 X20.220 Y7.570 F500
G1 X20.270 Y7.707 F500
G1 X20.333 Y7.839 F500
G1 X20.408 Y7.964 F500
G1 X20.496 Y8.081 F500
G1 X20.594 Y8.189 F500
G1 X20.703 Y8.287 F500
G1 X20.821 Y8.374 F500
G1 X20.947 Y8.449 F500
G1 X21.080 Y8.511 F500
G1 X21.219 Y8.560 F500
G1 X21.361 Y8.595 F500
G1 X21.506 Y8.617 F500
G1 X21.653 Y8.624 F500
G1 X21.800 Y8.617 F500
G1 X21.945 Y8.595 F500
G1 X22.088 Y8.560 F500
G1 X22.226 Y8.511 F500
G1 X22.359 Y8.449 F500
G1 X22.485 Y8.374 F500
G1 X22.603 Y8.287 F500
G1 X22.712 Y8.189 F500
G1 X22.810 Y8.081 F500
G1 X22.898 Y7.964 F500
G1 X22.973 Y7.839 F500
G1 X23.036 Y7.707 F500
G1 X23.086 Y7.570 F500
G1 X23.121 Y7.428 F500
G1 X23.143 Y7.284 F500
G1 X23.150 Y7.139 F500
M5
G0 X18.689 Y1.130 F3000
M4 S10000
G1 X22.996 Y4.324 F500
G1 X23.044 Y4.366 F500
G1 X23.083 Y4.413 F500
G1 X23.112 Y4.464 F500
G1 X23.132 Y4.517 F500
G1 X23.143 Y4.571 F500
G1 X23.145 Y4.627 F500
G1 X23.140 Y4.681 F500
G1 X23.126 Y4.735 F500
G1 X23.105 Y4.786 F500
G1 X23.077 Y4.833 F500
G1 X23.042 Y4.876 F500
G1 X23.001 Y4.913 F500
G1 X22.953 Y4.944 F500
G1 X22.900 Y4.968 F500
G1 X22.841 Y4.982 F500
G1 X22.777 Y4.987 F500
G1 X14.231 Y4.987 F500
G1 X14.167 Y4.982 F500
G1 X14.108 Y4.968 F500
G1 X14.054 Y4.944 F500
G1 X14.007 Y4.913 F500
G1 X13.965 Y4.876 F500
G1 X13.930 Y4.833 F500
G1 X13.902 Y4.786 F500
G1 X13.881 Y4.735 F500
G1 X13.868 Y4.681 F500
G1 X13.862 Y4.627 F500
G1 X13.865 Y4.571 F500
G1 X13.876 Y4.517 F500
G1 X13.895 Y4.464 F500
G1 X13.924 Y4.413 F500
G1 X13.963 Y4.366 F500
G1 X14.011 Y4.324 F500
G1 X18.318 Y1.130 F500
G1 X18.339 Y1.116 F500
G1 X18.361 Y1.103 F500
G1 X18.384 Y1.093 F500
G1 X18.407 Y1.084 F500
G1 X18.431 Y1.077 F500
G1 X18.455 Y1.073 F500
G1 X18.479 Y1.070 F500
G1 X18.504 Y1.069 F500
G1 X18.528 Y1.070 F500
G1 X18.552 Y1.073 F500
G1 X18.576 Y1.077 F500
G1 X18.600 Y1.084 F500
G1 X18.623 Y1.093 F500
G1 X18.646 Y1.103 F500
G1 X18.668 Y1.116 F500
G1 X18.689 Y1.130 F500
G1 X18.689 Y1.130 F500
M5
; pasada 2/3: aplicar z_step_mm de la configuracion (ajuste manual de Z o G-code M-code segun el firmware)
G0 X14.375 Y8.931 F3000
M4 S10000
G1 X18.968 Y8.931 F500
G1 X19.021 Y8.929 F500
G1 X19.073 Y8.921 F500
G1 X19.123 Y8.908 F500
G1 X19.172 Y8.890 F500
G1 X19.218 Y8.868 F500
G1 X19.261 Y8.842 F500
G1 X19.301 Y8.811 F500
G1 X19.339 Y8.777 F500
G1 X19.372 Y8.740 F500
G1 X19.403 Y8.700 F500
G1 X19.429 Y8.657 F500
G1 X19.451 Y8.611 F500
G1 X19.469 Y8.562 F500
G1 X19.482 Y8.512 F500
G1 X19.490 Y8.460 F500
G1 X19.492 Y8.406 F500
G1 X19.492 Y5.653 F500
G1 X13.850 Y5.653 F500
G1 X13.850 Y8.406 F500
G1 X13.852 Y8.460 F500
G1 X13.860 Y8.512 F500
G1 X13.873 Y8.562 F500
G1 X13.891 Y8.611 F500
G1 X13.913 Y8.656 F500
G1 X13.939 Y8.700 F500
G1 X13.970 Y8.740 F500
G1 X14.004 Y8.777 F500
G1 X14.041 Y8.811 F500
G1 X14.081 Y8.842 F500
G1 X14.124 Y8.868 F500
G1 X14.170 Y8.890 F500
G1 X14.219 Y8.908 F500
G1 X14.269 Y8.921 F500
G1 X14.321 Y8.929 F500
G1 X14.375 Y8.931 F500
G1 X14.375 Y8.931 F500
M5
G0 X23.150 Y7.139 F3000
M4 S10000
G1 X23.143 Y6.993 F500
G1 X23.121 Y6.849 F500
G1 X23.086 Y6.707 F500
G1 X23.036 Y6.570 F500
G1 X22.973 Y6.438 F500
G1 X22.898 Y6.313 F500
G1 X22.810 Y6.196 F500
G1 X22.712 Y6.088 F500
G1 X22.603 Y5.990 F500
G1 X22.485 Y5.904 F500
G1 X22.359 Y5.829 F500
G1 X22.226 Y5.766 F500
G1 X22.088 Y5.717 F500
G1 X21.945 Y5.682 F500
G1 X21.800 Y5.660 F500
G1 X21.653 Y5.653 F500
G1 X21.506 Y5.660 F500
G1 X21.361 Y5.682 F500
G1 X21.219 Y5.717 F500
G1 X21.080 Y5.766 F500
G1 X20.947 Y5.829 F500
G1 X20.821 Y5.904 F500
G1 X20.703 Y5.990 F500
G1 X20.594 Y6.088 F500
G1 X20.496 Y6.196 F500
G1 X20.408 Y6.313 F500
G1 X20.333 Y6.438 F500
G1 X20.270 Y6.570 F500
G1 X20.220 Y6.707 F500
G1 X20.185 Y6.849 F500
G1 X20.163 Y6.993 F500
G1 X20.156 Y7.139 F500
G1 X20.163 Y7.284 F500
G1 X20.185 Y7.428 F500
G1 X20.220 Y7.570 F500
G1 X20.270 Y7.707 F500
G1 X20.333 Y7.839 F500
G1 X20.408 Y7.964 F500
G1 X20.496 Y8.081 F500
G1 X20.594 Y8.189 F500
G1 X20.703 Y8.287 F500
G1 X20.821 Y8.374 F500
G1 X20.947 Y8.449 F500
G1 X21.080 Y8.511 F500
G1 X21.219 Y8.560 F500
G1 X21.361 Y8.595 F500
G1 X21.506 Y8.617 F500
G1 X21.653 Y8.624 F500
G1 X21.800 Y8.617 F500
G1 X21.945 Y8.595 F500
G1 X22.088 Y8.560 F500
G1 X22.226 Y8.511 F500
G1 X22.359 Y8.449 F500
G1 X22.485 Y8.374 F500
G1 X22.603 Y8.287 F500
G1 X22.712 Y8.189 F500
G1 X22.810 Y8.081 F500
G1 X22.898 Y7.964 F500
G1 X22.973 Y7.839 F500
G1 X23.036 Y7.707 F500
G1 X23.086 Y7.570 F500
G1 X23.121 Y7.428 F500
G1 X23.143 Y7.284 F500
G1 X23.150 Y7.139 F500
M5
G0 X18.689 Y1.130 F3000
M4 S10000
G1 X22.996 Y4.324 F500
G1 X23.044 Y4.366 F500
G1 X23.083 Y4.413 F500
G1 X23.112 Y4.464 F500
G1 X23.132 Y4.517 F500
G1 X23.143 Y4.571 F500
G1 X23.145 Y4.627 F500
G1 X23.140 Y4.681 F500
G1 X23.126 Y4.735 F500
G1 X23.105 Y4.786 F500
G1 X23.077 Y4.833 F500
G1 X23.042 Y4.876 F500
G1 X23.001 Y4.913 F500
G1 X22.953 Y4.944 F500
G1 X22.900 Y4.968 F500
G1 X22.841 Y4.982 F500
G1 X22.777 Y4.987 F500
G1 X14.231 Y4.987 F500
G1 X14.167 Y4.982 F500
G1 X14.108 Y4.968 F500
G1 X14.054 Y4.944 F500
G1 X14.007 Y4.913 F500
G1 X13.965 Y4.876 F500
G1 X13.930 Y4.833 F500
G1 X13.902 Y4.786 F500
G1 X13.881 Y4.735 F500
G1 X13.868 Y4.681 F500
G1 X13.862 Y4.627 F500
G1 X13.865 Y4.571 F500
G1 X13.876 Y4.517 F500
G1 X13.895 Y4.464 F500
G1 X13.924 Y4.413 F500
G1 X13.963 Y4.366 F500
G1 X14.011 Y4.324 F500
G1 X18.318 Y1.130 F500
G1 X18.339 Y1.116 F500
G1 X18.361 Y1.103 F500
G1 X18.384 Y1.093 F500
G1 X18.407 Y1.084 F500
G1 X18.431 Y1.077 F500
G1 X18.455 Y1.073 F500
G1 X18.479 Y1.070 F500
G1 X18.504 Y1.069 F500
G1 X18.528 Y1.070 F500
G1 X18.552 Y1.073 F500
G1 X18.576 Y1.077 F500
G1 X18.600 Y1.084 F500
G1 X18.623 Y1.093 F500
G1 X18.646 Y1.103 F500
G1 X18.668 Y1.116 F500
G1 X18.689 Y1.130 F500
G1 X18.689 Y1.130 F500
M5
; pasada 3/3: aplicar z_step_mm de la configuracion (ajuste manual de Z o G-code M-code segun el firmware)
G0 X14.375 Y8.931 F3000
M4 S10000
G1 X18.968 Y8.931 F500
G1 X19.021 Y8.929 F500
G1 X19.073 Y8.921 F500
G1 X19.123 Y8.908 F500
G1 X19.172 Y8.890 F500
G1 X19.218 Y8.868 F500
G1 X19.261 Y8.842 F500
G1 X19.301 Y8.811 F500
G1 X19.339 Y8.777 F500
G1 X19.372 Y8.740 F500
G1 X19.403 Y8.700 F500
G1 X19.429 Y8.657 F500
G1 X19.451 Y8.611 F500
G1 X19.469 Y8.562 F500
G1 X19.482 Y8.512 F500
G1 X19.490 Y8.460 F500
G1 X19.492 Y8.406 F500
G1 X19.492 Y5.653 F500
G1 X13.850 Y5.653 F500
G1 X13.850 Y8.406 F500
G1 X13.852 Y8.460 F500
G1 X13.860 Y8.512 F500
G1 X13.873 Y8.562 F500
G1 X13.891 Y8.611 F500
G1 X13.913 Y8.656 F500
G1 X13.939 Y8.700 F500
G1 X13.970 Y8.740 F500
G1 X14.004 Y8.777 F500
G1 X14.041 Y8.811 F500
G1 X14.081 Y8.842 F500
G1 X14.124 Y8.868 F500
G1 X14.170 Y8.890 F500
G1 X14.219 Y8.908 F500
G1 X14.269 Y8.921 F500
G1 X14.321 Y8.929 F500
G1 X14.375 Y8.931 F500
G1 X14.375 Y8.931 F500
M5
G0 X23.150 Y7.139 F3000
M4 S10000
G1 X23.143 Y6.993 F500
G1 X23.121 Y6.849 F500
G1 X23.086 Y6.707 F500
G1 X23.036 Y6.570 F500
G1 X22.973 Y6.438 F500
G1 X22.898 Y6.313 F500
G1 X22.810 Y6.196 F500
G1 X22.712 Y6.088 F500
G1 X22.603 Y5.990 F500
G1 X22.485 Y5.904 F500
G1 X22.359 Y5.829 F500
G1 X22.226 Y5.766 F500
G1 X22.088 Y5.717 F500
G1 X21.945 Y5.682 F500
G1 X21.800 Y5.660 F500
G1 X21.653 Y5.653 F500
G1 X21.506 Y5.660 F500
G1 X21.361 Y5.682 F500
G1 X21.219 Y5.717 F500
G1 X21.080 Y5.766 F500
G1 X20.947 Y5.829 F500
G1 X20.821 Y5.904 F500
G1 X20.703 Y5.990 F500
G1 X20.594 Y6.088 F500
G1 X20.496 Y6.196 F500
G1 X20.408 Y6.313 F500
G1 X20.333 Y6.438 F500
G1 X20.270 Y6.570 F500
G1 X20.220 Y6.707 F500
G1 X20.185 Y6.849 F500
G1 X20.163 Y6.993 F500
G1 X20.156 Y7.139 F500
G1 X20.163 Y7.284 F500
G1 X20.185 Y7.428 F500
G1 X20.220 Y7.570 F500
G1 X20.270 Y7.707 F500
G1 X20.333 Y7.839 F500
G1 X20.408 Y7.964 F500
G1 X20.496 Y8.081 F500
G1 X20.594 Y8.189 F500
G1 X20.703 Y8.287 F500
G1 X20.821 Y8.374 F500
G1 X20.947 Y8.449 F500
G1 X21.080 Y8.511 F500
G1 X21.219 Y8.560 F500
G1 X21.361 Y8.595 F500
G1 X21.506 Y8.617 F500
G1 X21.653 Y8.624 F500
G1 X21.800 Y8.617 F500
G1 X21.945 Y8.595 F500
G1 X22.088 Y8.560 F500
G1 X22.226 Y8.511 F500
G1 X22.359 Y8.449 F500
G1 X22.485 Y8.374 F500
G1 X22.603 Y8.287 F500
G1 X22.712 Y8.189 F500
G1 X22.810 Y8.081 F500
G1 X22.898 Y7.964 F500
G1 X22.973 Y7.839 F500
G1 X23.036 Y7.707 F500
G1 X23.086 Y7.570 F500
G1 X23.121 Y7.428 F500
G1 X23.143 Y7.284 F500
G1 X23.150 Y7.139 F500
M5
G0 X18.689 Y1.130 F3000
M4 S10000
G1 X22.996 Y4.324 F500
G1 X23.044 Y4.366 F500
G1 X23.083 Y4.413 F500
G1 X23.112 Y4.464 F500
G1 X23.132 Y4.517 F500
G1 X23.143 Y4.571 F500
G1 X23.145 Y4.627 F500
G1 X23.140 Y4.681 F500
G1 X23.126 Y4.735 F500
G1 X23.105 Y4.786 F500
G1 X23.077 Y4.833 F500
G1 X23.042 Y4.876 F500
G1 X23.001 Y4.913 F500
G1 X22.953 Y4.944 F500
G1 X22.900 Y4.968 F500
G1 X22.841 Y4.982 F500
G1 X22.777 Y4.987 F500
G1 X14.231 Y4.987 F500
G1 X14.167 Y4.982 F500
G1 X14.108 Y4.968 F500
G1 X14.054 Y4.944 F500
G1 X14.007 Y4.913 F500
G1 X13.965 Y4.876 F500
G1 X13.930 Y4.833 F500
G1 X13.902 Y4.786 F500
G1 X13.881 Y4.735 F500
G1 X13.868 Y4.681 F500
G1 X13.862 Y4.627 F500
G1 X13.865 Y4.571 F500
G1 X13.876 Y4.517 F500
G1 X13.895 Y4.464 F500
G1 X13.924 Y4.413 F500
G1 X13.963 Y4.366 F500
G1 X14.011 Y4.324 F500
G1 X18.318 Y1.130 F500
G1 X18.339 Y1.116 F500
G1 X18.361 Y1.103 F500
G1 X18.384 Y1.093 F500
G1 X18.407 Y1.084 F500
G1 X18.431 Y1.077 F500
G1 X18.455 Y1.073 F500
G1 X18.479 Y1.070 F500
G1 X18.504 Y1.069 F500
G1 X18.528 Y1.070 F500
G1 X18.552 Y1.073 F500
G1 X18.576 Y1.077 F500
G1 X18.600 Y1.084 F500
G1 X18.623 Y1.093 F500
G1 X18.646 Y1.103 F500
G1 X18.668 Y1.116 F500
G1 X18.689 Y1.130 F500
G1 X18.689 Y1.130 F500
M5
G0 X13.500 Y15.000 F3000
M4 S2000
G1 X14.700 Y15.000 F1500
M5
G0 X13.500 Y15.000 F3000
M4 S2000
G1 X13.500 Y14.000 F1500
M5
G0 X13.500 Y14.000 F3000
M4 S2000
G1 X13.500 Y13.000 F1500
M5
G0 X13.500 Y13.000 F3000
M4 S2000
G1 X14.700 Y13.000 F1500
M5
G0 X15.100 Y14.000 F3000
M4 S2000
G1 X16.300 Y14.000 F1500
M5
G0 X16.700 Y15.000 F3000
M4 S2000
G1 X17.900 Y15.000 F1500
M5
G0 X17.900 Y15.000 F3000
M4 S2000
G1 X17.900 Y14.000 F1500
M5
G0 X17.900 Y14.000 F3000
M4 S2000
G1 X17.900 Y13.000 F1500
M5
G0 X16.700 Y13.000 F3000
M4 S2000
G1 X17.900 Y13.000 F1500
M5
G0 X16.700 Y14.000 F3000
M4 S2000
G1 X16.700 Y13.000 F1500
M5
G0 X16.700 Y15.000 F3000
M4 S2000
G1 X16.700 Y14.000 F1500
M5
G0 X18.300 Y15.000 F3000
M4 S2000
G1 X19.500 Y15.000 F1500
M5
G0 X19.500 Y15.000 F3000
M4 S2000
G1 X19.500 Y14.000 F1500
M5
G0 X19.500 Y14.000 F3000
M4 S2000
G1 X19.500 Y13.000 F1500
M5
G0 X18.300 Y13.000 F3000
M4 S2000
G1 X19.500 Y13.000 F1500
M5
G0 X18.300 Y14.000 F3000
M4 S2000
G1 X18.300 Y13.000 F1500
M5
G0 X18.300 Y15.000 F3000
M4 S2000
G1 X18.300 Y14.000 F1500
M5
G0 X19.900 Y15.000 F3000
M4 S2000
G1 X21.100 Y15.000 F1500
M5
G0 X21.100 Y15.000 F3000
M4 S2000
G1 X21.100 Y14.000 F1500
M5
G0 X19.900 Y14.000 F3000
M4 S2000
G1 X21.100 Y14.000 F1500
M5
G0 X19.900 Y14.000 F3000
M4 S2000
G1 X19.900 Y13.000 F1500
M5
G0 X19.900 Y13.000 F3000
M4 S2000
G1 X21.100 Y13.000 F1500
M5
G0 X27.875 Y8.931 F3000
M4 S10000
G1 X32.468 Y8.931 F600
G1 X32.521 Y8.929 F600
G1 X32.573 Y8.921 F600
G1 X32.623 Y8.908 F600
G1 X32.672 Y8.890 F600
G1 X32.718 Y8.868 F600
G1 X32.761 Y8.842 F600
G1 X32.801 Y8.811 F600
G1 X32.839 Y8.777 F600
G1 X32.872 Y8.740 F600
G1 X32.903 Y8.700 F600
G1 X32.929 Y8.657 F600
G1 X32.951 Y8.611 F600
G1 X32.969 Y8.562 F600
G1 X32.982 Y8.512 F600
G1 X32.990 Y8.460 F600
G1 X32.992 Y8.406 F600
G1 X32.992 Y5.653 F600
G1 X27.350 Y5.653 F600
G1 X27.350 Y8.406 F600
G1 X27.352 Y8.460 F600
G1 X27.360 Y8.512 F600
G1 X27.373 Y8.562 F600
G1 X27.391 Y8.611 F600
G1 X27.413 Y8.656 F600
G1 X27.439 Y8.700 F600
G1 X27.470 Y8.740 F600
G1 X27.504 Y8.777 F600
G1 X27.541 Y8.811 F600
G1 X27.581 Y8.842 F600
G1 X27.624 Y8.868 F600
G1 X27.670 Y8.890 F600
G1 X27.719 Y8.908 F600
G1 X27.769 Y8.921 F600
G1 X27.821 Y8.929 F600
G1 X27.875 Y8.931 F600
G1 X27.875 Y8.931 F600
M5
G0 X36.650 Y7.139 F3000
M4 S10000
G1 X36.643 Y6.993 F600
G1 X36.621 Y6.849 F600
G1 X36.586 Y6.707 F600
G1 X36.536 Y6.570 F600
G1 X36.473 Y6.438 F600
G1 X36.398 Y6.313 F600
G1 X36.310 Y6.196 F600
G1 X36.212 Y6.088 F600
G1 X36.103 Y5.990 F600
G1 X35.985 Y5.904 F600
G1 X35.859 Y5.829 F600
G1 X35.726 Y5.766 F600
G1 X35.588 Y5.717 F600
G1 X35.445 Y5.682 F600
G1 X35.300 Y5.660 F600
G1 X35.153 Y5.653 F600
G1 X35.006 Y5.660 F600
G1 X34.861 Y5.682 F600
G1 X34.719 Y5.717 F600
G1 X34.580 Y5.766 F600
G1 X34.447 Y5.829 F600
G1 X34.321 Y5.904 F600
G1 X34.203 Y5.990 F600
G1 X34.094 Y6.088 F600
G1 X33.996 Y6.196 F600
G1 X33.908 Y6.313 F600
G1 X33.833 Y6.438 F600
G1 X33.770 Y6.570 F600
G1 X33.720 Y6.707 F600
G1 X33.685 Y6.849 F600
G1 X33.663 Y6.993 F600
G1 X33.656 Y7.139 F600
G1 X33.663 Y7.284 F600
G1 X33.685 Y7.428 F600
G1 X33.720 Y7.570 F600
G1 X33.770 Y7.707 F600
G1 X33.833 Y7.839 F600
G1 X33.908 Y7.964 F600
G1 X33.996 Y8.081 F600
G1 X34.094 Y8.189 F600
G1 X34.203 Y8.287 F600
G1 X34.321 Y8.374 F600
G1 X34.447 Y8.449 F600
G1 X34.580 Y8.511 F600
G1 X34.719 Y8.560 F600
G1 X34.861 Y8.595 F600
G1 X35.006 Y8.617 F600
G1 X35.153 Y8.624 F600
G1 X35.300 Y8.617 F600
G1 X35.445 Y8.595 F600
G1 X35.588 Y8.560 F600
G1 X35.726 Y8.511 F600
G1 X35.859 Y8.449 F600
G1 X35.985 Y8.374 F600
G1 X36.103 Y8.287 F600
G1 X36.212 Y8.189 F600
G1 X36.310 Y8.081 F600
G1 X36.398 Y7.964 F600
G1 X36.473 Y7.839 F600
G1 X36.536 Y7.707 F600
G1 X36.586 Y7.570 F600
G1 X36.621 Y7.428 F600
G1 X36.643 Y7.284 F600
G1 X36.650 Y7.139 F600
M5
G0 X32.189 Y1.130 F3000
M4 S10000
G1 X36.496 Y4.324 F600
G1 X36.544 Y4.366 F600
G1 X36.583 Y4.413 F600
G1 X36.612 Y4.464 F600
G1 X36.632 Y4.517 F600
G1 X36.643 Y4.571 F600
G1 X36.645 Y4.627 F600
G1 X36.640 Y4.681 F600
G1 X36.626 Y4.735 F600
G1 X36.605 Y4.786 F600
G1 X36.577 Y4.833 F600
G1 X36.542 Y4.876 F600
G1 X36.501 Y4.913 F600
G1 X36.453 Y4.944 F600
G1 X36.400 Y4.968 F600
G1 X36.341 Y4.982 F600
G1 X36.277 Y4.987 F600
G1 X27.731 Y4.987 F600
G1 X27.667 Y4.982 F600
G1 X27.608 Y4.968 F600
G1 X27.554 Y4.944 F600
G1 X27.507 Y4.913 F600
G1 X27.465 Y4.876 F600
G1 X27.430 Y4.833 F600
G1 X27.402 Y4.786 F600
G1 X27.381 Y4.735 F600
G1 X27.368 Y4.681 F600
G1 X27.362 Y4.627 F600
G1 X27.365 Y4.571 F600
G1 X27.376 Y4.517 F600
G1 X27.395 Y4.464 F600
G1 X27.424 Y4.413 F600
G1 X27.463 Y4.366 F600
G1 X27.511 Y4.324 F600
G1 X31.818 Y1.130 F600
G1 X31.839 Y1.116 F600
G1 X31.861 Y1.103 F600
G1 X31.884 Y1.093 F600
G1 X31.907 Y1.084 F600
G1 X31.931 Y1.077 F600
G1 X31.955 Y1.073 F600
G1 X31.979 Y1.070 F600
G1 X32.004 Y1.069 F600
G1 X32.028 Y1.070 F600
G1 X32.052 Y1.073 F600
G1 X32.076 Y1.077 F600
G1 X32.100 Y1.084 F600
G1 X32.123 Y1.093 F600
G1 X32.146 Y1.103 F600
G1 X32.168 Y1.116 F600
G1 X32.189 Y1.130 F600
G1 X32.189 Y1.130 F600
M5
; pasada 2/3: aplicar z_step_mm de la configuracion (ajuste manual de Z o G-code M-code segun el firmware)
G0 X27.875 Y8.931 F3000
M4 S10000
G1 X32.468 Y8.931 F600
G1 X32.521 Y8.929 F600
G1 X32.573 Y8.921 F600
G1 X32.623 Y8.908 F600
G1 X32.672 Y8.890 F600
G1 X32.718 Y8.868 F600
G1 X32.761 Y8.842 F600
G1 X32.801 Y8.811 F600
G1 X32.839 Y8.777 F600
G1 X32.872 Y8.740 F600
G1 X32.903 Y8.700 F600
G1 X32.929 Y8.657 F600
G1 X32.951 Y8.611 F600
G1 X32.969 Y8.562 F600
G1 X32.982 Y8.512 F600
G1 X32.990 Y8.460 F600
G1 X32.992 Y8.406 F600
G1 X32.992 Y5.653 F600
G1 X27.350 Y5.653 F600
G1 X27.350 Y8.406 F600
G1 X27.352 Y8.460 F600
G1 X27.360 Y8.512 F600
G1 X27.373 Y8.562 F600
G1 X27.391 Y8.611 F600
G1 X27.413 Y8.656 F600
G1 X27.439 Y8.700 F600
G1 X27.470 Y8.740 F600
G1 X27.504 Y8.777 F600
G1 X27.541 Y8.811 F600
G1 X27.581 Y8.842 F600
G1 X27.624 Y8.868 F600
G1 X27.670 Y8.890 F600
G1 X27.719 Y8.908 F600
G1 X27.769 Y8.921 F600
G1 X27.821 Y8.929 F600
G1 X27.875 Y8.931 F600
G1 X27.875 Y8.931 F600
M5
G0 X36.650 Y7.139 F3000
M4 S10000
G1 X36.643 Y6.993 F600
G1 X36.621 Y6.849 F600
G1 X36.586 Y6.707 F600
G1 X36.536 Y6.570 F600
G1 X36.473 Y6.438 F600
G1 X36.398 Y6.313 F600
G1 X36.310 Y6.196 F600
G1 X36.212 Y6.088 F600
G1 X36.103 Y5.990 F600
G1 X35.985 Y5.904 F600
G1 X35.859 Y5.829 F600
G1 X35.726 Y5.766 F600
G1 X35.588 Y5.717 F600
G1 X35.445 Y5.682 F600
G1 X35.300 Y5.660 F600
G1 X35.153 Y5.653 F600
G1 X35.006 Y5.660 F600
G1 X34.861 Y5.682 F600
G1 X34.719 Y5.717 F600
G1 X34.580 Y5.766 F600
G1 X34.447 Y5.829 F600
G1 X34.321 Y5.904 F600
G1 X34.203 Y5.990 F600
G1 X34.094 Y6.088 F600
G1 X33.996 Y6.196 F600
G1 X33.908 Y6.313 F600
G1 X33.833 Y6.438 F600
G1 X33.770 Y6.570 F600
G1 X33.720 Y6.707 F600
G1 X33.685 Y6.849 F600
G1 X33.663 Y6.993 F600
G1 X33.656 Y7.139 F600
G1 X33.663 Y7.284 F600
G1 X33.685 Y7.428 F600
G1 X33.720 Y7.570 F600
G1 X33.770 Y7.707 F600
G1 X33.833 Y7.839 F600
G1 X33.908 Y7.964 F600
G1 X33.996 Y8.081 F600
G1 X34.094 Y8.189 F600
G1 X34.203 Y8.287 F600
G1 X34.321 Y8.374 F600
G1 X34.447 Y8.449 F600
G1 X34.580 Y8.511 F600
G1 X34.719 Y8.560 F600
G1 X34.861 Y8.595 F600
G1 X35.006 Y8.617 F600
G1 X35.153 Y8.624 F600
G1 X35.300 Y8.617 F600
G1 X35.445 Y8.595 F600
G1 X35.588 Y8.560 F600
G1 X35.726 Y8.511 F600
G1 X35.859 Y8.449 F600
G1 X35.985 Y8.374 F600
G1 X36.103 Y8.287 F600
G1 X36.212 Y8.189 F600
G1 X36.310 Y8.081 F600
G1 X36.398 Y7.964 F600
G1 X36.473 Y7.839 F600
G1 X36.536 Y7.707 F600
G1 X36.586 Y7.570 F600
G1 X36.621 Y7.428 F600
G1 X36.643 Y7.284 F600
G1 X36.650 Y7.139 F600
M5
G0 X32.189 Y1.130 F3000
M4 S10000
G1 X36.496 Y4.324 F600
G1 X36.544 Y4.366 F600
G1 X36.583 Y4.413 F600
G1 X36.612 Y4.464 F600
G1 X36.632 Y4.517 F600
G1 X36.643 Y4.571 F600
G1 X36.645 Y4.627 F600
G1 X36.640 Y4.681 F600
G1 X36.626 Y4.735 F600
G1 X36.605 Y4.786 F600
G1 X36.577 Y4.833 F600
G1 X36.542 Y4.876 F600
G1 X36.501 Y4.913 F600
G1 X36.453 Y4.944 F600
G1 X36.400 Y4.968 F600
G1 X36.341 Y4.982 F600
G1 X36.277 Y4.987 F600
G1 X27.731 Y4.987 F600
G1 X27.667 Y4.982 F600
G1 X27.608 Y4.968 F600
G1 X27.554 Y4.944 F600
G1 X27.507 Y4.913 F600
G1 X27.465 Y4.876 F600
G1 X27.430 Y4.833 F600
G1 X27.402 Y4.786 F600
G1 X27.381 Y4.735 F600
G1 X27.368 Y4.681 F600
G1 X27.362 Y4.627 F600
G1 X27.365 Y4.571 F600
G1 X27.376 Y4.517 F600
G1 X27.395 Y4.464 F600
G1 X27.424 Y4.413 F600
G1 X27.463 Y4.366 F600
G1 X27.511 Y4.324 F600
G1 X31.818 Y1.130 F600
G1 X31.839 Y1.116 F600
G1 X31.861 Y1.103 F600
G1 X31.884 Y1.093 F600
G1 X31.907 Y1.084 F600
G1 X31.931 Y1.077 F600
G1 X31.955 Y1.073 F600
G1 X31.979 Y1.070 F600
G1 X32.004 Y1.069 F600
G1 X32.028 Y1.070 F600
G1 X32.052 Y1.073 F600
G1 X32.076 Y1.077 F600
G1 X32.100 Y1.084 F600
G1 X32.123 Y1.093 F600
G1 X32.146 Y1.103 F600
G1 X32.168 Y1.116 F600
G1 X32.189 Y1.130 F600
G1 X32.189 Y1.130 F600
M5
; pasada 3/3: aplicar z_step_mm de la configuracion (ajuste manual de Z o G-code M-code segun el firmware)
G0 X27.875 Y8.931 F3000
M4 S10000
G1 X32.468 Y8.931 F600
G1 X32.521 Y8.929 F600
G1 X32.573 Y8.921 F600
G1 X32.623 Y8.908 F600
G1 X32.672 Y8.890 F600
G1 X32.718 Y8.868 F600
G1 X32.761 Y8.842 F600
G1 X32.801 Y8.811 F600
G1 X32.839 Y8.777 F600
G1 X32.872 Y8.740 F600
G1 X32.903 Y8.700 F600
G1 X32.929 Y8.657 F600
G1 X32.951 Y8.611 F600
G1 X32.969 Y8.562 F600
G1 X32.982 Y8.512 F600
G1 X32.990 Y8.460 F600
G1 X32.992 Y8.406 F600
G1 X32.992 Y5.653 F600
G1 X27.350 Y5.653 F600
G1 X27.350 Y8.406 F600
G1 X27.352 Y8.460 F600
G1 X27.360 Y8.512 F600
G1 X27.373 Y8.562 F600
G1 X27.391 Y8.611 F600
G1 X27.413 Y8.656 F600
G1 X27.439 Y8.700 F600
G1 X27.470 Y8.740 F600
G1 X27.504 Y8.777 F600
G1 X27.541 Y8.811 F600
G1 X27.581 Y8.842 F600
G1 X27.624 Y8.868 F600
G1 X27.670 Y8.890 F600
G1 X27.719 Y8.908 F600
G1 X27.769 Y8.921 F600
G1 X27.821 Y8.929 F600
G1 X27.875 Y8.931 F600
G1 X27.875 Y8.931 F600
M5
G0 X36.650 Y7.139 F3000
M4 S10000
G1 X36.643 Y6.993 F600
G1 X36.621 Y6.849 F600
G1 X36.586 Y6.707 F600
G1 X36.536 Y6.570 F600
G1 X36.473 Y6.438 F600
G1 X36.398 Y6.313 F600
G1 X36.310 Y6.196 F600
G1 X36.212 Y6.088 F600
G1 X36.103 Y5.990 F600
G1 X35.985 Y5.904 F600
G1 X35.859 Y5.829 F600
G1 X35.726 Y5.766 F600
G1 X35.588 Y5.717 F600
G1 X35.445 Y5.682 F600
G1 X35.300 Y5.660 F600
G1 X35.153 Y5.653 F600
G1 X35.006 Y5.660 F600
G1 X34.861 Y5.682 F600
G1 X34.719 Y5.717 F600
G1 X34.580 Y5.766 F600
G1 X34.447 Y5.829 F600
G1 X34.321 Y5.904 F600
G1 X34.203 Y5.990 F600
G1 X34.094 Y6.088 F600
G1 X33.996 Y6.196 F600
G1 X33.908 Y6.313 F600
G1 X33.833 Y6.438 F600
G1 X33.770 Y6.570 F600
G1 X33.720 Y6.707 F600
G1 X33.685 Y6.849 F600
G1 X33.663 Y6.993 F600
G1 X33.656 Y7.139 F600
G1 X33.663 Y7.284 F600
G1 X33.685 Y7.428 F600
G1 X33.720 Y7.570 F600
G1 X33.770 Y7.707 F600
G1 X33.833 Y7.839 F600
G1 X33.908 Y7.964 F600
G1 X33.996 Y8.081 F600
G1 X34.094 Y8.189 F600
G1 X34.203 Y8.287 F600
G1 X34.321 Y8.374 F600
G1 X34.447 Y8.449 F600
G1 X34.580 Y8.511 F600
G1 X34.719 Y8.560 F600
G1 X34.861 Y8.595 F600
G1 X35.006 Y8.617 F600
G1 X35.153 Y8.624 F600
G1 X35.300 Y8.617 F600
G1 X35.445 Y8.595 F600
G1 X35.588 Y8.560 F600
G1 X35.726 Y8.511 F600
G1 X35.859 Y8.449 F600
G1 X35.985 Y8.374 F600
G1 X36.103 Y8.287 F600
G1 X36.212 Y8.189 F600
G1 X36.310 Y8.081 F600
G1 X36.398 Y7.964 F600
G1 X36.473 Y7.839 F600
G1 X36.536 Y7.707 F600
G1 X36.586 Y7.570 F600
G1 X36.621 Y7.428 F600
G1 X36.643 Y7.284 F600
G1 X36.650 Y7.139 F600
M5
G0 X32.189 Y1.130 F3000
M4 S10000
G1 X36.496 Y4.324 F600
G1 X36.544 Y4.366 F600
G1 X36.583 Y4.413 F600
G1 X36.612 Y4.464 F600
G1 X36.632 Y4.517 F600
G1 X36.643 Y4.571 F600
G1 X36.645 Y4.627 F600
G1 X36.640 Y4.681 F600
G1 X36.626 Y4.735 F600
G1 X36.605 Y4.786 F600
G1 X36.577 Y4.833 F600
G1 X36.542 Y4.876 F600
G1 X36.501 Y4.913 F600
G1 X36.453 Y4.944 F600
G1 X36.400 Y4.968 F600
G1 X36.341 Y4.982 F600
G1 X36.277 Y4.987 F600
G1 X27.731 Y4.987 F600
G1 X27.667 Y4.982 F600
G1 X27.608 Y4.968 F600
G1 X27.554 Y4.944 F600
G1 X27.507 Y4.913 F600
G1 X27.465 Y4.876 F600
G1 X27.430 Y4.833 F600
G1 X27.402 Y4.786 F600
G1 X27.381 Y4.735 F600
G1 X27.368 Y4.681 F600
G1 X27.362 Y4.627 F600
G1 X27.365 Y4.571 F600
G1 X27.376 Y4.517 F600
G1 X27.395 Y4.464 F600
G1 X27.424 Y4.413 F600
G1 X27.463 Y4.366 F600
G1 X27.511 Y4.324 F600
G1 X31.818 Y1.130 F600
G1 X31.839 Y1.116 F600
G1 X31.861 Y1.103 F600
G1 X31.884 Y1.093 F600
G1 X31.907 Y1.084 F600
G1 X31.931 Y1.077 F600
G1 X31.955 Y1.073 F600
G1 X31.979 Y1.070 F600
G1 X32.004 Y1.069 F600
G1 X32.028 Y1.070 F600
G1 X32.052 Y1.073 F600
G1 X32.076 Y1.077 F600
G1 X32.100 Y1.084 F600
G1 X32.123 Y1.093 F600
G1 X32.146 Y1.103 F600
G1 X32.168 Y1.116 F600
G1 X32.189 Y1.130 F600
G1 X32.189 Y1.130 F600
M5
G0 X27.000 Y15.000 F3000
M4 S2000
G1 X28.200 Y15.000 F1500
M5
G0 X27.000 Y15.000 F3000
M4 S2000
G1 X27.000 Y14.000 F1500
M5
G0 X27.000 Y14.000 F3000
M4 S2000
G1 X27.000 Y13.000 F1500
M5
G0 X27.000 Y13.000 F3000
M4 S2000
G1 X28.200 Y13.000 F1500
M5
G0 X28.600 Y14.000 F3000
M4 S2000
G1 X29.800 Y14.000 F1500
M5
G0 X30.200 Y15.000 F3000
M4 S2000
G1 X31.400 Y15.000 F1500
M5
G0 X31.400 Y15.000 F3000
M4 S2000
G1 X31.400 Y14.000 F1500
M5
G0 X31.400 Y14.000 F3000
M4 S2000
G1 X31.400 Y13.000 F1500
M5
G0 X30.200 Y13.000 F3000
M4 S2000
G1 X31.400 Y13.000 F1500
M5
G0 X30.200 Y14.000 F3000
M4 S2000
G1 X30.200 Y13.000 F1500
M5
G0 X30.200 Y15.000 F3000
M4 S2000
G1 X30.200 Y14.000 F1500
M5
G0 X31.800 Y15.000 F3000
M4 S2000
G1 X33.000 Y15.000 F1500
M5
G0 X33.000 Y15.000 F3000
M4 S2000
G1 X33.000 Y14.000 F1500
M5
G0 X33.000 Y14.000 F3000
M4 S2000
G1 X33.000 Y13.000 F1500
M5
G0 X31.800 Y13.000 F3000
M4 S2000
G1 X33.000 Y13.000 F1500
M5
G0 X31.800 Y14.000 F3000
M4 S2000
G1 X31.800 Y13.000 F1500
M5
G0 X31.800 Y15.000 F3000
M4 S2000
G1 X31.800 Y14.000 F1500
M5
G0 X33.400 Y15.000 F3000
M4 S2000
G1 X34.600 Y15.000 F1500
M5
G0 X34.600 Y15.000 F3000
M4 S2000
G1 X34.600 Y14.000 F1500
M5
G0 X33.400 Y14.000 F3000
M4 S2000
G1 X34.600 Y14.000 F1500
M5
G0 X34.600 Y14.000 F3000
M4 S2000
G1 X34.600 Y13.000 F1500
M5
G0 X33.400 Y13.000 F3000
M4 S2000
G1 X34.600 Y13.000 F1500
M5
M5 ; laser apagado
G0 X0 Y0 ; volver al origen
